{
"type": "FeatureCollection",
"name": "Academic_and_STEM",
"crs": { "type": "name", "properties": { "name": "urn:ogc:def:crs:OGC:1.3:CRS84" } },
"features": [
{ "type": "Feature", "properties": { "Global_Site_ID": 124324, "Activity_Category": "Academic & STEM", "Site_Name": "Denver Museum of Miniatures, Dolls and Toys", "Address": "830 Kipling St", "City": "Lakewood", "State": "CO", "Zip": 80215, "Latitude": 39.73002014, "Longitude": -105.1091, "Site_IDs": 150138, "Org_IDs": 36851, "Organization": "Denver Writes", "Location_Type": "Community", "DPS_School_Num": null, "Programs": "Creative Writing Club; Personal Narratives; The Pencil and the Plate: Descriptive Food Writing; Verses That Move: Exploring Slam Poetry", "Program_Count": 4, "Program_Description": "Creative Writing Club is a space for writers ages 10 and up to work on writing projects collaborate with other writers share and receive feedback from other participants and join in on mini writing games and workshops.; Discover the power of your voice in this engaging slam poetry workshop. You’ll craft meaningful poems and learn to deliver them with confidence. Followed by a supportive slam-style showcase.www.denverwrites.org/workshops/; In this workshop students will explore how to describe fo", "Cost": "Free", "Scholarship_Available": false, "Open_Enrollment": true, "Registration_Process": "Registration is available on our website via a google form.", "Registration_URL": "https://www.denverwrites.org/workshops/", "Food_Provided": "Yes - Snacks", "Transport_Available": false, "Time_Availability": "After School; Holiday; Summer", "Focus_Areas": "Academic; Arts; College & Career", "Phone": "303-322-1053", "Email": "education@dmmdt.org", "Website": "https://www.denverwrites.org/" }, "geometry": { "type": "Point", "coordinates": [ -105.1091, 39.73002014 ] } },
{ "type": "Feature", "properties": { "Global_Site_ID": 124622, "Activity_Category": "Academic & STEM", "Site_Name": "Wings Over the Rockies Air and Space Museum", "Address": "7711 East Academy Blvd. Hanger 1", "City": "Denver", "State": "CO", "Zip": 80230, "Latitude": 39.72098687, "Longitude": -104.8953067, "Site_IDs": 132683, "Org_IDs": 38785, "Organization": "Wings Over the Rockies", "Location_Type": "Community", "DPS_School_Num": null, "Programs": "Aviation Merit Badge; Wings Aerospace Exploration Pathway- High School; Wings Aerospace Exploration Pathway- Middle School", "Program_Count": 3, "Program_Description": "A weekly aviation and space focused enrichment program for students in grades 6-8.  This unique program offers an exciting approach to education for middle and high school students interested in aviation and aerospace.; A weekly aviation and space focused enrichment program for students in grades 9-12.  Now available at  the Lowry and Centennial locations for students interested in aviation and aerospace.; Scouts will earn the Aviation Merit badge during this once a month class. Available the 4t", "Cost": "Free and fee-based programs available", "Scholarship_Available": true, "Open_Enrollment": true, "Registration_Process": null, "Registration_URL": "https://wingsmuseum.org/wp-content/uploads/WAP-Pre-Registration_Form_fillable.pdf", "Food_Provided": "No", "Transport_Available": false, "Time_Availability": "By Request; School Day", "Focus_Areas": "Academic; College & Career; Service Learning", "Phone": "303.360.5360 ext 125", "Email": "nhall@wingsmuseum.org", "Website": "https://wingsmuseum.org/" }, "geometry": { "type": "Point", "coordinates": [ -104.8953067, 39.72098687 ] } },
{ "type": "Feature", "properties": { "Global_Site_ID": 139341, "Activity_Category": "Academic & STEM", "Site_Name": "Aman STEAM Academy, Inc.", "Address": "2945 Julian St.", "City": "Denver", "State": "CO", "Zip": 80211, "Latitude": 39.76008646, "Longitude": -105.0324154, "Site_IDs": 133430, "Org_IDs": 39217, "Organization": "Aman STEAM Academy, Inc.", "Location_Type": "Faith-Based", "DPS_School_Num": null, "Programs": "Kids' Cooking Class; Parent's Night Out; STEAM Programs; STEAM Saturdays", "Program_Count": 4, "Program_Description": "Kiddos apply advanced engineering design principles and scientific knowledge in age appropriate ways  through hands-on building projects science experiments and interactive sessions. All projects are able to be taken home.", "Cost": "Free and fee-based programs available", "Scholarship_Available": false, "Open_Enrollment": true, "Registration_Process": "Families can find registration online or email info@amansteamacademy.org", "Registration_URL": "https://www.amansteamacademy.org", "Food_Provided": "No", "Transport_Available": true, "Time_Availability": "After School; By Request; Holiday; School Day; Summer", "Focus_Areas": "Academic; Arts", "Phone": "720-909-5722", "Email": "farrah.martin@amansteamacademy.org", "Website": "https://www.amansteamacademy.org" }, "geometry": { "type": "Point", "coordinates": [ -105.0324154, 39.76008646 ] } },
{ "type": "Feature", "properties": { "Global_Site_ID": 139373, "Activity_Category": "Academic & STEM", "Site_Name": "Spanish Learning Network", "Address": "3775 Zenobia St.", "City": "Denver", "State": "CO", "Zip": 80212, "Latitude": 39.76966454, "Longitude": -105.0524821, "Site_IDs": 133450, "Org_IDs": 39126, "Organization": "Spanish Learning Network", "Location_Type": "School (Private or Non-DPS)", "DPS_School_Num": null, "Programs": "Spanish Learning Network", "Program_Count": 1, "Program_Description": "Spanish summer camps After School Enrichment programs in public and private schools private tutoring group classes for adults Spanish immersion programs and Spanish programming and workshops for businesses and non-profits.", "Cost": "Free and fee-based programs available", "Scholarship_Available": true, "Open_Enrollment": true, "Registration_Process": null, "Registration_URL": null, "Food_Provided": "No", "Transport_Available": false, "Time_Availability": "After School; Before School; By Request; School Day; Summer", "Focus_Areas": "Arts", "Phone": "8587618372", "Email": "info@spanishlearningnetwork.com", "Website": "http://www.spanishlearningnetwork.com" }, "geometry": { "type": "Point", "coordinates": [ -105.0524821, 39.76966454 ] } },
{ "type": "Feature", "properties": { "Global_Site_ID": 142418, "Activity_Category": "Academic & STEM", "Site_Name": "10Four", "Address": "2102 N Marion St", "City": "Denver", "State": "CO", "Zip": 80205, "Latitude": 39.74836587, "Longitude": -104.9717821, "Site_IDs": 133678, "Org_IDs": 40195, "Organization": "10Four", "Location_Type": "Other", "DPS_School_Num": null, "Programs": "After School Program; Art Club; Book Club; Cooking Club; Creative Dance; Game Club; Health and Wellness; Movement/Indoor Rock Climbing; STEM; Spring Break Camp", "Program_Count": 10, "Program_Description": "A movement program for youth with structured activity that can help children develop their physical mental and social skills.; Game Room with Ping Pong Foosball Air Hockey Shuffleboard Board games card games.  Art room with clay paint and drawing. Graphic Novels comics books. Computers for gaming research video and image editing. Kitchen with healthy snack; In the 10Four kitchen youth learn how to move around safely gain knowledge on handling kitchen utensils properly all while making a nutritio", "Cost": "Free", "Scholarship_Available": false, "Open_Enrollment": true, "Registration_Process": "Parents will need to complete a registration form that includes their child's information, pertinent health information, permissions for membership and transportation. ", "Registration_URL": null, "Food_Provided": "Yes - Snacks", "Transport_Available": true, "Time_Availability": "After School; Holiday; Summer", "Focus_Areas": "Academic; Arts; College & Career; Family Support; Leadership; Outdoor; Service Learning; Sports & Health", "Phone": "3038306911", "Email": "10fourcharity@gmail.com", "Website": "https://www.10four.io/" }, "geometry": { "type": "Point", "coordinates": [ -104.9717821, 39.74836587 ] } },
{ "type": "Feature", "properties": { "Global_Site_ID": 157339, "Activity_Category": "Academic & STEM", "Site_Name": "iCode Cherry Creek", "Address": "760 South Colorado Boulevard", "City": "Glendale", "State": "CO", "Zip": 80246, "Latitude": 39.70299342, "Longitude": -104.9402543, "Site_IDs": 134509, "Org_IDs": 41900, "Organization": "iCode", "Location_Type": "Other", "DPS_School_Num": null, "Programs": "Belt Classes", "Program_Count": 1, "Program_Description": "We offer a variety of STEAM based classes.", "Cost": "Free and fee-based programs available", "Scholarship_Available": true, "Open_Enrollment": true, "Registration_Process": null, "Registration_URL": "https://icodeschool.com/cherry-creek-co/", "Food_Provided": "No", "Transport_Available": false, "Time_Availability": "After School; Holiday; Summer", "Focus_Areas": "Academic; College & Career", "Phone": "7206032442", "Email": "cherrycreek@icodeschool.com", "Website": "https://icodeschool.com/cherry-creek-co/" }, "geometry": { "type": "Point", "coordinates": [ -104.9402543, 39.70299342 ] } },
{ "type": "Feature", "properties": { "Global_Site_ID": 157391, "Activity_Category": "Academic & STEM", "Site_Name": "Thrive Tutoring- Main Office", "Address": "3298 S Acoma St, Englewood CO 80110", "City": "Englewood", "State": "CO", "Zip": 80110, "Latitude": 39.65679253, "Longitude": -104.9888131, "Site_IDs": 134564, "Org_IDs": 41984, "Organization": "Thrive Tutoring Denver", "Location_Type": "Other", "DPS_School_Num": null, "Programs": "Personalized Tutoring", "Program_Count": 1, "Program_Description": "Click the registration link to get matched with a tutor. The session will be scheduled to work with your schedule and desired location.", "Cost": "Free and fee-based programs available", "Scholarship_Available": false, "Open_Enrollment": true, "Registration_Process": "Follow our Registration link. You will be directed to fill out a form and one of our team members will get in touch with you within 24 hours. You are also welcome to try calling or texting us anytime at (720) 737-8009. This location is our primary office. We work hard to meet to our students' needs for transportation and schedule. Tutoring typically happens in a client's home, near their home, or online.", "Registration_URL": "https://www.thrivetutoringdenver.com/findmytutor", "Food_Provided": "No", "Transport_Available": false, "Time_Availability": "After School; Before School; By Request; Holiday; School Day; Summer", "Focus_Areas": "Academic; College & Career; Leadership", "Phone": "720-737-8009", "Email": "hello@thrivetutoringdenver.com", "Website": "https://www.thrivetutoringdenver.com/" }, "geometry": { "type": "Point", "coordinates": [ -104.9888131, 39.65679253 ] } },
{ "type": "Feature", "properties": { "Global_Site_ID": 157392, "Activity_Category": "Academic & STEM", "Site_Name": "Success4Life", "Address": "1232 Bergen Pkwy, Suite 205", "City": "Evergreen", "State": "CO", "Zip": 80439, "Latitude": 39.69243925, "Longitude": -105.3568061, "Site_IDs": 134567, "Org_IDs": 41979, "Organization": "SUCCESS4LIFE GED TUTORING SERVICES", "Location_Type": "Other", "DPS_School_Num": null, "Programs": "Tutoring", "Program_Count": 1, "Program_Description": "Success4Life travels to our clients to meet with them in their homes as well as in the community as needed. We also meet with clients in detention and residential facilities.", "Cost": "Free and fee-based programs available", "Scholarship_Available": false, "Open_Enrollment": true, "Registration_Process": "Referral Process", "Registration_URL": null, "Food_Provided": "No", "Transport_Available": false, "Time_Availability": "By Request", "Focus_Areas": "Academic", "Phone": "303-330-9464", "Email": "chad.ducklow@success4Lifeged.com", "Website": "http://success4lifetutoring.com" }, "geometry": { "type": "Point", "coordinates": [ -105.3568061, 39.69243925 ] } },
{ "type": "Feature", "properties": { "Global_Site_ID": 157885, "Activity_Category": "Academic & STEM", "Site_Name": "Second Star to the Right Children's Books", "Address": "1455 South Pearl Street", "City": "Denver", "State": "CO", "Zip": 80210, "Latitude": 39.69030726, "Longitude": -104.980758, "Site_IDs": 150039, "Org_IDs": 36851, "Organization": "Denver Writes", "Location_Type": "Other", "DPS_School_Num": null, "Programs": "Creative Writing Club; Personal Narratives; The Pencil and the Plate: Descriptive Food Writing; Verses That Move: Exploring Slam Poetry", "Program_Count": 4, "Program_Description": "Creative Writing Club is a space for writers ages 10 and up to work on writing projects collaborate with other writers share and receive feedback from other participants and join in on mini writing games and workshops.; Discover the power of your voice in this engaging slam poetry workshop. You’ll craft meaningful poems and learn to deliver them with confidence. Followed by a supportive slam-style showcase.www.denverwrites.org/workshops/; In this workshop students will explore how to describe fo", "Cost": "Free", "Scholarship_Available": false, "Open_Enrollment": true, "Registration_Process": "Different for each event, information at https://www.denverwrites.org/", "Registration_URL": "https://www.denverwrites.org/", "Food_Provided": "Yes - Snacks", "Transport_Available": false, "Time_Availability": "After School; Holiday; Summer", "Focus_Areas": "Academic; Arts; College & Career", "Phone": "303-322-1053", "Email": "education@dmmdt.org", "Website": "https://www.denverwrites.org/" }, "geometry": { "type": "Point", "coordinates": [ -104.980758, 39.69030726 ] } },
{ "type": "Feature", "properties": { "Global_Site_ID": 157886, "Activity_Category": "Academic & STEM", "Site_Name": "The Bookies Bookstore", "Address": "2085 S. Holly Street", "City": "Denver", "State": "CO", "Zip": 80222, "Latitude": 39.6788982, "Longitude": -104.9224706, "Site_IDs": 150038, "Org_IDs": 36851, "Organization": "Denver Writes", "Location_Type": "Other", "DPS_School_Num": null, "Programs": "Creative Writing Club; Personal Narratives; The Pencil and the Plate: Descriptive Food Writing; Verses That Move: Exploring Slam Poetry", "Program_Count": 4, "Program_Description": "Creative Writing Club is a space for writers ages 10 and up to work on writing projects collaborate with other writers share and receive feedback from other participants and join in on mini writing games and workshops.; Discover the power of your voice in this engaging slam poetry workshop. You’ll craft meaningful poems and learn to deliver them with confidence. Followed by a supportive slam-style showcase.www.denverwrites.org/workshops/; In this workshop students will explore how to describe fo", "Cost": "Free", "Scholarship_Available": false, "Open_Enrollment": true, "Registration_Process": "Varies by event. Information on our website.", "Registration_URL": "https://www.denverwrites.org/", "Food_Provided": "Yes - Snacks", "Transport_Available": false, "Time_Availability": "After School; Holiday; Summer", "Focus_Areas": "Academic; Arts; College & Career", "Phone": "303-322-1053", "Email": "education@dmmdt.org", "Website": "https://www.denverwrites.org/" }, "geometry": { "type": "Point", "coordinates": [ -104.9224706, 39.6788982 ] } },
{ "type": "Feature", "properties": { "Global_Site_ID": 157887, "Activity_Category": "Academic & STEM", "Site_Name": "Dayton Memorial Library on the Regis Campus", "Address": "3333 Regis Blvd, Unit D-20", "City": "Denver", "State": "CO", "Zip": 80221, "Latitude": 39.78914067, "Longitude": -105.0307018, "Site_IDs": 150041, "Org_IDs": 36851, "Organization": "Denver Writes", "Location_Type": "Library", "DPS_School_Num": null, "Programs": "Creative Writing Club; Personal Narratives; The Pencil and the Plate: Descriptive Food Writing; Verses That Move: Exploring Slam Poetry", "Program_Count": 4, "Program_Description": "Creative Writing Club is a space for writers ages 10 and up to work on writing projects collaborate with other writers share and receive feedback from other participants and join in on mini writing games and workshops.; Discover the power of your voice in this engaging slam poetry workshop. You’ll craft meaningful poems and learn to deliver them with confidence. Followed by a supportive slam-style showcase.www.denverwrites.org/workshops/; In this workshop students will explore how to describe fo", "Cost": "Free", "Scholarship_Available": false, "Open_Enrollment": true, "Registration_Process": "We offer drop in only events at this location.", "Registration_URL": "https://www.denverwrites.org/denver-writes-creative-writing-club/", "Food_Provided": "Yes - Snacks", "Transport_Available": false, "Time_Availability": "After School; Holiday; Summer", "Focus_Areas": "Academic; Arts; College & Career", "Phone": "303-322-1053", "Email": "education@dmmdt.org", "Website": "https://www.denverwrites.org/" }, "geometry": { "type": "Point", "coordinates": [ -105.0307018, 39.78914067 ] } },
{ "type": "Feature", "properties": { "Global_Site_ID": 157898, "Activity_Category": "Academic & STEM", "Site_Name": "theCoderSchool Main Office", "Address": "20269 E Smoky Hill Rd Unit L", "City": "Centennial", "State": "CO", "Zip": 80015, "Latitude": 39.61181804, "Longitude": -104.7512798, "Site_IDs": 150060, "Org_IDs": 42389, "Organization": "theCoderSchool", "Location_Type": "Other", "DPS_School_Num": null, "Programs": "Code Coaching", "Program_Count": 1, "Program_Description": "Personalized code coaching with either a 1:1 or 2:1 student/coach ratio", "Cost": "Free and fee-based programs available", "Scholarship_Available": false, "Open_Enrollment": true, "Registration_Process": null, "Registration_URL": null, "Food_Provided": "Yes - Snacks", "Transport_Available": false, "Time_Availability": "After School; Holiday; Summer", "Focus_Areas": "Academic; College & Career", "Phone": "4698350949", "Email": "derek@thecoderschool.com", "Website": "https://thecoderschool.com/locations/centennial" }, "geometry": { "type": "Point", "coordinates": [ -104.7512798, 39.61181804 ] } }
]
}
