{
"type": "FeatureCollection",
"name": "Alternative_Schools",
"crs": { "type": "name", "properties": { "name": "urn:ogc:def:crs:OGC:1.3:CRS84" } },
"features": [
{ "type": "Feature", "properties": { "OBJECTID_1": 0, "fid_": 21, "schnum": 516, "school_nam": "EXCEL", "school_n_1": "EXCEL Academy", "school_dis": "Denver County 1 (DPS)", "classifica": "District", "school_lev": "High", "grade_leve": "12-Sep", "address_li": "1825 S. Federal Blvd.", "city": "Denver", "state": "CO", "zip": 80219, "NBHD_NAME": "Mar Lee", "Nearest_su": 0.893524444, "nearest__1": 0.894, "X": -105.02529, "Y": 39.6842, "NEAR_FID": 62, "NEAR_DIST": 0.026256471, "EP_STRATIO": 19, "EP_ATTEND": 0.373, "EP_CHRABSE": 0.889, "EP_TRUANCY": 0.325, "EP_PERF": 0.461, "SRI_SCORE": 1.0 }, "geometry": { "type": "Point", "coordinates": [ -105.02529, 39.6842 ] } },
{ "type": "Feature", "properties": { "OBJECTID_1": 0, "fid_": 65, "schnum": 602, "school_nam": "EGHS", "school_n_1": "Emily Griffith High School", "school_dis": "Denver County 1 (DPS)", "classifica": "District", "school_lev": "High", "grade_leve": "12-Sep", "address_li": "1860 Lincoln St.", "city": "Denver", "state": "CO", "zip": 80203, "NBHD_NAME": "North Capitol Hill", "Nearest_su": 0.364963966, "nearest__1": 0.365, "X": -104.9861, "Y": 39.74574, "NEAR_FID": 26, "NEAR_DIST": 0.005293808, "EP_STRATIO": 17, "EP_ATTEND": 0.467, "EP_CHRABSE": 0.942, "EP_TRUANCY": 0.417, "EP_PERF": 0.399, "SRI_SCORE": 0.99 }, "geometry": { "type": "Point", "coordinates": [ -104.9861, 39.74574 ] } },
{ "type": "Feature", "properties": { "OBJECTID_1": 0, "fid_": 122, "schnum": 509, "school_nam": "Montbello Tech", "school_n_1": "Montbello Career and Technical High School", "school_dis": "Denver County 1 (DPS)", "classifica": "District", "school_lev": "High", "grade_leve": "12-Sep", "address_li": "4501 Airport Way", "city": "Denver", "state": "CO", "zip": 80239, "NBHD_NAME": "Gateway - Green Valley Ranch", "Nearest_su": 2.573292046, "nearest__1": 2.573, "X": -104.79567, "Y": 39.77545, "NEAR_FID": 6, "NEAR_DIST": 0.039609869, "EP_STRATIO": 18, "EP_ATTEND": 0.227, "EP_CHRABSE": 0.799, "EP_TRUANCY": 0.173, "EP_PERF": 0.459, "SRI_SCORE": 0.98 }, "geometry": { "type": "Point", "coordinates": [ -104.79567, 39.77545 ] } },
{ "type": "Feature", "properties": { "OBJECTID_1": 0, "fid_": 98, "schnum": 378, "school_nam": "Denver Online MS", "school_n_1": "Denver Online Middle School", "school_dis": "Denver County 1 (DPS)", "classifica": "District", "school_lev": "Middle", "grade_leve": "8-Jun", "address_li": "451 S. Tejon St.", "city": null, "state": null, "zip": 80211, "NBHD_NAME": "Athmar Park", "Nearest_su": 0.194711493, "nearest__1": 0.195, "X": -105.01098, "Y": 39.70847, "NEAR_FID": 43, "NEAR_DIST": 0.005119721, "EP_STRATIO": 17, "EP_ATTEND": 0.227, "EP_CHRABSE": 0.565, "EP_TRUANCY": 0.215, "EP_PERF": 0.53, "SRI_SCORE": 0.97 }, "geometry": { "type": "Point", "coordinates": [ -105.01098, 39.70847 ] } },
{ "type": "Feature", "properties": { "OBJECTID_1": 0, "fid_": 202, "schnum": 484, "school_nam": "Denver Online HS", "school_n_1": "Denver Online High School", "school_dis": "Denver County 1 (DPS)", "classifica": "District", "school_lev": "High", "grade_leve": "12-Jun", "address_li": "451 S. Tejon St.", "city": "Denver", "state": "CO", "zip": 80211, "NBHD_NAME": "Athmar Park", "Nearest_su": 0.194711493, "nearest__1": 0.195, "X": -105.01098, "Y": 39.70847, "NEAR_FID": 43, "NEAR_DIST": 0.005119721, "EP_STRATIO": 17, "EP_ATTEND": 0.227, "EP_CHRABSE": 0.565, "EP_TRUANCY": 0.215, "EP_PERF": 0.53, "SRI_SCORE": 0.97 }, "geometry": { "type": "Point", "coordinates": [ -105.01098, 39.70847 ] } },
{ "type": "Feature", "properties": { "OBJECTID_1": 0, "fid_": 13, "schnum": 609, "school_nam": "Vista HS", "school_n_1": "Vista Academy HS", "school_dis": "Denver County 1 (DPS)", "classifica": "District", "school_lev": "High", "grade_leve": "12-Sep", "address_li": "4800 N. Telluride St.", "city": "Denver", "state": "CO", "zip": 80249, "NBHD_NAME": "Gateway - Green Valley Ranch", "Nearest_su": 2.573292046, "nearest__1": 2.573, "X": -104.78144, "Y": 39.78564, "NEAR_FID": 6, "NEAR_DIST": 0.054608784, "EP_STRATIO": 16, "EP_ATTEND": 0.281, "EP_CHRABSE": 0.739, "EP_TRUANCY": 0.222, "EP_PERF": 0.423, "SRI_SCORE": 0.96 }, "geometry": { "type": "Point", "coordinates": [ -104.78144, 39.78564 ] } },
{ "type": "Feature", "properties": { "OBJECTID_1": 0, "fid_": 35, "schnum": 399, "school_nam": "Vista MS", "school_n_1": "Vista Academy MS", "school_dis": "Denver County 1 (DPS)", "classifica": "District", "school_lev": "Middle", "grade_leve": "8-Jun", "address_li": "4800 N. Telluride St.", "city": "Denver", "state": "CO", "zip": 80249, "NBHD_NAME": "Gateway - Green Valley Ranch", "Nearest_su": 2.573292046, "nearest__1": 2.573, "X": -104.78144, "Y": 39.78564, "NEAR_FID": 6, "NEAR_DIST": 0.054608784, "EP_STRATIO": 16, "EP_ATTEND": 0.281, "EP_CHRABSE": 0.739, "EP_TRUANCY": 0.222, "EP_PERF": 0.423, "SRI_SCORE": 0.96 }, "geometry": { "type": "Point", "coordinates": [ -104.78144, 39.78564 ] } }
]
}
