{
"type": "FeatureCollection",
"name": "Amphitheaters",
"crs": { "type": "name", "properties": { "name": "urn:ogc:def:crs:OGC:1.3:CRS84" } },
"features": [
{ "type": "Feature", "properties": { "Name": "Levitt Pavilion Denver", "Address": "1380 W Florida Ave", "City": "Denver", "State": "CO", "Zip": 80223, "County": "Denver", "Latitude": 39.6861, "Longitude": -105.003, "Capacity": "6,500 (18,000 lawn)", "Type": "Amphitheater", "Operator": "Friends of Levitt Pavilion Denver (501c3)", "Website": "https://www.levittdenver.org", "Phone": "(303) 578-0488", "Free_Events": "Yes - 50+ free concerts annually", "Status": "Active", "Notes": "Located in Ruby Hill Park; opened 2017; largest outdoor dedicated music venue in Denver proper" }, "geometry": { "type": "Point", "coordinates": [ -105.003, 39.6861 ] } },
{ "type": "Feature", "properties": { "Name": "Denver Botanic Gardens UMB Bank Amphitheater", "Address": "1007 York St", "City": "Denver", "State": "CO", "Zip": 80206, "County": "Denver", "Latitude": 39.7319, "Longitude": -104.9609, "Capacity": null, "Type": "Amphitheater (tented)", "Operator": "Denver Botanic Gardens", "Website": "https://www.botanicgardens.org", "Phone": "(720) 865-3551", "Free_Events": "No - ticketed", "Status": "Active", "Notes": "Summer concert series and private event rentals; seasonal (April-October)" }, "geometry": { "type": "Point", "coordinates": [ -104.9609, 39.7319 ] } },
{ "type": "Feature", "properties": { "Name": "Civic Center Park Greek Amphitheater", "Address": "101 W 14th Ave", "City": "Denver", "State": "CO", "Zip": 80204, "County": "Denver", "Latitude": 39.7382, "Longitude": -104.9889, "Capacity": null, "Type": "Amphitheater (historic)", "Operator": "City and County of Denver", "Website": "https://civiccenterpark.org", "Phone": "(303) 861-4633", "Free_Events": "Yes - public events", "Status": "Active", "Notes": "Built 1919; National Historic Landmark; undergoing redesign as part of Civic Center Next 100 project" }, "geometry": { "type": "Point", "coordinates": [ -104.9889, 39.7382 ] } },
{ "type": "Feature", "properties": { "Name": "Sculpture Park at Denver Performing Arts Complex", "Address": "1400 Curtis St", "City": "Denver", "State": "CO", "Zip": 80202, "County": "Denver", "Latitude": 39.7432, "Longitude": -104.9992, "Capacity": "7,000", "Type": "Outdoor venue", "Operator": "Denver Arts & Venues", "Website": "https://artscomplex.com", "Phone": null, "Free_Events": "No - ticketed", "Status": "Active", "Notes": "Adjacent to DPAC on Speer Blvd; home to iconic 60-ft Dancers sculpture; hosts festivals and concerts" }, "geometry": { "type": "Point", "coordinates": [ -104.9992, 39.7432 ] } },
{ "type": "Feature", "properties": { "Name": "City Park Bandshell", "Address": "2001 Steele St", "City": "Denver", "State": "CO", "Zip": 80205, "County": "Denver", "Latitude": 39.7463, "Longitude": -104.9523, "Capacity": null, "Type": "Bandshell", "Operator": "City and County of Denver / City Park Jazz", "Website": "https://cityparkjazz.org", "Phone": null, "Free_Events": "Yes - free Sunday jazz series", "Status": "Active", "Notes": null }, "geometry": { "type": "Point", "coordinates": [ -104.9523, 39.7463 ] } }
]
}
