{
"type": "FeatureCollection",
"name": "Arts_and_Music",
"crs": { "type": "name", "properties": { "name": "urn:ogc:def:crs:OGC:1.3:CRS84" } },
"features": [
{ "type": "Feature", "properties": { "Global_Site_ID": 124175, "Activity_Category": "Arts & Music", "Site_Name": "5280 High School", "Address": "899 Broadway", "City": "Denver", "State": "CO", "Zip": 80203, "Latitude": 39.73021104, "Longitude": -104.9878485, "Site_IDs": "150159", "Org_IDs": 38176, "Organization": "Mobile Studio Incorporated", "Location_Type": "School (Denver Public Schools)", "DPS_School_Num": 532.0, "Programs": "MUSIC WORKSHOPS", "Program_Count": 1, "Program_Description": "Music education through open song creation sessions focusing on hip hop pop electronic and rock. Participants are invited to record/produce their own tracks using our state-of-the-art professional studio equipment in a safe positive environment.", "Cost": "Free", "Scholarship_Available": false, "Open_Enrollment": true, "Registration_Process": "Students sign up for program at their school. Schools can request services through our website.", "Registration_URL": "https://'.www.mobile-studio.org", "Food_Provided": "No", "Transport_Available": false, "Time_Availability": "After School; By Request; School Day; Summer", "Focus_Areas": "Arts; College & Career; Family Support", "Phone": "7344763899", "Email": "mobilestudioincorporated@gmail.com", "Website": "https://mobile-studio-inc.org" }, "geometry": { "type": "Point", "coordinates": [ -104.9878485, 39.73021104 ] } },
{ "type": "Feature", "properties": { "Global_Site_ID": 124183, "Activity_Category": "Arts & Music", "Site_Name": "Academy of Urban Learning", "Address": "2417 West 29th Ave.", "City": "Denver", "State": "CO", "Zip": 80211, "Latitude": 39.75879682, "Longitude": -105.0169211, "Site_IDs": "134322", "Org_IDs": 38176, "Organization": "Mobile Studio Incorporated", "Location_Type": "School (Denver Public Schools)", "DPS_School_Num": 488.0, "Programs": "MUSIC WORKSHOPS", "Program_Count": 1, "Program_Description": "Music education through open song creation sessions focusing on hip hop pop electronic and rock. Participants are invited to record/produce their own tracks using our state-of-the-art professional studio equipment in a safe positive environment.", "Cost": "Free", "Scholarship_Available": false, "Open_Enrollment": true, "Registration_Process": null, "Registration_URL": null, "Food_Provided": "No", "Transport_Available": false, "Time_Availability": "After School; By Request; School Day; Summer", "Focus_Areas": "Arts; College & Career; Family Support", "Phone": "7344763899", "Email": "mobilestudioincorporated@gmail.com", "Website": "https://mobile-studio-inc.org" }, "geometry": { "type": "Point", "coordinates": [ -105.0169211, 39.75879682 ] } },
{ "type": "Feature", "properties": { "Global_Site_ID": 124243, "Activity_Category": "Arts & Music", "Site_Name": "Castro Elementary School", "Address": "845 South Lowell Blvd.", "City": "Denver", "State": "CO", "Zip": 80219, "Latitude": 39.70156198, "Longitude": -105.0351913, "Site_IDs": "133011", "Org_IDs": 39086, "Organization": "VOCO Youth Choirs", "Location_Type": "School (Denver Public Schools)", "DPS_School_Num": 287.0, "Programs": "College View VOCO; McAuliffe VOCO; VOCO Advanced", "Program_Count": 3, "Program_Description": "VOCO is a modern choir program that gives music-loving youth opportunities to sing rap and build community together.", "Cost": "Free", "Scholarship_Available": false, "Open_Enrollment": true, "Registration_Process": "Our registration form takes less than 5 minutes to fill out. If you'd like to speak with our staff before registering, email us at voco@hncollective.org.", "Registration_URL": "https://www.vocalcoalition.org/signup", "Food_Provided": "No", "Transport_Available": false, "Time_Availability": "After School", "Focus_Areas": "Arts", "Phone": "7208781945", "Email": "voco@hncollective.org", "Website": "https://www.vocalcoalition.org/" }, "geometry": { "type": "Point", "coordinates": [ -105.0351913, 39.70156198 ] } },
{ "type": "Feature", "properties": { "Global_Site_ID": 124271, "Activity_Category": "Arts & Music", "Site_Name": "Colorado High School Charter", "Address": "1175 Osage St. #100", "City": "Denver", "State": "CO", "Zip": 80204, "Latitude": 39.73490799, "Longitude": -105.0057181, "Site_IDs": "134057; 134058", "Org_IDs": 36626, "Organization": "Denver Children's Choir", "Location_Type": "School (Denver Public Schools)", "DPS_School_Num": 479.0, "Programs": "Alpine BW; Summit Singers Central Location; Timberline  Samuels; Timberline BW; Timberline Barney Ford; Timberline Choir Beach Court; Timberline Cole Arts & Science; Timberline Columbine; Timberline Park Hill Location; Timberline SE Bethany Lutheran Church; Timberline SW Gust", "Program_Count": 11, "Program_Description": "Alpine is an advanced-beginning level choir where singers gain confidence in singing with a healthy vocal technique gain sight-singing skills and become more comfortable holding their part in an ensemble.; Summit is the DCC’s advanced-intermediate level choir where singers learn more challenging repertoire perform more regularly and can comfortably hold their part when singing 3-part music.  Summit Singers take a regional choir tour every other year.; Timberline is an entry level beginning choir", "Cost": "Free and fee-based programs available", "Scholarship_Available": true, "Open_Enrollment": true, "Registration_Process": null, "Registration_URL": "https://denverchildrenschoir.org/", "Food_Provided": "No", "Transport_Available": false, "Time_Availability": "After School; School Day", "Focus_Areas": "Arts", "Phone": "3033000470", "Email": "mary@denverchildrenschoir.org", "Website": "https://www.denverchildrenschoir.org" }, "geometry": { "type": "Point", "coordinates": [ -105.0057181, 39.73490799 ] } },
{ "type": "Feature", "properties": { "Global_Site_ID": 124284, "Activity_Category": "Arts & Music", "Site_Name": "Contemporary Learning Academy (CLA) High School", "Address": "200 East 9th Ave.", "City": "Denver", "State": "CO", "Zip": 80203, "Latitude": 39.7300454, "Longitude": -104.9844922, "Site_IDs": "134324", "Org_IDs": 38176, "Organization": "Mobile Studio Incorporated", "Location_Type": "School (Denver Public Schools)", "DPS_School_Num": 682.0, "Programs": "MUSIC WORKSHOPS", "Program_Count": 1, "Program_Description": "Music education through open song creation sessions focusing on hip hop pop electronic and rock. Participants are invited to record/produce their own tracks using our state-of-the-art professional studio equipment in a safe positive environment.", "Cost": "Free", "Scholarship_Available": false, "Open_Enrollment": true, "Registration_Process": null, "Registration_URL": null, "Food_Provided": "No", "Transport_Available": false, "Time_Availability": "After School; By Request; School Day; Summer", "Focus_Areas": "Arts; College & Career; Family Support", "Phone": "7344763899", "Email": "mobilestudioincorporated@gmail.com", "Website": "https://mobile-studio-inc.org" }, "geometry": { "type": "Point", "coordinates": [ -104.9844922, 39.7300454 ] } },
{ "type": "Feature", "properties": { "Global_Site_ID": 124391, "Activity_Category": "Arts & Music", "Site_Name": "Florence Crittenton High School", "Address": "55 South Zuni St.", "City": "Denver", "State": "CO", "Zip": 80223, "Latitude": 39.71555158, "Longitude": -105.0154263, "Site_IDs": "134323", "Org_IDs": 38176, "Organization": "Mobile Studio Incorporated", "Location_Type": "School (Denver Public Schools)", "DPS_School_Num": 473.0, "Programs": "MUSIC WORKSHOPS", "Program_Count": 1, "Program_Description": "Music education through open song creation sessions focusing on hip hop pop electronic and rock. Participants are invited to record/produce their own tracks using our state-of-the-art professional studio equipment in a safe positive environment.", "Cost": "Free", "Scholarship_Available": false, "Open_Enrollment": true, "Registration_Process": null, "Registration_URL": null, "Food_Provided": "No", "Transport_Available": false, "Time_Availability": "After School; By Request; School Day; Summer", "Focus_Areas": "Arts; College & Career; Family Support", "Phone": "7344763899", "Email": "mobilestudioincorporated@gmail.com", "Website": "https://mobile-studio-inc.org" }, "geometry": { "type": "Point", "coordinates": [ -105.0154263, 39.71555158 ] } },
{ "type": "Feature", "properties": { "Global_Site_ID": 124406, "Activity_Category": "Arts & Music", "Site_Name": "Girls Athletic Leadership (GALS) Middle School", "Address": "750 Galapago St.", "City": "Denver", "State": "CO", "Zip": 80204, "Latitude": 39.72835977, "Longitude": -104.9960543, "Site_IDs": "133010", "Org_IDs": 39086, "Organization": "VOCO Youth Choirs", "Location_Type": "School (Denver Public Schools)", "DPS_School_Num": 446.0, "Programs": "College View VOCO; McAuliffe VOCO; VOCO Advanced", "Program_Count": 3, "Program_Description": "VOCO is a modern choir program that gives music-loving youth opportunities to sing rap and build community together.", "Cost": "Free", "Scholarship_Available": false, "Open_Enrollment": true, "Registration_Process": "Our registration form takes less than 5 minutes to fill out. If you'd like to speak with our staff before registering, email us at voco@hncollective.org.", "Registration_URL": "https://www.vocalcoalition.org/signup", "Food_Provided": "No", "Transport_Available": false, "Time_Availability": "After School", "Focus_Areas": "Arts", "Phone": "7208781945", "Email": "voco@hncollective.org", "Website": "https://www.vocalcoalition.org/" }, "geometry": { "type": "Point", "coordinates": [ -104.9960543, 39.72835977 ] } },
{ "type": "Feature", "properties": { "Global_Site_ID": 124425, "Activity_Category": "Arts & Music", "Site_Name": "Gust Elementary School", "Address": "3440 West Yale Ave.", "City": "Denver", "State": "CO", "Zip": 80219, "Latitude": 39.66740887, "Longitude": -105.0311569, "Site_IDs": "149837", "Org_IDs": 36626, "Organization": "Denver Children's Choir", "Location_Type": "School (Denver Public Schools)", "DPS_School_Num": 246.0, "Programs": "Alpine BW; Summit Singers Central Location; Timberline  Samuels; Timberline BW; Timberline Barney Ford; Timberline Choir Beach Court; Timberline Cole Arts & Science; Timberline Columbine; Timberline Park Hill Location; Timberline SE Bethany Lutheran Church; Timberline SW Gust", "Program_Count": 11, "Program_Description": "Alpine is an advanced-beginning level choir where singers gain confidence in singing with a healthy vocal technique gain sight-singing skills and become more comfortable holding their part in an ensemble.; Summit is the DCC’s advanced-intermediate level choir where singers learn more challenging repertoire perform more regularly and can comfortably hold their part when singing 3-part music.  Summit Singers take a regional choir tour every other year.; Timberline is an entry level beginning choir", "Cost": "Free and fee-based programs available", "Scholarship_Available": true, "Open_Enrollment": true, "Registration_Process": null, "Registration_URL": null, "Food_Provided": "No", "Transport_Available": false, "Time_Availability": "After School; School Day", "Focus_Areas": "Arts", "Phone": "3033000470", "Email": "mary@denverchildrenschoir.org", "Website": "https://www.denverchildrenschoir.org" }, "geometry": { "type": "Point", "coordinates": [ -105.0311569, 39.66740887 ] } },
{ "type": "Feature", "properties": { "Global_Site_ID": 124443, "Activity_Category": "Arts & Music", "Site_Name": "Hill Campus of Arts and Sciences", "Address": "451 Clermont St.", "City": "Denver", "State": "CO", "Zip": 80220, "Latitude": 39.72373358, "Longitude": -104.9353449, "Site_IDs": "133009", "Org_IDs": 39086, "Organization": "VOCO Youth Choirs", "Location_Type": "School (Denver Public Schools)", "DPS_School_Num": 407.0, "Programs": "College View VOCO; McAuliffe VOCO; VOCO Advanced", "Program_Count": 3, "Program_Description": "VOCO is a modern choir program that gives music-loving youth opportunities to sing rap and build community together.", "Cost": "Free", "Scholarship_Available": false, "Open_Enrollment": true, "Registration_Process": "Our registration form takes less than 5 minutes to fill out. If you'd like to speak with our staff before registering, email us at voco@hncollective.org.", "Registration_URL": "https://www.vocalcoalition.org/signup", "Food_Provided": "No", "Transport_Available": false, "Time_Availability": "After School", "Focus_Areas": "Arts", "Phone": "7208781945", "Email": "voco@hncollective.org", "Website": "https://www.vocalcoalition.org/" }, "geometry": { "type": "Point", "coordinates": [ -104.9353449, 39.72373358 ] } },
{ "type": "Feature", "properties": { "Global_Site_ID": 124501, "Activity_Category": "Arts & Music", "Site_Name": "McAuliffe International School", "Address": "2540 Holly St.", "City": "Denver", "State": "CO", "Zip": 80207, "Latitude": 39.75380697, "Longitude": -104.9216281, "Site_IDs": "150246", "Org_IDs": 39086, "Organization": "VOCO Youth Choirs", "Location_Type": "School (Denver Public Schools)", "DPS_School_Num": 395.0, "Programs": "College View VOCO; McAuliffe VOCO; VOCO Advanced", "Program_Count": 3, "Program_Description": "VOCO is a modern choir program that gives music-loving youth opportunities to sing rap and build community together.", "Cost": "Free", "Scholarship_Available": false, "Open_Enrollment": true, "Registration_Process": "Register via the website, select McAuliffe VOCO", "Registration_URL": "https://www.vocalcoalition.org/24-25-registration-menu", "Food_Provided": "No", "Transport_Available": false, "Time_Availability": "After School", "Focus_Areas": "Arts", "Phone": "7208781945", "Email": "voco@hncollective.org", "Website": "https://www.vocalcoalition.org/" }, "geometry": { "type": "Point", "coordinates": [ -104.9216281, 39.75380697 ] } },
{ "type": "Feature", "properties": { "Global_Site_ID": 124560, "Activity_Category": "Arts & Music", "Site_Name": "Place Bridge Academy", "Address": "7125 Cherry Creek North Dr.", "City": "Denver", "State": "CO", "Zip": 80224, "Latitude": 39.68819265, "Longitude": -104.9061616, "Site_IDs": "150248", "Org_IDs": 39086, "Organization": "VOCO Youth Choirs", "Location_Type": "School (Denver Public Schools)", "DPS_School_Num": 190.0, "Programs": "College View VOCO; McAuliffe VOCO; VOCO Advanced", "Program_Count": 3, "Program_Description": "VOCO is a modern choir program that gives music-loving youth opportunities to sing rap and build community together.", "Cost": "Free", "Scholarship_Available": false, "Open_Enrollment": true, "Registration_Process": "register via the website, select Place Bridge Academy VOCO", "Registration_URL": "https://www.vocalcoalition.org/24-25-registration-menu", "Food_Provided": "No", "Transport_Available": false, "Time_Availability": "After School", "Focus_Areas": "Arts", "Phone": "7208781945", "Email": "voco@hncollective.org", "Website": "https://www.vocalcoalition.org/" }, "geometry": { "type": "Point", "coordinates": [ -104.9061616, 39.68819265 ] } },
{ "type": "Feature", "properties": { "Global_Site_ID": 125632, "Activity_Category": "Arts & Music", "Site_Name": "Montview Elementary School", "Address": "2055 N Moline St", "City": "Aurora", "State": "CO", "Zip": 80010, "Latitude": 39.74848566, "Longitude": -104.8544756, "Site_IDs": "150249", "Org_IDs": 39086, "Organization": "VOCO Youth Choirs", "Location_Type": "School (Private or Non-DPS)", "DPS_School_Num": null, "Programs": "College View VOCO; McAuliffe VOCO; VOCO Advanced", "Program_Count": 3, "Program_Description": "VOCO is a modern choir program that gives music-loving youth opportunities to sing rap and build community together.", "Cost": "Free", "Scholarship_Available": false, "Open_Enrollment": true, "Registration_Process": "Register via the website, select Montview Elementary VOCO", "Registration_URL": "https://www.vocalcoalition.org/24-25-registration-menu", "Food_Provided": "No", "Transport_Available": false, "Time_Availability": "After School", "Focus_Areas": "Arts", "Phone": "7208781945", "Email": "voco@hncollective.org", "Website": "https://www.vocalcoalition.org/" }, "geometry": { "type": "Point", "coordinates": [ -104.8544756, 39.74848566 ] } },
{ "type": "Feature", "properties": { "Global_Site_ID": 125648, "Activity_Category": "Arts & Music", "Site_Name": "Art from Ashes", "Address": "1310 W 10th Ave", "City": "Denver", "State": "CO", "Zip": 80204, "Latitude": 39.73196274, "Longitude": -105.0043808, "Site_IDs": "122845; 127801", "Org_IDs": 36575, "Organization": "Art from Ashes, Inc.", "Location_Type": "Community", "DPS_School_Num": null, "Programs": "Creative Time with Art from Ashes; First Friday Workshop and Performance; Virtual Third Thursday", "Program_Count": 3, "Program_Description": "Every First Friday at 5pm join AfA as we facilitate a series of creative writing and poetry prompts and have a special guest show you the ropes of performing. You can then choose to perform your work to the public at 6pm!; Every Wednesday from 4 to 6PM join AfA as we offer several options to express yourself creatively through writing and/or visual art mediums. You are a creative genius and your voice matters. Come share it with us!; Meets every third Thursday of the month 5p-6p. Join us for som", "Cost": "Free", "Scholarship_Available": false, "Open_Enrollment": true, "Registration_Process": "There is no need to pre-register to participate in our workshops. However, once you are able to attend we do ask that you fill out an intake for your initial workshop. ", "Registration_URL": null, "Food_Provided": "Dinner; Yes - Snacks", "Transport_Available": false, "Time_Availability": "After School; Holiday; Summer", "Focus_Areas": "Arts", "Phone": "303-837-1550", "Email": "programs@artfromashes.org", "Website": "https://www.artfromashes.org" }, "geometry": { "type": "Point", "coordinates": [ -105.0043808, 39.73196274 ] } },
{ "type": "Feature", "properties": { "Global_Site_ID": 137591, "Activity_Category": "Arts & Music", "Site_Name": "First Mennonite Church", "Address": "430 W. 9th Ave", "City": "Denver", "State": "CO", "Zip": 80204, "Latitude": 39.7302571, "Longitude": -104.9934113, "Site_IDs": "132489", "Org_IDs": 36626, "Organization": "Denver Children's Choir", "Location_Type": "Faith-Based", "DPS_School_Num": null, "Programs": "Alpine BW; Summit Singers Central Location; Timberline  Samuels; Timberline BW; Timberline Barney Ford; Timberline Choir Beach Court; Timberline Cole Arts & Science; Timberline Columbine; Timberline Park Hill Location; Timberline SE Bethany Lutheran Church; Timberline SW Gust", "Program_Count": 11, "Program_Description": "Alpine is an advanced-beginning level choir where singers gain confidence in singing with a healthy vocal technique gain sight-singing skills and become more comfortable holding their part in an ensemble.; Summit is the DCC’s advanced-intermediate level choir where singers learn more challenging repertoire perform more regularly and can comfortably hold their part when singing 3-part music.  Summit Singers take a regional choir tour every other year.; Timberline is an entry level beginning choir", "Cost": "Free and fee-based programs available", "Scholarship_Available": true, "Open_Enrollment": true, "Registration_Process": "Join the Denver Children's Choir. Audition, program, and registration information is on our website: https://denverchildrenschoir.org/", "Registration_URL": "https://denverchildrenschoir.org/", "Food_Provided": "No", "Transport_Available": false, "Time_Availability": "After School; School Day", "Focus_Areas": "Arts", "Phone": "3033000470", "Email": "mary@denverchildrenschoir.org", "Website": "https://www.denverchildrenschoir.org" }, "geometry": { "type": "Point", "coordinates": [ -104.9934113, 39.7302571 ] } },
{ "type": "Feature", "properties": { "Global_Site_ID": 137595, "Activity_Category": "Arts & Music", "Site_Name": "Park Hill United Methodist Church", "Address": "5209 Montview Blvd", "City": "Denver", "State": "CO", "Zip": 80207, "Latitude": 39.74793384, "Longitude": -104.926406, "Site_IDs": "132490", "Org_IDs": 36626, "Organization": "Denver Children's Choir", "Location_Type": "Faith-Based", "DPS_School_Num": null, "Programs": "Alpine BW; Summit Singers Central Location; Timberline  Samuels; Timberline BW; Timberline Barney Ford; Timberline Choir Beach Court; Timberline Cole Arts & Science; Timberline Columbine; Timberline Park Hill Location; Timberline SE Bethany Lutheran Church; Timberline SW Gust", "Program_Count": 11, "Program_Description": "Alpine is an advanced-beginning level choir where singers gain confidence in singing with a healthy vocal technique gain sight-singing skills and become more comfortable holding their part in an ensemble.; Summit is the DCC’s advanced-intermediate level choir where singers learn more challenging repertoire perform more regularly and can comfortably hold their part when singing 3-part music.  Summit Singers take a regional choir tour every other year.; Timberline is an entry level beginning choir", "Cost": "Free and fee-based programs available", "Scholarship_Available": true, "Open_Enrollment": true, "Registration_Process": null, "Registration_URL": "https://www.denverchildrenschoir.org", "Food_Provided": "No", "Transport_Available": false, "Time_Availability": "After School; School Day", "Focus_Areas": "Arts", "Phone": "3033000470", "Email": "mary@denverchildrenschoir.org", "Website": "https://www.denverchildrenschoir.org" }, "geometry": { "type": "Point", "coordinates": [ -104.926406, 39.74793384 ] } },
{ "type": "Feature", "properties": { "Global_Site_ID": 137615, "Activity_Category": "Arts & Music", "Site_Name": "Aerial Cirque Over Denver", "Address": "4605 Quebec St. Unit B2 and B3", "City": "Denver", "State": "CO", "Zip": 80216, "Latitude": 39.78168685, "Longitude": -104.9047542, "Site_IDs": "132560", "Org_IDs": 38679, "Organization": "Aerial Cirque Over Denver", "Location_Type": "Other", "DPS_School_Num": null, "Programs": "Aerial Dance Class; Aerial Dance Summer Camp", "Program_Count": 2, "Program_Description": "Learn aerial silks trapeze hoop and hammock at Aerial Cirque Over Denver! Camps are for ages 6 – teen. We have half-day and full day options May 26th through August 15th.; Skill-based age specific aerial dance classes! In classes students learn tricks on the silks (fabric) hoop trapeze and sling (hammock)! Classes run with in sessions with the school year Spring (Jan-May) Summer Fall (Aug-Dec).", "Cost": "Free and fee-based programs available", "Scholarship_Available": false, "Open_Enrollment": true, "Registration_Process": null, "Registration_URL": null, "Food_Provided": "No", "Transport_Available": false, "Time_Availability": "After School; Holiday; School Day; Summer", "Focus_Areas": "Arts; Sports & Health", "Phone": "7205604701", "Email": "britt.yoga.nutrition@live.com", "Website": "https://www.aerialcirqueoverdenver.com" }, "geometry": { "type": "Point", "coordinates": [ -104.9047542, 39.78168685 ] } },
{ "type": "Feature", "properties": { "Global_Site_ID": 151035, "Activity_Category": "Arts & Music", "Site_Name": "SeriesFest Main Location", "Address": "1550 Wewatta St Ste. 820", "City": "Denver", "State": "CO", "Zip": 80202, "Latitude": 39.75254437, "Longitude": -105.0024877, "Site_IDs": "134238", "Org_IDs": 41177, "Organization": "SeriesFest", "Location_Type": "Community", "DPS_School_Num": null, "Programs": "SeriesFest Mobile Cinema Lab", "Program_Count": 1, "Program_Description": "SeriesFest Mobile Cinema Lab is a traveling program that brings video production and storyteller education into schools across Colorado. The program features up-to-date film and audio equipment and instruction by professional filmmakers.", "Cost": "Free", "Scholarship_Available": true, "Open_Enrollment": true, "Registration_Process": "Please email nicolebarker@seriesfest.com", "Registration_URL": null, "Food_Provided": "Yes - Snacks", "Transport_Available": false, "Time_Availability": "After School; Before School; By Request; Holiday; School Day; Summer", "Focus_Areas": "Academic; Arts; College & Career; Leadership", "Phone": "703-268-6015", "Email": "nicolebarker@seriesfest.com", "Website": "https://seriesfest.com/mobile-cinema-lab/" }, "geometry": { "type": "Point", "coordinates": [ -105.0024877, 39.75254437 ] } },
{ "type": "Feature", "properties": { "Global_Site_ID": 156455, "Activity_Category": "Arts & Music", "Site_Name": "Washington Park United Methodist Church", "Address": "1955 E Arizona Ave", "City": "Denver", "State": "CO", "Zip": 80210, "Latitude": 39.69507772, "Longitude": -104.9646387, "Site_IDs": "134463", "Org_IDs": 41886, "Organization": "Dalcroze Musical Arts", "Location_Type": "Faith-Based", "DPS_School_Num": null, "Programs": "Dalcroze Music Classes", "Program_Count": 1, "Program_Description": "An experiential and discovery based way to learn music fundamentals through playful and creative movement and active listening.  Introductory material through AP music exam preparation.", "Cost": "Free and fee-based programs available", "Scholarship_Available": true, "Open_Enrollment": true, "Registration_Process": "Registration for year round classes are from June-September.  https://www.dalcrozemusicalarts.com/classes", "Registration_URL": "https://www.dalcrozemusicalarts.com/classes", "Food_Provided": "No", "Transport_Available": false, "Time_Availability": "After School", "Focus_Areas": "Arts", "Phone": "(303) 777-3043", "Email": "office@washparkumc.org", "Website": "https://www.dalcrozemusicalarts.com" }, "geometry": { "type": "Point", "coordinates": [ -104.9646387, 39.69507772 ] } },
{ "type": "Feature", "properties": { "Global_Site_ID": 156529, "Activity_Category": "Arts & Music", "Site_Name": "Denver DJ School", "Address": "1339 W. 38th Ave, Denver Co 80211", "City": "Denver", "State": "CO", "Zip": 80211, "Latitude": 39.76960549, "Longitude": -105.0025731, "Site_IDs": "134483", "Org_IDs": 41885, "Organization": "Denver DJ School", "Location_Type": "School (Private or Non-DPS)", "DPS_School_Num": null, "Programs": "Denver DJ School", "Program_Count": 1, "Program_Description": "Learn the are of DJing at the Denver DJ School", "Cost": "Free and fee-based programs available", "Scholarship_Available": false, "Open_Enrollment": true, "Registration_Process": "Register online www.denverdjschool.com", "Registration_URL": null, "Food_Provided": "No", "Transport_Available": false, "Time_Availability": "By Request", "Focus_Areas": "Arts", "Phone": "720-615-0009", "Email": "contact@denverdjschool.com", "Website": "https://denverdjschool.com/" }, "geometry": { "type": "Point", "coordinates": [ -105.0025731, 39.76960549 ] } },
{ "type": "Feature", "properties": { "Global_Site_ID": 157537, "Activity_Category": "Arts & Music", "Site_Name": "St. Elizabeth's School - Denver", "Address": "1800 Pontiac St.", "City": "Denver", "State": "CO", "Zip": 80220, "Latitude": 39.74555538, "Longitude": -104.9046363, "Site_IDs": "149852", "Org_IDs": 39086, "Organization": "VOCO Youth Choirs", "Location_Type": "School (Private or Non-DPS)", "DPS_School_Num": null, "Programs": "College View VOCO; McAuliffe VOCO; VOCO Advanced", "Program_Count": 3, "Program_Description": "VOCO is a modern choir program that gives music-loving youth opportunities to sing rap and build community together.", "Cost": "Free", "Scholarship_Available": false, "Open_Enrollment": true, "Registration_Process": "Register via website, select VOCO Advanced.", "Registration_URL": "https://www.vocalcoalition.org/24-25-registration-menu", "Food_Provided": "No", "Transport_Available": false, "Time_Availability": "After School", "Focus_Areas": "Arts", "Phone": "7208781945", "Email": "voco@hncollective.org", "Website": "https://www.vocalcoalition.org/" }, "geometry": { "type": "Point", "coordinates": [ -104.9046363, 39.74555538 ] } },
{ "type": "Feature", "properties": { "Global_Site_ID": 157794, "Activity_Category": "Arts & Music", "Site_Name": "Bethany Lutheran Church", "Address": "430 W 9th Ave", "City": "Denver", "State": "CO", "Zip": 80204, "Latitude": 39.7302571, "Longitude": -104.9934113, "Site_IDs": "149838", "Org_IDs": 36626, "Organization": "Denver Children's Choir", "Location_Type": "Faith-Based", "DPS_School_Num": null, "Programs": "Alpine BW; Summit Singers Central Location; Timberline  Samuels; Timberline BW; Timberline Barney Ford; Timberline Choir Beach Court; Timberline Cole Arts & Science; Timberline Columbine; Timberline Park Hill Location; Timberline SE Bethany Lutheran Church; Timberline SW Gust", "Program_Count": 11, "Program_Description": "Alpine is an advanced-beginning level choir where singers gain confidence in singing with a healthy vocal technique gain sight-singing skills and become more comfortable holding their part in an ensemble.; Summit is the DCC’s advanced-intermediate level choir where singers learn more challenging repertoire perform more regularly and can comfortably hold their part when singing 3-part music.  Summit Singers take a regional choir tour every other year.; Timberline is an entry level beginning choir", "Cost": "Free and fee-based programs available", "Scholarship_Available": true, "Open_Enrollment": true, "Registration_Process": "online", "Registration_URL": "http://www.denverchildrenschoir.org", "Food_Provided": "No", "Transport_Available": false, "Time_Availability": "After School; School Day", "Focus_Areas": "Arts", "Phone": "3033000470", "Email": "mary@denverchildrenschoir.org", "Website": "https://www.denverchildrenschoir.org" }, "geometry": { "type": "Point", "coordinates": [ -104.9934113, 39.7302571 ] } },
{ "type": "Feature", "properties": { "Global_Site_ID": 157822, "Activity_Category": "Arts & Music", "Site_Name": "Lumonics Light & Sound Gallery", "Address": " 800 E. 73rd AVE, Unit 11", "City": "Denver", "State": "CO", "Zip": 80229, "Latitude": 39.83309449, "Longitude": -104.9748875, "Site_IDs": "149883; 149884", "Org_IDs": 42295, "Organization": "Lumonics Light & Sound Gallery", "Location_Type": "Other", "DPS_School_Num": null, "Programs": "Lumonics Field Trip", "Program_Count": 1, "Program_Description": "Lumonics is a multi-sensory environment of light sculptures video art projection and music designed to stimulate creativity. The field trio consists of tour of Gallery and Theater light and sound immersion orchestrated live and Q&A.", "Cost": "Free", "Scholarship_Available": false, "Open_Enrollment": true, "Registration_Process": "To arrange a field trip during school hours or after school, teachers can call 303.568.9406 or email to:lumonics@gmail.com. This applies for the whole school year including summer.", "Registration_URL": "https://www.lumonics.net/field-trips", "Food_Provided": "No", "Transport_Available": false, "Time_Availability": "After School; Holiday; School Day; Summer", "Focus_Areas": "Academic; Arts", "Phone": "3035689406", "Email": "lumonics@gmail.com", "Website": "https://lumonics.net/field-trips" }, "geometry": { "type": "Point", "coordinates": [ -104.9748875, 39.83309449 ] } },
{ "type": "Feature", "properties": { "Global_Site_ID": 157895, "Activity_Category": "Arts & Music", "Site_Name": "Soundstructure Studios", "Address": "3101 Walnut St", "City": "Denver", "State": "CO", "Zip": 80205, "Latitude": 39.76412247, "Longitude": -104.9801946, "Site_IDs": "150049", "Org_IDs": 42372, "Organization": "Performance High Voice and Music Studio", "Location_Type": "Other", "DPS_School_Num": null, "Programs": "Private Lessons", "Program_Count": 1, "Program_Description": "We offer private voice and music lessons to help teens and adults develop healthy singing voices for contemporary music.", "Cost": "Free and fee-based programs available", "Scholarship_Available": false, "Open_Enrollment": true, "Registration_Process": "Parents can register their children for private music lessons through our website.", "Registration_URL": "https://performancehigh.opus1.io/register", "Food_Provided": "No", "Transport_Available": false, "Time_Availability": "After School; By Request; Holiday; School Day; Summer", "Focus_Areas": "Arts", "Phone": "720-772-7505", "Email": "info@performancehigh.net", "Website": "https://www.performancehigh.net" }, "geometry": { "type": "Point", "coordinates": [ -104.9801946, 39.76412247 ] } },
{ "type": "Feature", "properties": { "Global_Site_ID": 157908, "Activity_Category": "Arts & Music", "Site_Name": "Discosapien DJ Academy", "Address": "3127 W Conejos Place", "City": "Denver", "State": "CO", "Zip": 80204, "Latitude": 39.74169132, "Longitude": -105.0277029, "Site_IDs": "150100", "Org_IDs": 42356, "Organization": "Discosapien Academy", "Location_Type": "School (Private or Non-DPS)", "DPS_School_Num": null, "Programs": "Electronic Music Production 101; Learn to DJ 101", "Program_Count": 2, "Program_Description": "Over 6 classes we will dive deep into Ableton music production sound design music theory mixing & mastering and live performance. These courses are taught one on one with a dedicated instructor.; Over 6 classes we will dive deep into DJing professionally using Rekordbox software. These courses are taught one on one with a dedicated instructor", "Cost": "Free and fee-based programs available", "Scholarship_Available": false, "Open_Enrollment": true, "Registration_Process": "Discosapien DJ Academy provides private 1 on 1 lessons in the subjects of DJing and Electronic Music Production with students of all ages, experience levels and backgrounds. We are a member of the MySpark program and are fully insured to work with youth students. Our registration process is simple - just visit the website and sign up there for a 90 minute timeslot of your choosing! ", "Registration_URL": "https://www.discosapien.com/dj-and-production-academy", "Food_Provided": "No", "Transport_Available": false, "Time_Availability": "After School; By Request; Holiday; School Day; Summer", "Focus_Areas": "Arts", "Phone": "303-981-0429", "Email": "discosapien@gmail.com", "Website": "https://www.discosapien.com/dj-and-music-production-academy" }, "geometry": { "type": "Point", "coordinates": [ -105.0277029, 39.74169132 ] } },
{ "type": "Feature", "properties": { "Global_Site_ID": 158568, "Activity_Category": "Arts & Music", "Site_Name": "Sweet Ridge Studios Inside WRUMC", "Address": "7530 W 38th Ave", "City": "Wheat Ridge", "State": "CO", "Zip": 80033, "Latitude": 39.76903272, "Longitude": -105.0802781, "Site_IDs": "150048", "Org_IDs": 36975, "Organization": "Sweet Ridge Studios", "Location_Type": "Community", "DPS_School_Num": null, "Programs": "Kid's Night Out; No School Art Camps; Summer Art Camps; Sweet Sprouts Toddler Art Class", "Program_Count": 4, "Program_Description": "Enjoy a night on the town while your kids enjoy a night at the Studio! We will have a variety of art stations set up and artists can choose their own Art Adventure! Pizza provided. https://www.sweetridgestudios.com/kids-night-out; Join us for an exciting and interactive art class designed for young children and their caregivers! Sweet Sprouts focuses on  creativity sensory engagement and connection. https://www.sweetridgestudios.com/sweet-sprouts; School is out and Art is In!  Spend your day out", "Cost": "Free and fee-based programs available", "Scholarship_Available": true, "Open_Enrollment": true, "Registration_Process": "Online", "Registration_URL": "https://www.sweetridgestudios.com/", "Food_Provided": "No", "Transport_Available": false, "Time_Availability": "Holiday; School Day; Summer", "Focus_Areas": "Arts", "Phone": "7856086673", "Email": "artclubs@sweetridgestudios.com", "Website": "https://www.sweetridgestudios.com" }, "geometry": { "type": "Point", "coordinates": [ -105.0802781, 39.76903272 ] } }
]
}
