{
"type": "FeatureCollection",
"name": "Basketball_Courts",
"crs": { "type": "name", "properties": { "name": "urn:ogc:def:crs:OGC:1.3:CRS84" } },
"features": [
{ "type": "Feature", "properties": { "OBJECTID": 2, "FEATURE": "Basketball Court - Full", "LOCATION": "51st & Zuni Park", "LOC_CODE": "009", "COURT_NUM": null, "LIGHTS": "No", "SURFACE_TYPE": "Asphalt", "YEAR_BUILT": null, "YEAR_RESURF": "Use Year Built Field for Latest Rehab", "GLOBALID": "324af9c5-9fce-406b-acc4-465c1a8975d5", "ASSET_CLASS": "COURT", "CLASS_CATEGORY": "CT-BBF", "GIS_ASSET_ID": 20064, "INFOR_ASSET_ID": "111789" }, "geometry": { "type": "Point", "coordinates": [ -105.014438465748981, 39.790347617536575 ] } },
{ "type": "Feature", "properties": { "OBJECTID": 3, "FEATURE": "Basketball Court - Full", "LOCATION": "Alamo Placita Park", "LOC_CODE": "301", "COURT_NUM": null, "LIGHTS": "No", "SURFACE_TYPE": "Concrete", "YEAR_BUILT": "2023", "YEAR_RESURF": "Use Year Built Field for Latest Rehab", "GLOBALID": "80724068-2898-4b14-82cf-6475f982511a", "ASSET_CLASS": "COURT", "CLASS_CATEGORY": "CT-BBF", "GIS_ASSET_ID": 20181, "INFOR_ASSET_ID": "111852" }, "geometry": { "type": "Point", "coordinates": [ -104.975570916664424, 39.720521044708782 ] } },
{ "type": "Feature", "properties": { "OBJECTID": 4, "FEATURE": "Basketball Court - Full", "LOCATION": "Argo Park", "LOC_CODE": "212", "COURT_NUM": null, "LIGHTS": "No", "SURFACE_TYPE": "Concrete", "YEAR_BUILT": null, "YEAR_RESURF": "Use Year Built Field for Latest Rehab", "GLOBALID": "cf9b7093-bbe8-4657-8890-7fb42acf9eb5", "ASSET_CLASS": "COURT", "CLASS_CATEGORY": "CT-BBF", "GIS_ASSET_ID": 20097, "INFOR_ASSET_ID": "111803" }, "geometry": { "type": "Point", "coordinates": [ -104.981401719225559, 39.782440336878551 ] } },
{ "type": "Feature", "properties": { "OBJECTID": 5, "FEATURE": "Basketball Court - Full", "LOCATION": "La Lomita Park", "LOC_CODE": "830", "COURT_NUM": null, "LIGHTS": "No", "SURFACE_TYPE": "Concrete", "YEAR_BUILT": "2017", "YEAR_RESURF": "Use Year Built Field for Latest Rehab", "GLOBALID": "539fb907-ef41-4ac9-aefb-2c7b7a6660b2", "ASSET_CLASS": "COURT", "CLASS_CATEGORY": "CT-BBF", "GIS_ASSET_ID": 20098, "INFOR_ASSET_ID": "111804" }, "geometry": { "type": "Point", "coordinates": [ -105.012634295658785, 39.680774642214566 ] } },
{ "type": "Feature", "properties": { "OBJECTID": 9, "FEATURE": "Basketball Court - Full", "LOCATION": "Berkeley Lake Park", "LOC_CODE": "002", "COURT_NUM": null, "LIGHTS": "No", "SURFACE_TYPE": "Concrete", "YEAR_BUILT": null, "YEAR_RESURF": "Use Year Built Field for Latest Rehab", "GLOBALID": "63a5c8de-cd70-4190-9490-cd9d962378cb", "ASSET_CLASS": "COURT", "CLASS_CATEGORY": "CT-BBF", "GIS_ASSET_ID": 20211, "INFOR_ASSET_ID": "111864" }, "geometry": { "type": "Point", "coordinates": [ -105.047078978307638, 39.780601478012187 ] } },
{ "type": "Feature", "properties": { "OBJECTID": 10, "FEATURE": "Basketball Court - Full", "LOCATION": "Bezoff (Ben) Park", "LOC_CODE": "624", "COURT_NUM": null, "LIGHTS": "No", "SURFACE_TYPE": "Concrete", "YEAR_BUILT": "2026", "YEAR_RESURF": "Use Year Built Field for Latest Rehab", "GLOBALID": "ee84163e-415d-4ca4-b9ed-74fb7ddf7eca", "ASSET_CLASS": "COURT", "CLASS_CATEGORY": "CT-BBF", "GIS_ASSET_ID": 20212, "INFOR_ASSET_ID": "111865" }, "geometry": { "type": "Point", "coordinates": [ -104.869746754872239, 39.704705038301306 ] } },
{ "type": "Feature", "properties": { "OBJECTID": 12, "FEATURE": "Basketball Court - Half", "LOCATION": "Ulibarri Park", "LOC_CODE": "815", "COURT_NUM": null, "LIGHTS": "No", "SURFACE_TYPE": "Asphalt", "YEAR_BUILT": "2010", "YEAR_RESURF": "Use Year Built Field for Latest Rehab", "GLOBALID": "ae366fe1-13bb-41e1-84fa-adedadf618d3", "ASSET_CLASS": "COURT", "CLASS_CATEGORY": "CT-BBH", "GIS_ASSET_ID": 20213, "INFOR_ASSET_ID": "111866" }, "geometry": { "type": "Point", "coordinates": [ -105.018477581598901, 39.716200860676032 ] } },
{ "type": "Feature", "properties": { "OBJECTID": 14, "FEATURE": "Basketball Court - Full", "LOCATION": "Chaffee (Jerome B) Park", "LOC_CODE": "003", "COURT_NUM": null, "LIGHTS": "No", "SURFACE_TYPE": "Asphalt", "YEAR_BUILT": null, "YEAR_RESURF": "Use Year Built Field for Latest Rehab", "GLOBALID": "35eeca18-eef3-4cac-916f-5263fe036063", "ASSET_CLASS": "COURT", "CLASS_CATEGORY": "CT-BBF", "GIS_ASSET_ID": 20065, "INFOR_ASSET_ID": "111790" }, "geometry": { "type": "Point", "coordinates": [ -105.010719580317868, 39.776586129188701 ] } },
{ "type": "Feature", "properties": { "OBJECTID": 16, "FEATURE": "Basketball Court - Full", "LOCATION": "City of Axum Park", "LOC_CODE": "417", "COURT_NUM": null, "LIGHTS": "No", "SURFACE_TYPE": "Concrete", "YEAR_BUILT": "2010", "YEAR_RESURF": "Use Year Built Field for Latest Rehab", "GLOBALID": "6b3bc62e-2914-4709-9f01-cc2e5ed7c60c", "ASSET_CLASS": "COURT", "CLASS_CATEGORY": "CT-BBF", "GIS_ASSET_ID": 20214, "INFOR_ASSET_ID": "111867" }, "geometry": { "type": "Point", "coordinates": [ -104.934824317343228, 39.762914475197135 ] } },
{ "type": "Feature", "properties": { "OBJECTID": 18, "FEATURE": "Basketball Court - Full", "LOCATION": "Congress Park", "LOC_CODE": "314", "COURT_NUM": null, "LIGHTS": "Yes", "SURFACE_TYPE": "Concrete", "YEAR_BUILT": "2024", "YEAR_RESURF": "Use Year Built Field for Latest Rehab", "GLOBALID": "9613dd6f-dc7f-4a50-916f-4f4b4680bdb1", "ASSET_CLASS": "COURT", "CLASS_CATEGORY": "CT-BBF", "GIS_ASSET_ID": 20182, "INFOR_ASSET_ID": "111853" }, "geometry": { "type": "Point", "coordinates": [ -104.955579673144584, 39.730668605613857 ] } },
{ "type": "Feature", "properties": { "OBJECTID": 19, "FEATURE": "Basketball Court - Half", "LOCATION": "Cook (Judge Joseph E) Park", "LOC_CODE": "763", "COURT_NUM": null, "LIGHTS": "No", "SURFACE_TYPE": "Concrete", "YEAR_BUILT": "2017", "YEAR_RESURF": "Use Year Built Field for Latest Rehab", "GLOBALID": "14becb49-4437-4365-aa4e-5a4b337de093", "ASSET_CLASS": "COURT", "CLASS_CATEGORY": "CT-BBH", "GIS_ASSET_ID": 20215, "INFOR_ASSET_ID": "111868" }, "geometry": { "type": "Point", "coordinates": [ -104.911645339990798, 39.686472078250354 ] } },
{ "type": "Feature", "properties": { "OBJECTID": 21, "FEATURE": "Basketball Court - Full", "LOCATION": "DeBoer (SR) Park", "LOC_CODE": "805", "COURT_NUM": null, "LIGHTS": "No", "SURFACE_TYPE": "Asphalt", "YEAR_BUILT": null, "YEAR_RESURF": "Use Year Built Field for Latest Rehab", "GLOBALID": "56bb6cf5-a2b4-4cb7-87d6-0f5c2af2fc68", "ASSET_CLASS": "COURT", "CLASS_CATEGORY": "CT-BBF", "GIS_ASSET_ID": 20066, "INFOR_ASSET_ID": "111791" }, "geometry": { "type": "Point", "coordinates": [ -104.960859093282735, 39.670996046097528 ] } },
{ "type": "Feature", "properties": { "OBJECTID": 22, "FEATURE": "Basketball Court - Full", "LOCATION": "Denison Park", "LOC_CODE": "458", "COURT_NUM": null, "LIGHTS": "No", "SURFACE_TYPE": "Concrete", "YEAR_BUILT": "2026", "YEAR_RESURF": "Use Year Built Field for Latest Rehab", "GLOBALID": "6d101de6-e8aa-4852-bdc6-e0c2cb5393f3", "ASSET_CLASS": "COURT", "CLASS_CATEGORY": "CT-BBF", "GIS_ASSET_ID": 20000, "INFOR_ASSET_ID": "111756" }, "geometry": { "type": "Point", "coordinates": [ -104.903868123232911, 39.733444373755852 ] } },
{ "type": "Feature", "properties": { "OBJECTID": 24, "FEATURE": "Basketball Court - Half", "LOCATION": "Eastmoor Park", "LOC_CODE": "606", "COURT_NUM": null, "LIGHTS": "No", "SURFACE_TYPE": "Concrete", "YEAR_BUILT": null, "YEAR_RESURF": "Use Year Built Field for Latest Rehab", "GLOBALID": "ae5484c7-d0ca-46a1-8cf9-3c39b81c9385", "ASSET_CLASS": "COURT", "CLASS_CATEGORY": "CT-BBH", "GIS_ASSET_ID": 20099, "INFOR_ASSET_ID": "111805" }, "geometry": { "type": "Point", "coordinates": [ -104.908961650679743, 39.640189632400912 ] } },
{ "type": "Feature", "properties": { "OBJECTID": 25, "FEATURE": "Basketball Court - Full", "LOCATION": "Elmendorf Park", "LOC_CODE": "536", "COURT_NUM": null, "LIGHTS": "No", "SURFACE_TYPE": "Asphalt", "YEAR_BUILT": null, "YEAR_RESURF": "Use Year Built Field for Latest Rehab", "GLOBALID": "ddcf5ae4-7814-4023-b106-7eb986ea20e1", "ASSET_CLASS": "COURT", "CLASS_CATEGORY": "CT-BBF", "GIS_ASSET_ID": 20001, "INFOR_ASSET_ID": "111757" }, "geometry": { "type": "Point", "coordinates": [ -104.841627976053672, 39.792670768480328 ] } },
{ "type": "Feature", "properties": { "OBJECTID": 26, "FEATURE": "Basketball Court - Full", "LOCATION": "Elyria", "LOC_CODE": "204", "COURT_NUM": null, "LIGHTS": "No", "SURFACE_TYPE": "Concrete", "YEAR_BUILT": null, "YEAR_RESURF": "Use Year Built Field for Latest Rehab", "GLOBALID": "1ba96496-5e35-4abc-93df-1145d1e354ad", "ASSET_CLASS": "COURT", "CLASS_CATEGORY": "CT-BBF", "GIS_ASSET_ID": 20067, "INFOR_ASSET_ID": "111792" }, "geometry": { "type": "Point", "coordinates": [ -104.964014118930194, 39.784956333976154 ] } },
{ "type": "Feature", "properties": { "OBJECTID": 27, "FEATURE": "Basketball Court - Full", "LOCATION": "Falcon Park", "LOC_CODE": "537", "COURT_NUM": null, "LIGHTS": "No", "SURFACE_TYPE": "Asphalt", "YEAR_BUILT": null, "YEAR_RESURF": "Use Year Built Field for Latest Rehab", "GLOBALID": "1d27497a-2e5c-452b-8543-195a21845f13", "ASSET_CLASS": "COURT", "CLASS_CATEGORY": "CT-BBF", "GIS_ASSET_ID": 20183, "INFOR_ASSET_ID": "111854" }, "geometry": { "type": "Point", "coordinates": [ -104.829299478663984, 39.793501066050418 ] } },
{ "type": "Feature", "properties": { "OBJECTID": 28, "FEATURE": "Basketball Court - Half", "LOCATION": "Flores (Hector M) Park", "LOC_CODE": "322", "COURT_NUM": null, "LIGHTS": "No", "SURFACE_TYPE": "Asphalt", "YEAR_BUILT": null, "YEAR_RESURF": "Use Year Built Field for Latest Rehab", "GLOBALID": "76c554b0-9315-440d-bd2a-fdef0a4f54ee", "ASSET_CLASS": "COURT", "CLASS_CATEGORY": "CT-BBH", "GIS_ASSET_ID": 20036, "INFOR_ASSET_ID": "111775" }, "geometry": { "type": "Point", "coordinates": [ -104.99608415914507, 39.722907106454215 ] } },
{ "type": "Feature", "properties": { "OBJECTID": 29, "FEATURE": "Basketball Court - Full", "LOCATION": "Thomas", "LOC_CODE": "L16", "COURT_NUM": null, "LIGHTS": "No", "SURFACE_TYPE": "Concrete", "YEAR_BUILT": null, "YEAR_RESURF": "Use Year Built Field for Latest Rehab", "GLOBALID": "23db8eda-c5e3-4850-8aad-9ed17ae41d6e", "ASSET_CLASS": "COURT", "CLASS_CATEGORY": "CT-BBF", "GIS_ASSET_ID": 20037, "INFOR_ASSET_ID": "111776" }, "geometry": { "type": "Point", "coordinates": [ -104.900459487730856, 39.752412795086805 ] } },
{ "type": "Feature", "properties": { "OBJECTID": 30, "FEATURE": "Basketball Court - Full", "LOCATION": "Fuller Park", "LOC_CODE": "205", "COURT_NUM": null, "LIGHTS": "No", "SURFACE_TYPE": "Concrete", "YEAR_BUILT": null, "YEAR_RESURF": "Use Year Built Field for Latest Rehab", "GLOBALID": "4030c510-374b-4270-8d03-bbbbcbbde7b8", "ASSET_CLASS": "COURT", "CLASS_CATEGORY": "CT-BBF", "GIS_ASSET_ID": 20002, "INFOR_ASSET_ID": "111758" }, "geometry": { "type": "Point", "coordinates": [ -104.967411544074338, 39.757894241544953 ] } },
{ "type": "Feature", "properties": { "OBJECTID": 31, "FEATURE": "Basketball Court - Full", "LOCATION": "Garfield Lake Park", "LOC_CODE": "807", "COURT_NUM": null, "LIGHTS": "No", "SURFACE_TYPE": "Asphalt", "YEAR_BUILT": null, "YEAR_RESURF": "Use Year Built Field for Latest Rehab", "GLOBALID": "7a2aeb9c-4584-4c86-8f10-6aa57ef447a4", "ASSET_CLASS": "COURT", "CLASS_CATEGORY": "CT-BBF", "GIS_ASSET_ID": 20068, "INFOR_ASSET_ID": "111793" }, "geometry": { "type": "Point", "coordinates": [ -105.035937229582103, 39.694812880452531 ] } },
{ "type": "Feature", "properties": { "OBJECTID": 32, "FEATURE": "Basketball Court - Full", "LOCATION": "Garland", "LOC_CODE": "728", "COURT_NUM": null, "LIGHTS": "No", "SURFACE_TYPE": "Asphalt", "YEAR_BUILT": null, "YEAR_RESURF": "Use Year Built Field for Latest Rehab", "GLOBALID": "508830c5-8a70-4624-a646-ac13935101cd", "ASSET_CLASS": "COURT", "CLASS_CATEGORY": "CT-BBF", "GIS_ASSET_ID": 20100, "INFOR_ASSET_ID": "111806" }, "geometry": { "type": "Point", "coordinates": [ -104.914481830925496, 39.694272608447584 ] } },
{ "type": "Feature", "properties": { "OBJECTID": 33, "FEATURE": "Basketball Court - Full", "LOCATION": "Garrison & Union", "LOC_CODE": "158", "COURT_NUM": null, "LIGHTS": "No", "SURFACE_TYPE": "Asphalt", "YEAR_BUILT": null, "YEAR_RESURF": "Use Year Built Field for Latest Rehab", "GLOBALID": "c30d45f8-adc0-46b5-b001-3398109209c4", "ASSET_CLASS": "COURT", "CLASS_CATEGORY": "CT-BBF", "GIS_ASSET_ID": 20152, "INFOR_ASSET_ID": "111836" }, "geometry": { "type": "Point", "coordinates": [ -105.102921513065539, 39.63267092665977 ] } },
{ "type": "Feature", "properties": { "OBJECTID": 34, "FEATURE": "Basketball Court - Half", "LOCATION": "Golden Key Park", "LOC_CODE": "607", "COURT_NUM": null, "LIGHTS": "No", "SURFACE_TYPE": "Asphalt", "YEAR_BUILT": null, "YEAR_RESURF": "Use Year Built Field for Latest Rehab", "GLOBALID": "b4257214-5a9f-445b-a42e-6509d5c9ec7c", "ASSET_CLASS": "COURT", "CLASS_CATEGORY": "CT-BBH", "GIS_ASSET_ID": 20003, "INFOR_ASSET_ID": "111759" }, "geometry": { "type": "Point", "coordinates": [ -104.887276134325631, 39.662710098375207 ] } },
{ "type": "Feature", "properties": { "OBJECTID": 35, "FEATURE": "Basketball Court - Full", "LOCATION": "Green Valley Ranch West", "LOC_CODE": "549", "COURT_NUM": null, "LIGHTS": "No", "SURFACE_TYPE": "Asphalt", "YEAR_BUILT": "2009", "YEAR_RESURF": "Use Year Built Field for Latest Rehab", "GLOBALID": "2f721dc4-aec1-4ea0-95bc-a14aca6c140e", "ASSET_CLASS": "COURT", "CLASS_CATEGORY": "CT-BBF", "GIS_ASSET_ID": 20130, "INFOR_ASSET_ID": "111822" }, "geometry": { "type": "Point", "coordinates": [ -104.767825740619955, 39.778333347981096 ] } },
{ "type": "Feature", "properties": { "OBJECTID": 36, "FEATURE": "Basketball Court - Full", "LOCATION": "Hampden Heights Park", "LOC_CODE": "614", "COURT_NUM": null, "LIGHTS": "No", "SURFACE_TYPE": "Asphalt", "YEAR_BUILT": null, "YEAR_RESURF": "Use Year Built Field for Latest Rehab", "GLOBALID": "f66fc282-369e-441d-b99e-d6692eaff062", "ASSET_CLASS": "COURT", "CLASS_CATEGORY": "CT-BBF", "GIS_ASSET_ID": 20184, "INFOR_ASSET_ID": "111855" }, "geometry": { "type": "Point", "coordinates": [ -104.878431312126068, 39.656517905509681 ] } },
{ "type": "Feature", "properties": { "OBJECTID": 37, "FEATURE": "Basketball Court - Full", "LOCATION": "Harvard Gulch Park", "LOC_CODE": "829", "COURT_NUM": null, "LIGHTS": "No", "SURFACE_TYPE": "Concrete", "YEAR_BUILT": "2026", "YEAR_RESURF": "Use Year Built Field for Latest Rehab", "GLOBALID": "942bc66a-2ae1-48f1-92d1-c80bbf70111c", "ASSET_CLASS": "COURT", "CLASS_CATEGORY": "CT-BBF", "GIS_ASSET_ID": 20131, "INFOR_ASSET_ID": "111823" }, "geometry": { "type": "Point", "coordinates": [ -104.980456069961193, 39.673623996007443 ] } },
{ "type": "Feature", "properties": { "OBJECTID": 38, "FEATURE": "Basketball Court - Full", "LOCATION": "Highland Gateway Park", "LOC_CODE": "046", "COURT_NUM": null, "LIGHTS": "No", "SURFACE_TYPE": "Asphalt", "YEAR_BUILT": "2011", "YEAR_RESURF": "Use Year Built Field for Latest Rehab", "GLOBALID": "c92c63ad-cd3f-4f62-ae55-b67a3f970220", "ASSET_CLASS": "COURT", "CLASS_CATEGORY": "CT-BBF", "GIS_ASSET_ID": 20132, "INFOR_ASSET_ID": "111824" }, "geometry": { "type": "Point", "coordinates": [ -105.00633590469954, 39.761782264445301 ] } },
{ "type": "Feature", "properties": { "OBJECTID": 40, "FEATURE": "Basketball Court - Full", "LOCATION": "Huston Lake Park", "LOC_CODE": "811", "COURT_NUM": null, "LIGHTS": "No", "SURFACE_TYPE": "Concrete", "YEAR_BUILT": null, "YEAR_RESURF": "Use Year Built Field for Latest Rehab", "GLOBALID": "c10a9a5b-2ea7-4f31-9d34-7efd24ba35a4", "ASSET_CLASS": "COURT", "CLASS_CATEGORY": "CT-BBF", "GIS_ASSET_ID": 20153, "INFOR_ASSET_ID": "111837" }, "geometry": { "type": "Point", "coordinates": [ -105.017990778682531, 39.701321328355171 ] } },
{ "type": "Feature", "properties": { "OBJECTID": 41, "FEATURE": "Basketball Court - Full", "LOCATION": "Irving & Java Park", "LOC_CODE": "841", "COURT_NUM": null, "LIGHTS": "No", "SURFACE_TYPE": "Asphalt", "YEAR_BUILT": null, "YEAR_RESURF": "Use Year Built Field for Latest Rehab", "GLOBALID": "1613bd51-184b-4950-bb5d-c8a1e4fd9537", "ASSET_CLASS": "COURT", "CLASS_CATEGORY": "CT-BBF", "GIS_ASSET_ID": 20154, "INFOR_ASSET_ID": "111838" }, "geometry": { "type": "Point", "coordinates": [ -105.029256621940817, 39.686389891564296 ] } },
{ "type": "Feature", "properties": { "OBJECTID": 42, "FEATURE": "Basketball Court - Full", "LOCATION": "Jefferson Park", "LOC_CODE": "016", "COURT_NUM": null, "LIGHTS": "No", "SURFACE_TYPE": "Asphalt", "YEAR_BUILT": null, "YEAR_RESURF": "Use Year Built Field for Latest Rehab", "GLOBALID": "73916fce-fbeb-4bbf-a7b6-8df083241a53", "ASSET_CLASS": "COURT", "CLASS_CATEGORY": "CT-BBF", "GIS_ASSET_ID": 20004, "INFOR_ASSET_ID": "111760" }, "geometry": { "type": "Point", "coordinates": [ -105.021800717462369, 39.750174683297189 ] } },
{ "type": "Feature", "properties": { "OBJECTID": 43, "FEATURE": "Basketball Court - Half", "LOCATION": "Lakewood / Dry Gulch Park", "LOC_CODE": "030", "COURT_NUM": null, "LIGHTS": "No", "SURFACE_TYPE": "Concrete", "YEAR_BUILT": "2016", "YEAR_RESURF": "Use Year Built Field for Latest Rehab", "GLOBALID": "b6af92d2-97e6-4866-9f9d-b7c84099fb69", "ASSET_CLASS": "COURT", "CLASS_CATEGORY": "CT-BBH", "GIS_ASSET_ID": 20005, "INFOR_ASSET_ID": "111761" }, "geometry": { "type": "Point", "coordinates": [ -105.038217353260876, 39.733222584606288 ] } },
{ "type": "Feature", "properties": { "OBJECTID": 44, "FEATURE": "Basketball Court - Full", "LOCATION": "Lawson (Sonny) Park", "LOC_CODE": "208", "COURT_NUM": null, "LIGHTS": "No", "SURFACE_TYPE": "Asphalt", "YEAR_BUILT": null, "YEAR_RESURF": "Use Year Built Field for Latest Rehab", "GLOBALID": "c14fff03-45b0-4b72-8fc0-756053f6e32f", "ASSET_CLASS": "COURT", "CLASS_CATEGORY": "CT-BBF", "GIS_ASSET_ID": 20038, "INFOR_ASSET_ID": "111777" }, "geometry": { "type": "Point", "coordinates": [ -104.982555515880122, 39.75224638143424 ] } },
{ "type": "Feature", "properties": { "OBJECTID": 45, "FEATURE": "Basketball Court - Full", "LOCATION": "La Alma / Lincoln Park", "LOC_CODE": "315", "COURT_NUM": null, "LIGHTS": "No", "SURFACE_TYPE": "Asphalt", "YEAR_BUILT": null, "YEAR_RESURF": "Use Year Built Field for Latest Rehab", "GLOBALID": "0b5552f1-df02-4dfe-a622-43a80695d4a1", "ASSET_CLASS": "COURT", "CLASS_CATEGORY": "CT-BBF", "GIS_ASSET_ID": 20155, "INFOR_ASSET_ID": "111839" }, "geometry": { "type": "Point", "coordinates": [ -105.00422928029468, 39.734862744624472 ] } },
{ "type": "Feature", "properties": { "OBJECTID": 46, "FEATURE": "Basketball Court - Full", "LOCATION": "Lindsley (Henry S) Park", "LOC_CODE": "401", "COURT_NUM": null, "LIGHTS": "No", "SURFACE_TYPE": "Asphalt", "YEAR_BUILT": "2012", "YEAR_RESURF": "Use Year Built Field for Latest Rehab", "GLOBALID": "aa35699e-ab51-403d-958c-f52620583fc3", "ASSET_CLASS": "COURT", "CLASS_CATEGORY": "CT-BBF", "GIS_ASSET_ID": 20101, "INFOR_ASSET_ID": "111807" }, "geometry": { "type": "Point", "coordinates": [ -104.932898344907528, 39.734415174663994 ] } },
{ "type": "Feature", "properties": { "OBJECTID": 48, "FEATURE": "Basketball Court - Half", "LOCATION": "Mayfair Park", "LOC_CODE": "432", "COURT_NUM": null, "LIGHTS": "No", "SURFACE_TYPE": "Asphalt", "YEAR_BUILT": "2013", "YEAR_RESURF": "Use Year Built Field for Latest Rehab", "GLOBALID": "84db4cf6-0a1b-4be7-add6-adadc06f3bc4", "ASSET_CLASS": "COURT", "CLASS_CATEGORY": "CT-BBH", "GIS_ASSET_ID": 20133, "INFOR_ASSET_ID": "111825" }, "geometry": { "type": "Point", "coordinates": [ -104.920770999828889, 39.732080840339748 ] } },
{ "type": "Feature", "properties": { "OBJECTID": 50, "FEATURE": "Basketball Court - Full", "LOCATION": "Mestizo Curtis Park", "LOC_CODE": "203", "COURT_NUM": null, "LIGHTS": "No", "SURFACE_TYPE": "Concrete", "YEAR_BUILT": "2015", "YEAR_RESURF": "Use Year Built Field for Latest Rehab", "GLOBALID": "4addf24a-e22a-4ea1-baef-0f43e45bcc6a", "ASSET_CLASS": "COURT", "CLASS_CATEGORY": "CT-BBF", "GIS_ASSET_ID": 20156, "INFOR_ASSET_ID": "111840" }, "geometry": { "type": "Point", "coordinates": [ -104.976276372562339, 39.762357475635298 ] } },
{ "type": "Feature", "properties": { "OBJECTID": 51, "FEATURE": "Basketball Court - Half", "LOCATION": "Observatory Park", "LOC_CODE": "818", "COURT_NUM": null, "LIGHTS": "No", "SURFACE_TYPE": "Asphalt", "YEAR_BUILT": null, "YEAR_RESURF": "Use Year Built Field for Latest Rehab", "GLOBALID": "71253a59-aeaa-4f7f-80dc-1a5fe48396b9", "ASSET_CLASS": "COURT", "CLASS_CATEGORY": "CT-BBH", "GIS_ASSET_ID": 20006, "INFOR_ASSET_ID": "111762" }, "geometry": { "type": "Point", "coordinates": [ -104.95296558540069, 39.677180443773729 ] } },
{ "type": "Feature", "properties": { "OBJECTID": 52, "FEATURE": "Basketball Court - Full", "LOCATION": "Thomas", "LOC_CODE": "L16", "COURT_NUM": null, "LIGHTS": "No", "SURFACE_TYPE": "Concrete", "YEAR_BUILT": null, "YEAR_RESURF": "Use Year Built Field for Latest Rehab", "GLOBALID": "8e9905e1-4dea-438d-817a-2ef4dd6fe1ae", "ASSET_CLASS": "COURT", "CLASS_CATEGORY": "CT-BBF", "GIS_ASSET_ID": 20157, "INFOR_ASSET_ID": "111841" }, "geometry": { "type": "Point", "coordinates": [ -104.900636809301218, 39.752406836561853 ] } },
{ "type": "Feature", "properties": { "OBJECTID": 53, "FEATURE": "Basketball Court - Half", "LOCATION": "La Alma / Lincoln Park", "LOC_CODE": "315", "COURT_NUM": null, "LIGHTS": "No", "SURFACE_TYPE": "Concrete", "YEAR_BUILT": null, "YEAR_RESURF": "Use Year Built Field for Latest Rehab", "GLOBALID": "bfedfea4-7196-4d90-a37a-d0d8667406c9", "ASSET_CLASS": "COURT", "CLASS_CATEGORY": "CT-BBH", "GIS_ASSET_ID": 20102, "INFOR_ASSET_ID": "111808" }, "geometry": { "type": "Point", "coordinates": [ -105.003490620788213, 39.73412981640098 ] } },
{ "type": "Feature", "properties": { "OBJECTID": 54, "FEATURE": "Basketball Court - Full", "LOCATION": "Village Place Park", "LOC_CODE": "540", "COURT_NUM": null, "LIGHTS": "No", "SURFACE_TYPE": "Asphalt", "YEAR_BUILT": null, "YEAR_RESURF": "Use Year Built Field for Latest Rehab", "GLOBALID": "510fc457-b263-4c4d-9033-b0b21af610f7", "ASSET_CLASS": "COURT", "CLASS_CATEGORY": "CT-BBF", "GIS_ASSET_ID": 20007, "INFOR_ASSET_ID": "111556" }, "geometry": { "type": "Point", "coordinates": [ -104.832116735257159, 39.777605746467742 ] } },
{ "type": "Feature", "properties": { "OBJECTID": 55, "FEATURE": "Basketball Court - Full", "LOCATION": "Village Place Park", "LOC_CODE": "540", "COURT_NUM": null, "LIGHTS": "No", "SURFACE_TYPE": "Asphalt", "YEAR_BUILT": null, "YEAR_RESURF": "Use Year Built Field for Latest Rehab", "GLOBALID": "14446add-037c-4f2c-afe1-705ef206081f", "ASSET_CLASS": "COURT", "CLASS_CATEGORY": "CT-BBF", "GIS_ASSET_ID": 20134, "INFOR_ASSET_ID": "111660" }, "geometry": { "type": "Point", "coordinates": [ -104.831961332696054, 39.777618576452774 ] } },
{ "type": "Feature", "properties": { "OBJECTID": 57, "FEATURE": "Basketball Court - Full", "LOCATION": "Pferdesteller Park", "LOC_CODE": "017", "COURT_NUM": null, "LIGHTS": "No", "SURFACE_TYPE": "Concrete", "YEAR_BUILT": "2026", "YEAR_RESURF": "Use Year Built Field for Latest Rehab", "GLOBALID": "56938ac4-9aca-40c1-907f-d07e2316c66f", "ASSET_CLASS": "COURT", "CLASS_CATEGORY": "CT-BBF", "GIS_ASSET_ID": 20008, "INFOR_ASSET_ID": "111557" }, "geometry": { "type": "Point", "coordinates": [ -105.049023569551039, 39.76321519008895 ] } },
{ "type": "Feature", "properties": { "OBJECTID": 59, "FEATURE": "Basketball Court - Half", "LOCATION": "Platt Park", "LOC_CODE": "824", "COURT_NUM": null, "LIGHTS": "No", "SURFACE_TYPE": "Concrete", "YEAR_BUILT": null, "YEAR_RESURF": "Use Year Built Field for Latest Rehab", "GLOBALID": "e129a793-80ce-4270-8cc8-162157687737", "ASSET_CLASS": "COURT", "CLASS_CATEGORY": "CT-BBH", "GIS_ASSET_ID": 20040, "INFOR_ASSET_ID": "111582" }, "geometry": { "type": "Point", "coordinates": [ -104.983234651474277, 39.688798370643624 ] } },
{ "type": "Feature", "properties": { "OBJECTID": 61, "FEATURE": "Basketball Court - Half", "LOCATION": "Robinson Park", "LOC_CODE": "414", "COURT_NUM": null, "LIGHTS": "No", "SURFACE_TYPE": "Concrete", "YEAR_BUILT": "2021", "YEAR_RESURF": "Use Year Built Field for Latest Rehab", "GLOBALID": "95599d3f-02de-454c-8cf4-3b73764bed38", "ASSET_CLASS": "COURT", "CLASS_CATEGORY": "CT-BBH", "GIS_ASSET_ID": 20135, "INFOR_ASSET_ID": "111661" }, "geometry": { "type": "Point", "coordinates": [ -104.927514431499972, 39.720045598279349 ] } },
{ "type": "Feature", "properties": { "OBJECTID": 64, "FEATURE": "Basketball Court - Full", "LOCATION": "Sanchez (Paco) Park", "LOC_CODE": "028", "COURT_NUM": null, "LIGHTS": "No", "SURFACE_TYPE": "Asphalt", "YEAR_BUILT": null, "YEAR_RESURF": "Use Year Built Field for Latest Rehab", "GLOBALID": "3c757b2d-84e1-453c-9a3d-2adc26c40395", "ASSET_CLASS": "COURT", "CLASS_CATEGORY": "CT-BBF", "GIS_ASSET_ID": 20185, "INFOR_ASSET_ID": "111702" }, "geometry": { "type": "Point", "coordinates": [ -105.026701482749019, 39.735034462206499 ] } },
{ "type": "Feature", "properties": { "OBJECTID": 65, "FEATURE": "Basketball Court - Half", "LOCATION": "Sanderson Gulch Open Space", "LOC_CODE": "828", "COURT_NUM": null, "LIGHTS": "No", "SURFACE_TYPE": "Asphalt", "YEAR_BUILT": null, "YEAR_RESURF": "Use Year Built Field for Latest Rehab", "GLOBALID": "b604338e-de3e-4be7-996c-b468942be439", "ASSET_CLASS": "COURT", "CLASS_CATEGORY": "CT-BBH", "GIS_ASSET_ID": 20218, "INFOR_ASSET_ID": "111725" }, "geometry": { "type": "Point", "coordinates": [ -105.040667867646349, 39.684645848918812 ] } },
{ "type": "Feature", "properties": { "OBJECTID": 66, "FEATURE": "Basketball Court - Full", "LOCATION": "Schafer (Martin J) Park", "LOC_CODE": "218", "COURT_NUM": null, "LIGHTS": "No", "SURFACE_TYPE": "Concrete", "YEAR_BUILT": "2017", "YEAR_RESURF": "Use Year Built Field for Latest Rehab", "GLOBALID": "a9043d36-1c2e-45d7-8a63-79e2ff3c5a0b", "ASSET_CLASS": "COURT", "CLASS_CATEGORY": "CT-BBF", "GIS_ASSET_ID": 20069, "INFOR_ASSET_ID": "111607" }, "geometry": { "type": "Point", "coordinates": [ -104.956027129740988, 39.769035006020154 ] } },
{ "type": "Feature", "properties": { "OBJECTID": 67, "FEATURE": "Basketball Court - Full", "LOCATION": "Silverman (Melvin F) Park", "LOC_CODE": "534", "COURT_NUM": null, "LIGHTS": "No", "SURFACE_TYPE": "Concrete", "YEAR_BUILT": null, "YEAR_RESURF": "Use Year Built Field for Latest Rehab", "GLOBALID": "63a10833-58ae-4e29-8567-fb4c6e926080", "ASSET_CLASS": "COURT", "CLASS_CATEGORY": "CT-BBF", "GIS_ASSET_ID": 20219, "INFOR_ASSET_ID": "111726" }, "geometry": { "type": "Point", "coordinates": [ -104.841269190587823, 39.785614089124017 ] } },
{ "type": "Feature", "properties": { "OBJECTID": 68, "FEATURE": "Basketball Court - Full", "LOCATION": "Skyland Park", "LOC_CODE": "429", "COURT_NUM": null, "LIGHTS": "No", "SURFACE_TYPE": "Concrete", "YEAR_BUILT": null, "YEAR_RESURF": "Use Year Built Field for Latest Rehab", "GLOBALID": "8947af3c-7f11-46a4-bece-22ed07edbbb4", "ASSET_CLASS": "COURT", "CLASS_CATEGORY": "CT-BBF", "GIS_ASSET_ID": 20103, "INFOR_ASSET_ID": "111631" }, "geometry": { "type": "Point", "coordinates": [ -104.921203384136803, 39.764213752002853 ] } },
{ "type": "Feature", "properties": { "OBJECTID": 70, "FEATURE": "Basketball Court - Full", "LOCATION": "Sloans Lake Park - South", "LOC_CODE": "019", "COURT_NUM": null, "LIGHTS": "No", "SURFACE_TYPE": "Asphalt", "YEAR_BUILT": null, "YEAR_RESURF": "Use Year Built Field for Latest Rehab", "GLOBALID": "737f1010-5b99-4c89-9272-5e1390cf8311", "ASSET_CLASS": "COURT", "CLASS_CATEGORY": "CT-BBF", "GIS_ASSET_ID": 20070, "INFOR_ASSET_ID": "111608" }, "geometry": { "type": "Point", "coordinates": [ -105.051178807981714, 39.744732539960651 ] } },
{ "type": "Feature", "properties": { "OBJECTID": 72, "FEATURE": "Basketball Court - Full", "LOCATION": "St Charles Place Park", "LOC_CODE": "207", "COURT_NUM": null, "LIGHTS": "No", "SURFACE_TYPE": null, "YEAR_BUILT": null, "YEAR_RESURF": "Use Year Built Field for Latest Rehab", "GLOBALID": "f989ec2d-0920-45f8-a4ee-7456e056c0d6", "ASSET_CLASS": "COURT", "CLASS_CATEGORY": "CT-BBF", "GIS_ASSET_ID": 20071, "INFOR_ASSET_ID": "111609" }, "geometry": { "type": "Point", "coordinates": [ -104.971585808082395, 39.769385289101812 ] } },
{ "type": "Feature", "properties": { "OBJECTID": 73, "FEATURE": "Basketball Court - Half", "LOCATION": "Stout Street Childrens Park", "LOC_CODE": "221", "COURT_NUM": null, "LIGHTS": "No", "SURFACE_TYPE": "Concrete", "YEAR_BUILT": "2022", "YEAR_RESURF": "Use Year Built Field for Latest Rehab", "GLOBALID": "78093f3a-dccd-4c39-8db0-99cda37fc77a", "ASSET_CLASS": "COURT", "CLASS_CATEGORY": "CT-BBH", "GIS_ASSET_ID": 20220, "INFOR_ASSET_ID": "111727" }, "geometry": { "type": "Point", "coordinates": [ -104.98230867098799, 39.754694440671834 ] } },
{ "type": "Feature", "properties": { "OBJECTID": 74, "FEATURE": "Basketball Court - Half", "LOCATION": "Sunken Gardens Park", "LOC_CODE": "318", "COURT_NUM": null, "LIGHTS": "No", "SURFACE_TYPE": "Concrete", "YEAR_BUILT": null, "YEAR_RESURF": "Use Year Built Field for Latest Rehab", "GLOBALID": "8d952179-f1bb-4b22-8d14-21b5ff1f9360", "ASSET_CLASS": "COURT", "CLASS_CATEGORY": "CT-BBH", "GIS_ASSET_ID": 20136, "INFOR_ASSET_ID": "111662" }, "geometry": { "type": "Point", "coordinates": [ -104.993454786404371, 39.730691346947239 ] } },
{ "type": "Feature", "properties": { "OBJECTID": 75, "FEATURE": "Basketball Court - Full", "LOCATION": "Valverde Park", "LOC_CODE": "834", "COURT_NUM": null, "LIGHTS": "No", "SURFACE_TYPE": "Concrete", "YEAR_BUILT": null, "YEAR_RESURF": "Use Year Built Field for Latest Rehab", "GLOBALID": "4592f6cc-5984-4768-81ae-52eb67e91c05", "ASSET_CLASS": "COURT", "CLASS_CATEGORY": "CT-BBF", "GIS_ASSET_ID": 20137, "INFOR_ASSET_ID": "111663" }, "geometry": { "type": "Point", "coordinates": [ -105.002865488547286, 39.714272711721776 ] } },
{ "type": "Feature", "properties": { "OBJECTID": 79, "FEATURE": "Basketball Court - Full", "LOCATION": "Weir Gulch Park", "LOC_CODE": "836", "COURT_NUM": null, "LIGHTS": "No", "SURFACE_TYPE": "Concrete", "YEAR_BUILT": "2021", "YEAR_RESURF": "Use Year Built Field for Latest Rehab", "GLOBALID": "930b9a21-7add-4caa-be81-56b1ef588902", "ASSET_CLASS": "COURT", "CLASS_CATEGORY": "CT-BBF", "GIS_ASSET_ID": 20221, "INFOR_ASSET_ID": "111728" }, "geometry": { "type": "Point", "coordinates": [ -105.043474365169175, 39.715203639016359 ] } },
{ "type": "Feature", "properties": { "OBJECTID": 80, "FEATURE": "Basketball Court - Half", "LOCATION": "Weir Gulch Park", "LOC_CODE": "836", "COURT_NUM": null, "LIGHTS": "No", "SURFACE_TYPE": "Asphalt", "YEAR_BUILT": null, "YEAR_RESURF": "Use Year Built Field for Latest Rehab", "GLOBALID": "c1111996-04dd-4518-a86c-deeaa4da8df3", "ASSET_CLASS": "COURT", "CLASS_CATEGORY": "CT-BBH", "GIS_ASSET_ID": 20159, "INFOR_ASSET_ID": "111680" }, "geometry": { "type": "Point", "coordinates": [ -105.039293418319161, 39.719475905636422 ] } },
{ "type": "Feature", "properties": { "OBJECTID": 81, "FEATURE": "Basketball Court - Full", "LOCATION": "West Bar Val Wood Park", "LOC_CODE": "838", "COURT_NUM": null, "LIGHTS": "No", "SURFACE_TYPE": "Concrete", "YEAR_BUILT": "2003", "YEAR_RESURF": "Use Year Built Field for Latest Rehab", "GLOBALID": "14e7940c-04d2-4a3a-854b-324c9c3758fc", "ASSET_CLASS": "COURT", "CLASS_CATEGORY": "CT-BBF", "GIS_ASSET_ID": 20104, "INFOR_ASSET_ID": "111632" }, "geometry": { "type": "Point", "coordinates": [ -105.012570353679351, 39.713262531647551 ] } },
{ "type": "Feature", "properties": { "OBJECTID": 82, "FEATURE": "Basketball Court - Full", "LOCATION": "West Harvard Gulch", "LOC_CODE": "145", "COURT_NUM": null, "LIGHTS": "No", "SURFACE_TYPE": "Asphalt", "YEAR_BUILT": null, "YEAR_RESURF": "Use Year Built Field for Latest Rehab", "GLOBALID": "e116a4fb-9e79-4e2d-87c3-3902ba1c0e55", "ASSET_CLASS": "COURT", "CLASS_CATEGORY": "CT-BBF", "GIS_ASSET_ID": 20222, "INFOR_ASSET_ID": "111729" }, "geometry": { "type": "Point", "coordinates": [ -105.022335573512379, 39.670822832784886 ] } },
{ "type": "Feature", "properties": { "OBJECTID": 83, "FEATURE": "Basketball Court - Full", "LOCATION": "Westwood Park", "LOC_CODE": "839", "COURT_NUM": null, "LIGHTS": "No", "SURFACE_TYPE": "Concrete", "YEAR_BUILT": "2003", "YEAR_RESURF": "Use Year Built Field for Latest Rehab", "GLOBALID": "70514890-400f-45dc-a7a5-f37a3c8a76a8", "ASSET_CLASS": "COURT", "CLASS_CATEGORY": "CT-BBF", "GIS_ASSET_ID": 20010, "INFOR_ASSET_ID": "111559" }, "geometry": { "type": "Point", "coordinates": [ -105.050630087158211, 39.70147697241574 ] } },
{ "type": "Feature", "properties": { "OBJECTID": 84, "FEATURE": "Basketball Court - Full", "LOCATION": "Williams (Dr Daniel Hale) Park", "LOC_CODE": "225", "COURT_NUM": null, "LIGHTS": "No", "SURFACE_TYPE": "Concrete", "YEAR_BUILT": null, "YEAR_RESURF": "Use Year Built Field for Latest Rehab", "GLOBALID": "16e4cc7a-676d-4cb2-8eba-af566d376d84", "ASSET_CLASS": "COURT", "CLASS_CATEGORY": "CT-BBF", "GIS_ASSET_ID": 20072, "INFOR_ASSET_ID": "111610" }, "geometry": { "type": "Point", "coordinates": [ -104.97047436119999, 39.759668886571667 ] } },
{ "type": "Feature", "properties": { "OBJECTID": 85, "FEATURE": "Basketball Court - Full", "LOCATION": "Lowry Sports Complex", "LOC_CODE": "L21", "COURT_NUM": null, "LIGHTS": "Yes", "SURFACE_TYPE": "Asphalt", "YEAR_BUILT": "2007", "YEAR_RESURF": "Use Year Built Field for Latest Rehab", "GLOBALID": "4e0b61dd-214a-4eba-bdc8-a42d0946bed6", "ASSET_CLASS": "COURT", "CLASS_CATEGORY": "CT-BBF", "GIS_ASSET_ID": 20105, "INFOR_ASSET_ID": "111633" }, "geometry": { "type": "Point", "coordinates": [ -104.892810234716208, 39.716465905069498 ] } },
{ "type": "Feature", "properties": { "OBJECTID": 86, "FEATURE": "Basketball Court - Full", "LOCATION": "Lowry Sports Complex", "LOC_CODE": "L21", "COURT_NUM": null, "LIGHTS": "Yes", "SURFACE_TYPE": "Asphalt", "YEAR_BUILT": "2007", "YEAR_RESURF": "Use Year Built Field for Latest Rehab", "GLOBALID": "13f0f5a8-2c7b-4300-a884-f59b85c8a564", "ASSET_CLASS": "COURT", "CLASS_CATEGORY": "CT-BBF", "GIS_ASSET_ID": 20073, "INFOR_ASSET_ID": "111611" }, "geometry": { "type": "Point", "coordinates": [ -104.892636901679708, 39.716563440078097 ] } },
{ "type": "Feature", "properties": { "OBJECTID": 87, "FEATURE": "Basketball Court - Full", "LOCATION": "Lowry Sports Complex", "LOC_CODE": "L21", "COURT_NUM": null, "LIGHTS": "No", "SURFACE_TYPE": "Asphalt", "YEAR_BUILT": "2007", "YEAR_RESURF": "Use Year Built Field for Latest Rehab", "GLOBALID": "119d4989-6511-4414-8e8f-6b7715bdb8f2", "ASSET_CLASS": "COURT", "CLASS_CATEGORY": "CT-BBF", "GIS_ASSET_ID": 20011, "INFOR_ASSET_ID": "111560" }, "geometry": { "type": "Point", "coordinates": [ -104.892314007837584, 39.716772914434216 ] } },
{ "type": "Feature", "properties": { "OBJECTID": 88, "FEATURE": "Basketball Court - Full", "LOCATION": "Franco (Bernabe Indio) Park", "LOC_CODE": "022", "COURT_NUM": null, "LIGHTS": "No", "SURFACE_TYPE": "Concrete", "YEAR_BUILT": "2003", "YEAR_RESURF": "Use Year Built Field for Latest Rehab", "GLOBALID": "37a22208-5c90-4368-aa59-7fb7f2333ab3", "ASSET_CLASS": "COURT", "CLASS_CATEGORY": "CT-BBF", "GIS_ASSET_ID": 20074, "INFOR_ASSET_ID": "111612" }, "geometry": { "type": "Point", "coordinates": [ -105.001378774642419, 39.768227066563497 ] } },
{ "type": "Feature", "properties": { "OBJECTID": 89, "FEATURE": "Basketball Court - Full", "LOCATION": "Whitsell Park", "LOC_CODE": "522", "COURT_NUM": null, "LIGHTS": "No", "SURFACE_TYPE": "Concrete", "YEAR_BUILT": "2004", "YEAR_RESURF": "Use Year Built Field for Latest Rehab", "GLOBALID": "5d43fbfa-681a-4239-a877-24b692272143", "ASSET_CLASS": "COURT", "CLASS_CATEGORY": "CT-BBF", "GIS_ASSET_ID": 20186, "INFOR_ASSET_ID": "111703" }, "geometry": { "type": "Point", "coordinates": [ -104.745536427891793, 39.773771588180658 ] } },
{ "type": "Feature", "properties": { "OBJECTID": 91, "FEATURE": "Basketball Court - Full", "LOCATION": "Town Center Park", "LOC_CODE": "558", "COURT_NUM": null, "LIGHTS": "No", "SURFACE_TYPE": "Concrete", "YEAR_BUILT": "2007", "YEAR_RESURF": "Use Year Built Field for Latest Rehab", "GLOBALID": "2329d46a-a247-4a57-9013-72a12bb41f8c", "ASSET_CLASS": "COURT", "CLASS_CATEGORY": "CT-BBF", "GIS_ASSET_ID": 20012, "INFOR_ASSET_ID": "111561" }, "geometry": { "type": "Point", "coordinates": [ -104.766222362457711, 39.788442241355689 ] } },
{ "type": "Feature", "properties": { "OBJECTID": 92, "FEATURE": "Basketball Court - Full", "LOCATION": "Williams (Dr Daniel Hale) Park", "LOC_CODE": "225", "COURT_NUM": null, "LIGHTS": "No", "SURFACE_TYPE": "Concrete", "YEAR_BUILT": null, "YEAR_RESURF": "Use Year Built Field for Latest Rehab", "GLOBALID": "f0cf90c5-071d-4f8b-83ba-66a918b22f50", "ASSET_CLASS": "COURT", "CLASS_CATEGORY": "CT-BBF", "GIS_ASSET_ID": 20223, "INFOR_ASSET_ID": "111730" }, "geometry": { "type": "Point", "coordinates": [ -104.970358908884279, 39.759668564436637 ] } },
{ "type": "Feature", "properties": { "OBJECTID": 93, "FEATURE": "Basketball Court - Full", "LOCATION": "Green Valley Ranch East", "LOC_CODE": "550", "COURT_NUM": null, "LIGHTS": "No", "SURFACE_TYPE": "Concrete", "YEAR_BUILT": "2009", "YEAR_RESURF": "Use Year Built Field for Latest Rehab", "GLOBALID": "7dae25d3-8dfd-4df9-96c8-a2a40612029a", "ASSET_CLASS": "COURT", "CLASS_CATEGORY": "CT-BBF", "GIS_ASSET_ID": 20160, "INFOR_ASSET_ID": "111681" }, "geometry": { "type": "Point", "coordinates": [ -104.75027751382602, 39.779733096848837 ] } },
{ "type": "Feature", "properties": { "OBJECTID": 94, "FEATURE": "Basketball Court - Full", "LOCATION": "Green Valley Ranch East", "LOC_CODE": "550", "COURT_NUM": null, "LIGHTS": "No", "SURFACE_TYPE": "Concrete", "YEAR_BUILT": "2009", "YEAR_RESURF": "Use Year Built Field for Latest Rehab", "GLOBALID": "6bd2fc79-eb46-403f-b9a6-6738d51b30a1", "ASSET_CLASS": "COURT", "CLASS_CATEGORY": "CT-BBF", "GIS_ASSET_ID": 20106, "INFOR_ASSET_ID": "111634" }, "geometry": { "type": "Point", "coordinates": [ -104.750316519603402, 39.779571374257671 ] } },
{ "type": "Feature", "properties": { "OBJECTID": 95, "FEATURE": "Basketball Court - Half", "LOCATION": "Highland Park", "LOC_CODE": "013", "COURT_NUM": null, "LIGHTS": "No", "SURFACE_TYPE": "Concrete", "YEAR_BUILT": "2009", "YEAR_RESURF": "Use Year Built Field for Latest Rehab", "GLOBALID": "822a4378-4243-4029-aa6b-9e92766215f8", "ASSET_CLASS": "COURT", "CLASS_CATEGORY": "CT-BBH", "GIS_ASSET_ID": 20076, "INFOR_ASSET_ID": "111614" }, "geometry": { "type": "Point", "coordinates": [ -105.026543526628856, 39.763376778784576 ] } },
{ "type": "Feature", "properties": { "OBJECTID": 96, "FEATURE": "Basketball Court - Half", "LOCATION": "Highland Park", "LOC_CODE": "013", "COURT_NUM": null, "LIGHTS": "No", "SURFACE_TYPE": "Concrete", "YEAR_BUILT": "2009", "YEAR_RESURF": "Use Year Built Field for Latest Rehab", "GLOBALID": "1989e485-1a1e-47c0-9825-b6e5a7807599", "ASSET_CLASS": "COURT", "CLASS_CATEGORY": "CT-BBH", "GIS_ASSET_ID": 20107, "INFOR_ASSET_ID": "111635" }, "geometry": { "type": "Point", "coordinates": [ -105.026343252227136, 39.763320085530459 ] } },
{ "type": "Feature", "properties": { "OBJECTID": 198, "FEATURE": "Basketball Court - Full", "LOCATION": "Martin Luther King Jr Park", "LOC_CODE": "415", "COURT_NUM": null, "LIGHTS": "No", "SURFACE_TYPE": "Post Tension Concrete", "YEAR_BUILT": "2016", "YEAR_RESURF": "Use Year Built Field for Latest Rehab", "GLOBALID": "4e60842b-720f-4992-8c2a-27e89ea8b6db", "ASSET_CLASS": "COURT", "CLASS_CATEGORY": "CT-BBF", "GIS_ASSET_ID": 20024, "INFOR_ASSET_ID": "111573" }, "geometry": { "type": "Point", "coordinates": [ -104.907994377655527, 39.770815460717998 ] } },
{ "type": "Feature", "properties": { "OBJECTID": 371, "FEATURE": "Basketball Court - Half", "LOCATION": "Ash Grove", "LOC_CODE": "751", "COURT_NUM": null, "LIGHTS": "No", "SURFACE_TYPE": "Concrete", "YEAR_BUILT": "2016", "YEAR_RESURF": "Use Year Built Field for Latest Rehab", "GLOBALID": "bcf37971-15ec-42c3-aa75-a54fabe7056c", "ASSET_CLASS": "COURT", "CLASS_CATEGORY": "CT-BBH", "GIS_ASSET_ID": 20272, "INFOR_ASSET_ID": "111628" }, "geometry": { "type": "Point", "coordinates": [ -104.925424492995305, 39.685196468417779 ] } },
{ "type": "Feature", "properties": { "OBJECTID": 373, "FEATURE": "Basketball Court - Full", "LOCATION": "Aztlan Park", "LOC_CODE": "032", "COURT_NUM": null, "LIGHTS": "No", "SURFACE_TYPE": "Asphalt", "YEAR_BUILT": "2011", "YEAR_RESURF": "Use Year Built Field for Latest Rehab", "GLOBALID": "716e2fef-f424-4d03-b60d-f38246f575d4", "ASSET_CLASS": "COURT", "CLASS_CATEGORY": "CT-BBF", "GIS_ASSET_ID": 20323, "INFOR_ASSET_ID": "111755" }, "geometry": { "type": "Point", "coordinates": [ -105.00513359590758, 39.777257004698605 ] } },
{ "type": "Feature", "properties": { "OBJECTID": 374, "FEATURE": "Basketball Court - Full", "LOCATION": "Bible (James A) Park", "LOC_CODE": "602", "COURT_NUM": null, "LIGHTS": "No", "SURFACE_TYPE": "Asphalt", "YEAR_BUILT": null, "YEAR_RESURF": "Use Year Built Field for Latest Rehab", "GLOBALID": "9e323f8e-d59c-41c0-866c-121dce87da42", "ASSET_CLASS": "COURT", "CLASS_CATEGORY": "CT-BBF", "GIS_ASSET_ID": 20285, "INFOR_ASSET_ID": "111655" }, "geometry": { "type": "Point", "coordinates": [ -104.910458481383685, 39.667097288089522 ] } },
{ "type": "Feature", "properties": { "OBJECTID": 375, "FEATURE": "Basketball Court - Full", "LOCATION": "Byers & Pecos", "LOC_CODE": "831", "COURT_NUM": null, "LIGHTS": "No", "SURFACE_TYPE": "Asphalt", "YEAR_BUILT": "2019", "YEAR_RESURF": "Use Year Built Field for Latest Rehab", "GLOBALID": "a485bda4-5b6d-4fb5-810a-f4bb2b88489b", "ASSET_CLASS": "COURT", "CLASS_CATEGORY": "CT-BBF", "GIS_ASSET_ID": 20309, "INFOR_ASSET_ID": "111700" }, "geometry": { "type": "Point", "coordinates": [ -105.00655083662123, 39.711845905555009 ] } },
{ "type": "Feature", "properties": { "OBJECTID": 377, "FEATURE": "Basketball Court - Full", "LOCATION": "Hirshorn Park", "LOC_CODE": "014", "COURT_NUM": null, "LIGHTS": "No", "SURFACE_TYPE": "Concrete", "YEAR_BUILT": null, "YEAR_RESURF": "Use Year Built Field for Latest Rehab", "GLOBALID": "d4d2e0dd-2145-447c-bdb0-149b778926b6", "ASSET_CLASS": "COURT", "CLASS_CATEGORY": "CT-BBF", "GIS_ASSET_ID": 20273, "INFOR_ASSET_ID": "111629" }, "geometry": { "type": "Point", "coordinates": [ -105.01091613562717, 39.760018940494263 ] } },
{ "type": "Feature", "properties": { "OBJECTID": 379, "FEATURE": "Basketball Court - Full", "LOCATION": "La Raza Park", "LOC_CODE": "004", "COURT_NUM": null, "LIGHTS": "No", "SURFACE_TYPE": "Concrete", "YEAR_BUILT": "2026", "YEAR_RESURF": "Use Year Built Field for Latest Rehab", "GLOBALID": "c3ed10e0-603b-4b8c-89b4-99c632e03c7f", "ASSET_CLASS": "COURT", "CLASS_CATEGORY": "CT-BBF", "GIS_ASSET_ID": 20266, "INFOR_ASSET_ID": "111603" }, "geometry": { "type": "Point", "coordinates": [ -105.004502727173161, 39.769986429743767 ] } },
{ "type": "Feature", "properties": { "OBJECTID": 382, "FEATURE": "Basketball Court - Full", "LOCATION": "Dunham Park", "LOC_CODE": "209", "COURT_NUM": null, "LIGHTS": "No", "SURFACE_TYPE": "Concrete", "YEAR_BUILT": null, "YEAR_RESURF": "Use Year Built Field for Latest Rehab", "GLOBALID": "cb9c66c7-f7a1-4008-9fe7-24984f213867", "ASSET_CLASS": "COURT", "CLASS_CATEGORY": "CT-BBF", "GIS_ASSET_ID": 20274, "INFOR_ASSET_ID": "111630" }, "geometry": { "type": "Point", "coordinates": [ -104.954560556397297, 39.778618798879094 ] } },
{ "type": "Feature", "properties": { "OBJECTID": 692, "FEATURE": "Basketball Court - Full", "LOCATION": "Pinehurst Park", "LOC_CODE": "159", "COURT_NUM": null, "LIGHTS": "No", "SURFACE_TYPE": "Asphalt", "YEAR_BUILT": null, "YEAR_RESURF": "Use Year Built Field for Latest Rehab", "GLOBALID": "e88b8b42-19a3-4c1f-b757-7920655c535b", "ASSET_CLASS": "COURT", "CLASS_CATEGORY": "CT-BBF", "GIS_ASSET_ID": 20258, "INFOR_ASSET_ID": "111581" }, "geometry": { "type": "Point", "coordinates": [ -105.047519992279319, 39.637099852782534 ] } },
{ "type": "Feature", "properties": { "OBJECTID": 694, "FEATURE": "Basketball Court - Full", "LOCATION": "Sloans Lake Park - North", "LOC_CODE": "019", "COURT_NUM": null, "LIGHTS": "No", "SURFACE_TYPE": "Asphalt", "YEAR_BUILT": null, "YEAR_RESURF": "Use Year Built Field for Latest Rehab", "GLOBALID": "ef95f48d-0c39-448b-8b90-ade873b631ad", "ASSET_CLASS": "COURT", "CLASS_CATEGORY": "CT-BBF", "GIS_ASSET_ID": 20287, "INFOR_ASSET_ID": "111657" }, "geometry": { "type": "Point", "coordinates": [ -105.044912598097824, 39.754227373051393 ] } },
{ "type": "Feature", "properties": { "OBJECTID": 695, "FEATURE": "Basketball Court - Full", "LOCATION": "Southmoor Park", "LOC_CODE": "622", "COURT_NUM": null, "LIGHTS": "No", "SURFACE_TYPE": "Asphalt", "YEAR_BUILT": null, "YEAR_RESURF": "Use Year Built Field for Latest Rehab", "GLOBALID": "f3e16e33-3ca7-4519-b7dd-343cacd871b1", "ASSET_CLASS": "COURT", "CLASS_CATEGORY": "CT-BBF", "GIS_ASSET_ID": 20267, "INFOR_ASSET_ID": "111604" }, "geometry": { "type": "Point", "coordinates": [ -104.907082136351349, 39.652052966159602 ] } },
{ "type": "Feature", "properties": { "OBJECTID": 696, "FEATURE": "Basketball Court - Full", "LOCATION": "Parkfield", "LOC_CODE": "516", "COURT_NUM": null, "LIGHTS": "Yes", "SURFACE_TYPE": "Concrete", "YEAR_BUILT": "2011", "YEAR_RESURF": "Use Year Built Field for Latest Rehab", "GLOBALID": "387f60d8-9859-4365-aac5-241b3c1d8b61", "ASSET_CLASS": "COURT", "CLASS_CATEGORY": "CT-BBH", "GIS_ASSET_ID": 20268, "INFOR_ASSET_ID": "111605" }, "geometry": { "type": "Point", "coordinates": [ -104.806705755013525, 39.791096278965114 ] } },
{ "type": "Feature", "properties": { "OBJECTID": 697, "FEATURE": "Basketball Court - Full", "LOCATION": "Parkfield", "LOC_CODE": "516", "COURT_NUM": null, "LIGHTS": "Yes", "SURFACE_TYPE": "Concrete", "YEAR_BUILT": "2011", "YEAR_RESURF": "Use Year Built Field for Latest Rehab", "GLOBALID": "e1da57b5-03e4-43ba-be2a-a8cbb8878fd0", "ASSET_CLASS": "COURT", "CLASS_CATEGORY": "CT-BBF", "GIS_ASSET_ID": 20288, "INFOR_ASSET_ID": "111658" }, "geometry": { "type": "Point", "coordinates": [ -104.807081269047174, 39.791471832606355 ] } },
{ "type": "Feature", "properties": { "OBJECTID": 698, "FEATURE": "Basketball Court - Full", "LOCATION": "Parkfield", "LOC_CODE": "516", "COURT_NUM": null, "LIGHTS": "Yes", "SURFACE_TYPE": "Concrete", "YEAR_BUILT": "2011", "YEAR_RESURF": "Use Year Built Field for Latest Rehab", "GLOBALID": "cc4d39bc-9772-41de-b944-ee4845e84171", "ASSET_CLASS": "COURT", "CLASS_CATEGORY": "CT-BBF", "GIS_ASSET_ID": 20299, "INFOR_ASSET_ID": "111677" }, "geometry": { "type": "Point", "coordinates": [ -104.806936658635152, 39.791325710245381 ] } },
{ "type": "Feature", "properties": { "OBJECTID": 700, "FEATURE": "Basketball Court - Full", "LOCATION": "Parkfield", "LOC_CODE": "516", "COURT_NUM": null, "LIGHTS": "Yes", "SURFACE_TYPE": "Concrete", "YEAR_BUILT": "2011", "YEAR_RESURF": "Use Year Built Field for Latest Rehab", "GLOBALID": "4ef9b455-dd3e-4ee3-9d5e-b878472b7096", "ASSET_CLASS": "COURT", "CLASS_CATEGORY": "CT-BBF", "GIS_ASSET_ID": 20300, "INFOR_ASSET_ID": "111678" }, "geometry": { "type": "Point", "coordinates": [ -104.806565396117932, 39.790956171639195 ] } },
{ "type": "Feature", "properties": { "OBJECTID": 1649, "FEATURE": "Basketball Court - Full", "LOCATION": "Swansea Park", "LOC_CODE": "210", "COURT_NUM": null, "LIGHTS": null, "SURFACE_TYPE": "Concrete", "YEAR_BUILT": "2012", "YEAR_RESURF": "Use Year Built Field for Latest Rehab", "GLOBALID": "7c880ca1-5018-46b6-90fd-83e8c003767e", "ASSET_CLASS": "COURT", "CLASS_CATEGORY": "CT-BBF", "GIS_ASSET_ID": 20327, "INFOR_ASSET_ID": "112643" }, "geometry": { "type": "Point", "coordinates": [ -104.956375601633241, 39.785264303716154 ] } },
{ "type": "Feature", "properties": { "OBJECTID": 1968, "FEATURE": "Basketball Court - Half", "LOCATION": "New Freedom Park", "LOC_CODE": "L26", "COURT_NUM": null, "LIGHTS": null, "SURFACE_TYPE": "Concrete", "YEAR_BUILT": "2012", "YEAR_RESURF": "Use Year Built Field for Latest Rehab", "GLOBALID": "a180f94d-8188-41fc-bbb8-ecf40dc7e6ec", "ASSET_CLASS": "COURT", "CLASS_CATEGORY": "CT-BBF", "GIS_ASSET_ID": 20329, "INFOR_ASSET_ID": "112733" }, "geometry": { "type": "Point", "coordinates": [ -104.885404679749158, 39.737043053448474 ] } },
{ "type": "Feature", "properties": { "OBJECTID": 1970, "FEATURE": "Basketball Court - Half", "LOCATION": "Athmar Park", "LOC_CODE": "802", "COURT_NUM": null, "LIGHTS": "No", "SURFACE_TYPE": "Concrete", "YEAR_BUILT": null, "YEAR_RESURF": "Use Year Built Field for Latest Rehab", "GLOBALID": "b6743fb4-8c1b-4822-80ec-bce9859640df", "ASSET_CLASS": "COURT", "CLASS_CATEGORY": "CT-BBH", "GIS_ASSET_ID": 20330, "INFOR_ASSET_ID": "113454" }, "geometry": { "type": "Point", "coordinates": [ -105.019958191192529, 39.685252511951866 ] } },
{ "type": "Feature", "properties": { "OBJECTID": 2611, "FEATURE": "Basketball Court - Half", "LOCATION": "41st & Tennyson", "LOC_CODE": "035", "COURT_NUM": null, "LIGHTS": "No", "SURFACE_TYPE": "Concrete", "YEAR_BUILT": "2013", "YEAR_RESURF": "Use Year Built Field for Latest Rehab", "GLOBALID": "fad54f0c-9035-4aee-9d20-65aa321ed2ba", "ASSET_CLASS": "COURT", "CLASS_CATEGORY": "CT-BBH", "GIS_ASSET_ID": 20333, "INFOR_ASSET_ID": "114460" }, "geometry": { "type": "Point", "coordinates": [ -105.044809301480825, 39.773108170270234 ] } },
{ "type": "Feature", "properties": { "OBJECTID": 3571, "FEATURE": "Basketball Court - Half", "LOCATION": "Cuatro Vientos", "LOC_CODE": "825", "COURT_NUM": null, "LIGHTS": "No", "SURFACE_TYPE": "Concrete", "YEAR_BUILT": "2014", "YEAR_RESURF": "Use Year Built Field for Latest Rehab", "GLOBALID": "ddc87bdb-5b79-408c-9349-13aaac3914cd", "ASSET_CLASS": "COURT", "CLASS_CATEGORY": "CT-BBH", "GIS_ASSET_ID": 20338, "INFOR_ASSET_ID": null }, "geometry": { "type": "Point", "coordinates": [ -105.038233728494006, 39.71092560877829 ] } },
{ "type": "Feature", "properties": { "OBJECTID": 4212, "FEATURE": "Basketball Court - Full", "LOCATION": "51st & Broadway", "LOC_CODE": "230", "COURT_NUM": null, "LIGHTS": "No", "SURFACE_TYPE": "Concrete", "YEAR_BUILT": "2016", "YEAR_RESURF": "Use Year Built Field for Latest Rehab", "GLOBALID": "b286ad0d-1553-4252-8abf-43cd59196c33", "ASSET_CLASS": "COURT", "CLASS_CATEGORY": "CT-BBF", "GIS_ASSET_ID": 20265, "INFOR_ASSET_ID": "111602" }, "geometry": { "type": "Point", "coordinates": [ -104.98732536437403, 39.788603679245348 ] } },
{ "type": "Feature", "properties": { "OBJECTID": 4532, "FEATURE": "Basketball Court - Full", "LOCATION": "Quick (Lenore B) Park", "LOC_CODE": "220", "COURT_NUM": null, "LIGHTS": "No", "SURFACE_TYPE": "Post Tension Concrete", "YEAR_BUILT": "2017", "YEAR_RESURF": "Use Year Built Field for Latest Rehab", "GLOBALID": "dfa5617e-e365-4c29-950f-5fbf664fd26a", "ASSET_CLASS": "COURT", "CLASS_CATEGORY": "CT-BBH", "GIS_ASSET_ID": 20216, "INFOR_ASSET_ID": "111723" }, "geometry": { "type": "Point", "coordinates": [ -104.974992785411402, 39.754261444728229 ] } },
{ "type": "Feature", "properties": { "OBJECTID": 5492, "FEATURE": "Basketball Court - Full", "LOCATION": "Washington Park", "LOC_CODE": "711", "COURT_NUM": null, "LIGHTS": "Yes", "SURFACE_TYPE": "Concrete", "YEAR_BUILT": "2019", "YEAR_RESURF": "Use Year Built Field for Latest Rehab", "GLOBALID": "7dfd60bd-f625-4f0e-a175-93914cc5feba", "ASSET_CLASS": "COURT", "CLASS_CATEGORY": "CT-BBF", "GIS_ASSET_ID": 20341, "INFOR_ASSET_ID": null }, "geometry": { "type": "Point", "coordinates": [ -104.972581957365264, 39.698714183591306 ] } },
{ "type": "Feature", "properties": { "OBJECTID": 5493, "FEATURE": "Basketball Court - Full", "LOCATION": "Washington Park", "LOC_CODE": "711", "COURT_NUM": null, "LIGHTS": "Yes", "SURFACE_TYPE": "Concrete", "YEAR_BUILT": "2019", "YEAR_RESURF": "Use Year Built Field for Latest Rehab", "GLOBALID": "21fdaa20-f014-46a6-a62a-5d0df7120c89", "ASSET_CLASS": "COURT", "CLASS_CATEGORY": "CT-BBF", "GIS_ASSET_ID": 20344, "INFOR_ASSET_ID": null }, "geometry": { "type": "Point", "coordinates": [ -104.972367089281946, 39.69871365627597 ] } },
{ "type": "Feature", "properties": { "OBJECTID": 5812, "FEATURE": "Basketball Court - Full", "LOCATION": "Sanchez", "LOC_CODE": "028", "COURT_NUM": null, "LIGHTS": "Yes", "SURFACE_TYPE": "Concrete", "YEAR_BUILT": "2020", "YEAR_RESURF": "Use Year Built Field for Latest Rehab", "GLOBALID": "4fca67c3-bd9b-4789-875f-b5938e90c272", "ASSET_CLASS": "COURT", "CLASS_CATEGORY": "CT-BBF", "GIS_ASSET_ID": 20339, "INFOR_ASSET_ID": null }, "geometry": { "type": "Point", "coordinates": [ -105.031073296636777, 39.736175056443443 ] } },
{ "type": "Feature", "properties": { "OBJECTID": 7732, "FEATURE": "Basketball Court - Full", "LOCATION": "Godsman Park", "LOC_CODE": "808", "COURT_NUM": null, "LIGHTS": "No", "SURFACE_TYPE": "Concrete", "YEAR_BUILT": "2021", "YEAR_RESURF": "Use Year Built Field for Latest Rehab", "GLOBALID": "df003718-fe7b-4659-9618-82cb09a520bc", "ASSET_CLASS": "COURT", "CLASS_CATEGORY": "CT-BBF", "GIS_ASSET_ID": 20357, "INFOR_ASSET_ID": null }, "geometry": { "type": "Point", "coordinates": [ -105.014540218931742, 39.690473903323308 ] } },
{ "type": "Feature", "properties": { "OBJECTID": 8539, "FEATURE": "Basketball Court - Half", "LOCATION": "Russell Square Park", "LOC_CODE": "206", "COURT_NUM": null, "LIGHTS": "No", "SURFACE_TYPE": "Concrete", "YEAR_BUILT": "2022", "YEAR_RESURF": "Use Year Built Field for Latest Rehab", "GLOBALID": "d57493cb-e712-4cca-a796-9d2ebcf78d63", "ASSET_CLASS": "COURT", "CLASS_CATEGORY": "CT-BBH", "GIS_ASSET_ID": 20358, "INFOR_ASSET_ID": null }, "geometry": { "type": "Point", "coordinates": [ -104.961941572863779, 39.76771030489779 ] } },
{ "type": "Feature", "properties": { "OBJECTID": 8939, "FEATURE": "Basketball Court - Half", "LOCATION": "McWilliams", "LOC_CODE": "814", "COURT_NUM": null, "LIGHTS": "No", "SURFACE_TYPE": "Concrete", "YEAR_BUILT": "2022", "YEAR_RESURF": "Use Year Built Field for Latest Rehab", "GLOBALID": "58febc31-8cb3-4438-b2ef-87a8e73b7da8", "ASSET_CLASS": "COURT", "CLASS_CATEGORY": "CT-BBH", "GIS_ASSET_ID": 20257, "INFOR_ASSET_ID": "111580" }, "geometry": { "type": "Point", "coordinates": [ -104.953239294530832, 39.66806403449327 ] } },
{ "type": "Feature", "properties": { "OBJECTID": 10143, "FEATURE": "Basketball Court - Half", "LOCATION": "Kentucky & Irving", "LOC_CODE": "820", "COURT_NUM": null, "LIGHTS": "No", "SURFACE_TYPE": "Concrete", "YEAR_BUILT": "2023", "YEAR_RESURF": "Use Year Built Field for Latest Rehab", "GLOBALID": "161c189d-d854-4756-a00d-f76dfbfef25a", "ASSET_CLASS": "COURT", "CLASS_CATEGORY": "CT-BBH", "GIS_ASSET_ID": 20398, "INFOR_ASSET_ID": null }, "geometry": { "type": "Point", "coordinates": [ -105.029491086377533, 39.700760895943581 ] } },
{ "type": "Feature", "properties": { "OBJECTID": 10543, "FEATURE": "Basketball Court - Full", "LOCATION": "Rosamond Park", "LOC_CODE": "621", "COURT_NUM": null, "LIGHTS": "No", "SURFACE_TYPE": "Concrete", "YEAR_BUILT": "2024", "YEAR_RESURF": "Use Year Built Field for Latest Rehab", "GLOBALID": "ebb1f5a3-948e-4c61-b357-c23fc184a981", "ASSET_CLASS": "COURT", "CLASS_CATEGORY": "CT-BBF", "GIS_ASSET_ID": 20217, "INFOR_ASSET_ID": "111724" }, "geometry": { "type": "Point", "coordinates": [ -104.895163463591388, 39.641673859784561 ] } },
{ "type": "Feature", "properties": { "OBJECTID": 10943, "FEATURE": "Basketball Court - Full", "LOCATION": "Verbena Park", "LOC_CODE": "L18", "COURT_NUM": null, "LIGHTS": "No", "SURFACE_TYPE": "Concrete", "YEAR_BUILT": "2024", "YEAR_RESURF": "Use Year Built Field for Latest Rehab", "GLOBALID": "fbbc8e77-8729-4d79-94df-b2d02d843aa3", "ASSET_CLASS": "COURT", "CLASS_CATEGORY": "CT-BBF", "GIS_ASSET_ID": 20041, "INFOR_ASSET_ID": "111583" }, "geometry": { "type": "Point", "coordinates": [ -104.891463521740931, 39.73477573983746 ] } },
{ "type": "Feature", "properties": { "OBJECTID": 12543, "FEATURE": "Basketball Court - Full", "LOCATION": "Dailey Park", "LOC_CODE": "713", "COURT_NUM": null, "LIGHTS": "No", "SURFACE_TYPE": "Concrete", "YEAR_BUILT": "2025", "YEAR_RESURF": "Use Year Built Field for Latest Rehab", "GLOBALID": "8960995e-481e-41b7-a630-7b4c16561faf", "ASSET_CLASS": "COURT", "CLASS_CATEGORY": "CT-BBF", "GIS_ASSET_ID": 20256, "INFOR_ASSET_ID": "111579" }, "geometry": { "type": "Point", "coordinates": [ -104.992628471678046, 39.715876334376148 ] } },
{ "type": "Feature", "properties": { "OBJECTID": 12943, "FEATURE": "Basketball Court - Full", "LOCATION": "Barnum Park", "LOC_CODE": "804", "COURT_NUM": null, "LIGHTS": "No", "SURFACE_TYPE": "Concrete", "YEAR_BUILT": "2025", "YEAR_RESURF": "Use Year Built Field for Latest Rehab", "GLOBALID": "e70f7f67-d97f-4a82-8c91-a9b7697b0437", "ASSET_CLASS": "COURT", "CLASS_CATEGORY": "CT-BBF", "GIS_ASSET_ID": 20129, "INFOR_ASSET_ID": "111821" }, "geometry": { "type": "Point", "coordinates": [ -105.03017810963749, 39.723387900775187 ] } },
{ "type": "Feature", "properties": { "OBJECTID": 13344, "FEATURE": "Basketball Court - Half", "LOCATION": "Martinez Park", "LOC_CODE": "029", "COURT_NUM": null, "LIGHTS": null, "SURFACE_TYPE": "Concrete", "YEAR_BUILT": "2025", "YEAR_RESURF": "Use Year Built Field for Latest Rehab", "GLOBALID": "6d3acfa1-fafa-4485-9e6b-e9ea2f658f5f", "ASSET_CLASS": "COURT", "CLASS_CATEGORY": "CT-BBH", "GIS_ASSET_ID": 20075, "INFOR_ASSET_ID": "111613" }, "geometry": { "type": "Point", "coordinates": [ -105.043374654157304, 39.730452369095445 ] } },
{ "type": "Feature", "properties": { "OBJECTID": 13345, "FEATURE": "Basketball Court - Half", "LOCATION": "Eastmoor Park", "LOC_CODE": "606", "COURT_NUM": null, "LIGHTS": "No", "SURFACE_TYPE": "Concrete", "YEAR_BUILT": "2026", "YEAR_RESURF": "Use Year Built Field for Latest Rehab", "GLOBALID": "8f587f06-81b6-4d07-b7e6-ee5ff2445615", "ASSET_CLASS": "COURT", "CLASS_CATEGORY": "CT-BBH", "GIS_ASSET_ID": 20416, "INFOR_ASSET_ID": null }, "geometry": { "type": "Point", "coordinates": [ -104.909259409845617, 39.640275567458225 ] } }
]
}
