{
"type": "FeatureCollection",
"name": "Community_Services",
"crs": { "type": "name", "properties": { "name": "urn:ogc:def:crs:OGC:1.3:CRS84" } },
"features": [
{ "type": "Feature", "properties": { "Global_Site_ID": 124182, "Activity_Category": "Community Services", "Site_Name": "Academy 360", "Address": "12000 East 47th Ave.", "City": "Denver", "State": "CO", "Zip": 80239, "Latitude": 39.78211709, "Longitude": -104.8503816, "Site_IDs": 134263, "Org_IDs": 38507, "Organization": "Children's Farms of America dba Children's Farms in Action", "Location_Type": "School (Denver Public Schools)", "DPS_School_Num": 181.0, "Programs": "Children's Farms in Action; Children's Farms in Action -- Montbello Urban Farm", "Program_Count": 2, "Program_Description": "Children’s Farms in Action provides gardening and nutrition education to  children and youth at various school garden sites in the Montbello neighborhood. Kids grow healthy produce for themselves and their families.; Montbello Urban Farm managed by Children’s Farms in Action grows and distributes thousands of pounds of fresh produce each year through two Montbello food pantries. Children and youth plant tend and harvest this quarter-acre growing space.", "Cost": "Free", "Scholarship_Available": false, "Open_Enrollment": false, "Registration_Process": null, "Registration_URL": null, "Food_Provided": "No", "Transport_Available": false, "Time_Availability": "By Request; School Day; Summer", "Focus_Areas": "Academic; Outdoor; Service Learning", "Phone": "7208105475", "Email": "childrensfarms@gmail.com", "Website": null }, "geometry": { "type": "Point", "coordinates": [ -104.8503816, 39.78211709 ] } },
{ "type": "Feature", "properties": { "Global_Site_ID": 124190, "Activity_Category": "Community Services", "Site_Name": "Amesse Elementary School", "Address": "5440 Scranton St.", "City": "Denver", "State": "CO", "Zip": 80239, "Latitude": 39.7936385, "Longitude": -104.8417281, "Site_IDs": 150127, "Org_IDs": 42396, "Organization": "Benefits in Action", "Location_Type": "School (Denver Public Schools)", "DPS_School_Num": 292.0, "Programs": "Food and Healthcare Assistance", "Program_Count": 1, "Program_Description": "We help with no-cost SNAP Medicaid applications for families.", "Cost": "Free", "Scholarship_Available": false, "Open_Enrollment": true, "Registration_Process": "We help with no-cost SNAP, Medicaid applications for families.", "Registration_URL": "https://signup.benefitsinaction.org/externalintake", "Food_Provided": "No", "Transport_Available": false, "Time_Availability": "After School; By Request", "Focus_Areas": "Family Support", "Phone": "(720) 221-8354", "Email": "info@benefitsinaction.org", "Website": "https://www.benefitsinaction.org/" }, "geometry": { "type": "Point", "coordinates": [ -104.8417281, 39.7936385 ] } },
{ "type": "Feature", "properties": { "Global_Site_ID": 126147, "Activity_Category": "Community Services", "Site_Name": "Wastewater Management", "Address": "2000 W 3rd Ave", "City": "Denver", "State": "CO", "Zip": 80223, "Latitude": 39.70875079, "Longitude": -104.962544, "Site_IDs": 122962, "Org_IDs": 36960, "Organization": "Stormwater Program/Denver Public Works", "Location_Type": "Other", "DPS_School_Num": null, "Programs": "Keep It Clean - Neighborhood Environmental Trios (KIC-NET); Vacuum Truck Demonstration; Water Quality Field Trip", "Program_Count": 3, "Program_Description": "An environmental educator facilitates testing in the South Platte River Cherry Creek Bear Creek or another waterway near your school. As part in the EarthEcho Monitoring Challenge we facilitate 1-hour water quality testing activities at your; We have vacuum truck demonstrations available to Denver schools.This is noisy and educational at the same time. A city crew comes to your location to show students the equipment used to clean storm drains and they explain how and why they do the; We help te", "Cost": "Free", "Scholarship_Available": false, "Open_Enrollment": true, "Registration_Process": null, "Registration_URL": null, "Food_Provided": "No", "Transport_Available": false, "Time_Availability": "After School; Before School; By Request; Holiday; School Day; Summer", "Focus_Areas": "Academic; College & Career; Outdoor; Service Learning", "Phone": "303-870-4690", "Email": "watereducation@denvergov.org", "Website": "http://www.keepitcleandenver.org" }, "geometry": { "type": "Point", "coordinates": [ -104.962544, 39.70875079 ] } },
{ "type": "Feature", "properties": { "Global_Site_ID": 148706, "Activity_Category": "Community Services", "Site_Name": "Montbello Organizing Committee", "Address": "12000 E 47th Ave, Ste. 113 ", "City": "Denver", "State": "CO", "Zip": 80239, "Latitude": 39.78198904, "Longitude": -104.8503679, "Site_IDs": 134262, "Org_IDs": 38507, "Organization": "Children's Farms of America dba Children's Farms in Action", "Location_Type": "Community", "DPS_School_Num": null, "Programs": "Children's Farms in Action; Children's Farms in Action -- Montbello Urban Farm", "Program_Count": 2, "Program_Description": "Children’s Farms in Action provides gardening and nutrition education to  children and youth at various school garden sites in the Montbello neighborhood. Kids grow healthy produce for themselves and their families.; Montbello Urban Farm managed by Children’s Farms in Action grows and distributes thousands of pounds of fresh produce each year through two Montbello food pantries. Children and youth plant tend and harvest this quarter-acre growing space.", "Cost": "Free", "Scholarship_Available": false, "Open_Enrollment": false, "Registration_Process": "contact email listed for registration process. Currently all programs are filled for the summer", "Registration_URL": null, "Food_Provided": "Yes - Snacks", "Transport_Available": false, "Time_Availability": "By Request; School Day; Summer", "Focus_Areas": "Academic; Outdoor; Service Learning", "Phone": "7208105475", "Email": "childrensfarms@gmail.com", "Website": null }, "geometry": { "type": "Point", "coordinates": [ -104.8503679, 39.78198904 ] } },
{ "type": "Feature", "properties": { "Global_Site_ID": 157884, "Activity_Category": "Community Services", "Site_Name": "Clothes To Kids of Denver Store", "Address": "2890 S Colorado Blvd Suite", "City": "Denver", "State": "CO", "Zip": 80222, "Latitude": 39.66480959, "Longitude": -104.9388327, "Site_IDs": 150030, "Org_IDs": 42371, "Organization": "Clothes To Kids of Denver, Inc.", "Location_Type": "Other", "DPS_School_Num": null, "Programs": "Clothes To Kids of Denver (CTKD)", "Program_Count": 1, "Program_Description": "CTKD provides quality clothing to Denver area students ages 3-21 from low-income or in-crisis families free of charge. Students can shop (by appointment only) for a 21 piece wardrobe every 4 months.", "Cost": "Free", "Scholarship_Available": false, "Open_Enrollment": true, "Registration_Process": "Call to make an appointment to shop", "Registration_URL": "https://clothestokidsdenver.org/about/mission-vision-history/", "Food_Provided": "No", "Transport_Available": false, "Time_Availability": "By Request", "Focus_Areas": "Family Support", "Phone": "(720) 379-4630", "Email": "kathleen@clothestokidsdenver.org", "Website": "https://clothestokidsdenver.org/" }, "geometry": { "type": "Point", "coordinates": [ -104.9388327, 39.66480959 ] } }
]
}
