{
"type": "FeatureCollection",
"name": "County_Boundary",
"crs": { "type": "name", "properties": { "name": "urn:ogc:def:crs:OGC:1.3:CRS84" } },
"features": [
{ "type": "Feature", "properties": { "COUNTY": "Jefferson", "GLOBALID": "{beb74d83-54ab-4d55-852e-c6986a012727}", "Shape__Are": 43165.9306641, "Shape__Len": 845.250099987 }, "geometry": { "type": "MultiPolygon", "coordinates": [ [ [ [ -105.080884193414235, 39.63500702015444 ], [ -105.081497552973218, 39.635009206518092 ], [ -105.081493465835521, 39.635695186885798 ], [ -105.08088010028662, 39.635693000501277 ], [ -105.080884193414235, 39.63500702015444 ] ] ] ] } },
{ "type": "Feature", "properties": { "COUNTY": "Jefferson", "GLOBALID": "{80a27cfb-c42f-41b2-8cf7-0b4cbae7312d}", "Shape__Are": 105818.506836, "Shape__Len": 1315.49929997 }, "geometry": { "type": "MultiPolygon", "coordinates": [ [ [ [ -105.062573366119111, 39.651861579585869 ], [ -105.06356953420368, 39.65186528321636 ], [ -105.063563097713413, 39.652900938939936 ], [ -105.062566914937861, 39.652897235256148 ], [ -105.062573366119111, 39.651861579585869 ] ] ] ] } },
{ "type": "Feature", "properties": { "COUNTY": "Jefferson", "GLOBALID": "{025e8320-3cf5-4530-8950-629b7d6f917a}", "Shape__Are": 50403.4160156, "Shape__Len": 909.32449398599999 }, "geometry": { "type": "MultiPolygon", "coordinates": [ [ [ [ -105.063979960418152, 39.65325835300407 ], [ -105.064919357960505, 39.653256686078073 ], [ -105.064921427964023, 39.653782427053642 ], [ -105.063992672462561, 39.653784817135097 ], [ -105.063979960418152, 39.65325835300407 ] ] ] ] } },
{ "type": "Feature", "properties": { "COUNTY": "Arapahoe", "GLOBALID": "{454b98e1-cdd6-42ac-83ff-7c2c47a4c409}", "Shape__Are": 194758.04345699999, "Shape__Len": 2301.3712030500001 }, "geometry": { "type": "MultiPolygon", "coordinates": [ [ [ [ -104.902913769458863, 39.624187528881912 ], [ -104.90391929991749, 39.624192635443052 ], [ -104.903927053971429, 39.626835114110186 ], [ -104.903797474282158, 39.626834456560005 ], [ -104.903294545723242, 39.625960929051502 ], [ -104.902806219266282, 39.624310524692547 ], [ -104.902913769458863, 39.624187528881912 ] ] ] ] } },
{ "type": "Feature", "properties": { "COUNTY": "Arapahoe", "GLOBALID": "{154f48d5-2ec9-406a-a1c2-a45c388faa92}", "Shape__Are": 1911874.60889, "Shape__Len": 8220.5640926699998 }, "geometry": { "type": "MultiPolygon", "coordinates": [ [ [ [ -104.931629510100564, 39.67336873515562 ], [ -104.931626889317172, 39.672814847835916 ], [ -104.930786694308608, 39.672816273253723 ], [ -104.930790116562306, 39.672394194908129 ], [ -104.929661334615403, 39.672388723875407 ], [ -104.927211312746721, 39.668971553750332 ], [ -104.92809140139866, 39.668972747679611 ], [ -104.928084378423733, 39.669398930622336 ], [ -104.929264684503622, 39.66939643118392 ], [ -104.92926588526727, 39.668484295193551 ], [ -104.93043817279748, 39.668482771915258 ], [ -104.930438418970056, 39.667576809897895 ], [ -104.931604477337729, 39.667575248481448 ], [ -104.9316162442869, 39.67029011083541 ], [ -104.931620412775246, 39.671201584857165 ], [ -104.931726989892596, 39.671201415582736 ], [ -104.931723994658014, 39.670583696878772 ], [ -104.933038419287527, 39.670581807738124 ], [ -104.933041426087357, 39.671199526408941 ], [ -104.933887817880063, 39.671198457078418 ], [ -104.933895308610417, 39.673353242409199 ], [ -104.931629510100564, 39.67336873515562 ] ] ] ] } },
{ "type": "Feature", "properties": { "COUNTY": "Arapahoe", "GLOBALID": "{269d339e-2d38-456a-8f2a-684f8574f461}", "Shape__Are": 14051438.537599999, "Shape__Len": 25170.3569599 }, "geometry": { "type": "MultiPolygon", "coordinates": [ [ [ [ -104.923439980900582, 39.676569540594009 ], [ -104.923435433754406, 39.675474813447259 ], [ -104.923416968057907, 39.675485800607092 ], [ -104.923326773757736, 39.675536044270522 ], [ -104.92323265678057, 39.675581790333133 ], [ -104.923157287335798, 39.675614019616887 ], [ -104.923079969352827, 39.675643364251805 ], [ -104.923000887601418, 39.675669751283593 ], [ -104.922931851988821, 39.675688057846777 ], [ -104.922860709238179, 39.6757006588915 ], [ -104.922788248434998, 39.675707416878069 ], [ -104.922715268645248, 39.675708256466109 ], [ -104.922642578884691, 39.675703168117309 ], [ -104.922570982958661, 39.675692208921426 ], [ -104.922501272497144, 39.675675498959578 ], [ -104.922434218772935, 39.675653223965718 ], [ -104.922370563420984, 39.67562562987689 ], [ -104.922334138398512, 39.67560655598853 ], [ -104.922299350251421, 39.675585737367676 ], [ -104.922263724308905, 39.675561348742796 ], [ -104.922260727337346, 39.674840209974001 ], [ -104.921057242037463, 39.674842183120738 ], [ -104.921059500354019, 39.674568346726481 ], [ -104.920654482992262, 39.674247206711335 ], [ -104.920578530817949, 39.6741950105068 ], [ -104.920497210978453, 39.674147940707158 ], [ -104.920411400147927, 39.674106681653569 ], [ -104.920321099485832, 39.67407123244157 ], [ -104.920227194234883, 39.674041944197185 ], [ -104.920129685743532, 39.674019497849294 ], [ -104.920030344177533, 39.674003223893735 ], [ -104.919930061353497, 39.673993804955188 ], [ -104.919827938074476, 39.673991586066023 ], [ -104.91973554175209, 39.673995248046104 ], [ -104.91966182485038, 39.673995226425397 ], [ -104.919588144816473, 39.673990745565234 ], [ -104.919515395989379, 39.673980777677343 ], [ -104.919444464971406, 39.673966358445419 ], [ -104.919375345303891, 39.673947142871938 ], [ -104.919308046330983, 39.673923130105358 ], [ -104.919244329258461, 39.67389502058834 ], [ -104.919228411230577, 39.673886705930869 ], [ -104.917571175707096, 39.67298406917952 ], [ -104.917565656310344, 39.671219767111658 ], [ -104.917555339546709, 39.667590459200021 ], [ -104.916388017592524, 39.667591282318547 ], [ -104.916399021996796, 39.666160321306712 ], [ -104.915960339121312, 39.666158142463154 ], [ -104.915948892781486, 39.663477588368544 ], [ -104.915597285518899, 39.66325827351455 ], [ -104.915048525438351, 39.663146756606565 ], [ -104.913074772850621, 39.663138472021032 ], [ -104.913098880629008, 39.656187160758066 ], [ -104.915260177560043, 39.656179746708595 ], [ -104.915780810468135, 39.656356321974073 ], [ -104.915797081614912, 39.656322086794489 ], [ -104.915828740931289, 39.656251894389186 ], [ -104.915851536147997, 39.656180284337886 ], [ -104.915867239569934, 39.656107267255585 ], [ -104.915873006541602, 39.656054447793572 ], [ -104.916581871212131, 39.656125574119123 ], [ -104.916033501979598, 39.656934790823378 ], [ -104.91590557715233, 39.65715549857827 ], [ -104.915521274052665, 39.657134371459378 ], [ -104.915521633994587, 39.657517695386083 ], [ -104.915893669421266, 39.657519544933194 ], [ -104.91592297002525, 39.657520032817736 ], [ -104.915952283728032, 39.657518805813488 ], [ -104.915981607031739, 39.65751586390293 ], [ -104.916010069396975, 39.657510514620185 ], [ -104.916038542553622, 39.657503446834767 ], [ -104.916042105618956, 39.657502091860323 ], [ -104.916262724182005, 39.658094127374547 ], [ -104.915941979572693, 39.658437079569815 ], [ -104.91590759450655, 39.658514464067224 ], [ -104.916873090145231, 39.658801685725066 ], [ -104.916767413621443, 39.659016672585167 ], [ -104.917822466271971, 39.659320459669168 ], [ -104.917902866560738, 39.659155108055607 ], [ -104.918257296027491, 39.659353841105521 ], [ -104.918623713579962, 39.659928406178416 ], [ -104.918895443479485, 39.659927004607489 ], [ -104.918884886481294, 39.660344247828597 ], [ -104.921025821709904, 39.660344516646298 ], [ -104.921875873386526, 39.662255694885815 ], [ -104.921657498416053, 39.662461894515637 ], [ -104.921628832764767, 39.66249229818515 ], [ -104.921603704911959, 39.662524428795464 ], [ -104.921582113613681, 39.66255829625041 ], [ -104.921564064031116, 39.66259355740852 ], [ -104.921550442393709, 39.662629863556347 ], [ -104.921541260121771, 39.662666536520398 ], [ -104.921535621258428, 39.662704258229724 ], [ -104.921534424615373, 39.662742001800716 ], [ -104.921537668358155, 39.662779424956376 ], [ -104.921545349711195, 39.662816865447112 ], [ -104.921556596107493, 39.662853297578209 ], [ -104.921572284563609, 39.662889067031777 ], [ -104.921592423122206, 39.662923481203293 ], [ -104.921615242772532, 39.662956536789892 ], [ -104.921630194783361, 39.662973770600374 ], [ -104.922147546429656, 39.663557643747829 ], [ -104.922158095000768, 39.663570734211966 ], [ -104.922166857921425, 39.663584849906094 ], [ -104.922173843251301, 39.663599294625328 ], [ -104.922179940078308, 39.663614080846898 ], [ -104.922183364935734, 39.663629542972345 ], [ -104.922185899510467, 39.663644996217585 ], [ -104.922186662758676, 39.66366044165575 ], [ -104.922184759681343, 39.6636758766887 ], [ -104.922181966303569, 39.663691304642789 ], [ -104.922177404427231, 39.663706380734325 ], [ -104.922171064713709, 39.663721106718633 ], [ -104.922162956499605, 39.663735480839939 ], [ -104.922249728880701, 39.663766105320441 ], [ -104.922230608137113, 39.666953021618959 ], [ -104.920588702709338, 39.666946361087476 ], [ -104.920318457692531, 39.667093384545424 ], [ -104.921021005230045, 39.667803674429315 ], [ -104.920522341116921, 39.668090536767643 ], [ -104.920670814779413, 39.668244689964794 ], [ -104.921451812251561, 39.667792495779288 ], [ -104.921331402660286, 39.66767064403782 ], [ -104.922723888455693, 39.667668496357926 ], [ -104.922724281708511, 39.667839802219973 ], [ -104.92297537709176, 39.667908621175123 ], [ -104.923422683053928, 39.668031215826687 ], [ -104.923728667353018, 39.66811507571898 ], [ -104.923984494930792, 39.668186213396034 ], [ -104.924247079578734, 39.668269245872359 ], [ -104.924503185660896, 39.668363411158005 ], [ -104.924548806858894, 39.668381593626506 ], [ -104.924756241177107, 39.668465263765704 ], [ -104.924958535596986, 39.668656588366552 ], [ -104.925018732293893, 39.668848695685092 ], [ -104.925122534551733, 39.66895682389459 ], [ -104.924968668204727, 39.669327083526547 ], [ -104.925024438419086, 39.669347635658077 ], [ -104.925096830427222, 39.669368802272324 ], [ -104.925172244432375, 39.669384150666673 ], [ -104.925255028193732, 39.669393759738234 ], [ -104.925332204591228, 39.669396278926669 ], [ -104.925408675951928, 39.669396652746421 ], [ -104.925480061343222, 39.669397001659249 ], [ -104.926305909210981, 39.669401035032038 ], [ -104.930077499245797, 39.674830094672608 ], [ -104.929266687768077, 39.674831192431206 ], [ -104.927591701812204, 39.674833301403922 ], [ -104.927593967913324, 39.675264832025292 ], [ -104.925746836820991, 39.675267115866426 ], [ -104.925749197205235, 39.675824804557863 ], [ -104.925806086755514, 39.675824737463081 ], [ -104.925809294148891, 39.676566931523844 ], [ -104.925783724077263, 39.67656695975294 ], [ -104.925784464629331, 39.676731352957347 ], [ -104.925308808944919, 39.676732183895979 ], [ -104.92530748613548, 39.676347885341251 ], [ -104.924774702623466, 39.676349105850797 ], [ -104.924773825973944, 39.676143289606159 ], [ -104.924490740921627, 39.676200889245088 ], [ -104.92449141863321, 39.67656835509807 ], [ -104.923439980900582, 39.676569540594009 ] ] ] ] } },
{ "type": "Feature", "properties": { "COUNTY": "Arapahoe", "GLOBALID": "{039ce94d-219e-4edb-914d-0935534e5399}", "Shape__Are": 609666.06152300001, "Shape__Len": 3123.5531454699999 }, "geometry": { "type": "MultiPolygon", "coordinates": [ [ [ [ -104.908212605596788, 39.679889712854752 ], [ -104.910929638524095, 39.679898897527863 ], [ -104.91092997629795, 39.682081101451743 ], [ -104.908210995657868, 39.682082203317059 ], [ -104.908211124480928, 39.680276112322893 ], [ -104.908212605596788, 39.679889712854752 ] ] ] ] } },
{ "type": "Feature", "properties": { "COUNTY": "Arapahoe", "GLOBALID": "{4482306a-9e64-4daa-a67e-106f3a2ad7b1}", "Shape__Are": 463899.89697300002, "Shape__Len": 3339.2070405099998 }, "geometry": { "type": "MultiPolygon", "coordinates": [ [ [ [ -104.898796169045113, 39.685710721023533 ], [ -104.898792693129124, 39.683420130522954 ], [ -104.902747187606749, 39.685719189395122 ], [ -104.898796169045113, 39.685710721023533 ] ] ] ] } },
{ "type": "Feature", "properties": { "COUNTY": "Arapahoe", "GLOBALID": "{e96708bc-0195-42a6-9046-99bea2d91700}", "Shape__Are": 15890903.292, "Shape__Len": 31151.504072799999 }, "geometry": { "type": "MultiPolygon", "coordinates": [ [ [ [ -104.931733977401166, 39.700230854886861 ], [ -104.932902596039824, 39.700227915005854 ], [ -104.934075015146291, 39.700221854596357 ], [ -104.93407118444523, 39.699350652703799 ], [ -104.934081130854992, 39.698406151769348 ], [ -104.932899649118184, 39.698426013853982 ], [ -104.932306101313955, 39.698432074180374 ], [ -104.931737502914245, 39.698429328002888 ], [ -104.931735932581958, 39.69884283414563 ], [ -104.931733977401166, 39.700230854886861 ], [ -104.92932397342571, 39.700232981743191 ], [ -104.928789991407243, 39.700233134671606 ], [ -104.928805591706734, 39.69842541714771 ], [ -104.928219162903844, 39.698430460131803 ], [ -104.928223325566961, 39.696611020955828 ], [ -104.931745184762605, 39.696603039258108 ], [ -104.934089930188648, 39.6965960918264 ], [ -104.935922185883044, 39.696590280210586 ], [ -104.935916063210115, 39.697849837466869 ], [ -104.936429635469707, 39.697848515962633 ], [ -104.936434889656809, 39.696588955461827 ], [ -104.936284620118442, 39.696589432246078 ], [ -104.936275045818761, 39.69477634870703 ], [ -104.939519402442016, 39.694766675202757 ], [ -104.939521163961956, 39.695113125665316 ], [ -104.939522670447147, 39.695409612477711 ], [ -104.940568409618521, 39.695407036064516 ], [ -104.940567080869457, 39.694763729797835 ], [ -104.940706432891275, 39.69476333704413 ], [ -104.940706651278617, 39.695410951445091 ], [ -104.940707822146834, 39.696576032187913 ], [ -104.939563716955661, 39.696575358935853 ], [ -104.939563002884498, 39.696664921398373 ], [ -104.938574151055519, 39.696666725664109 ], [ -104.938572855864138, 39.697939174947464 ], [ -104.940036197682488, 39.697933453049785 ], [ -104.940037752910882, 39.697738545060801 ], [ -104.940706786316412, 39.697735208719905 ], [ -104.940701110081861, 39.703819704756135 ], [ -104.940696437616452, 39.711082500758515 ], [ -104.931683945675417, 39.711101366778863 ], [ -104.931692581008932, 39.709133088998691 ], [ -104.930969254211504, 39.708914427768924 ], [ -104.930812347453127, 39.708868026085995 ], [ -104.930253653576614, 39.708729429449861 ], [ -104.929556784864388, 39.708587740825131 ], [ -104.926993100457565, 39.708119014469858 ], [ -104.926992263822953, 39.708058961349387 ], [ -104.929556473854603, 39.708517843946247 ], [ -104.929547121969875, 39.706419611744607 ], [ -104.929129887646724, 39.706417394582971 ], [ -104.929128065384816, 39.706793735860273 ], [ -104.92829737831596, 39.706792204903948 ], [ -104.928297510653181, 39.706698533684865 ], [ -104.926995692338963, 39.706706094445089 ], [ -104.927001288280962, 39.703852013969353 ], [ -104.930182973765838, 39.703864736820528 ], [ -104.931714808685285, 39.703864943025131 ], [ -104.931717461786349, 39.703208483922346 ], [ -104.931722287677005, 39.702063709579036 ], [ -104.932892535164726, 39.702054602377451 ], [ -104.932866550050107, 39.703621022669516 ], [ -104.933302443571534, 39.703777548304124 ], [ -104.934055129268145, 39.703765727625871 ], [ -104.934062781189738, 39.702045482625145 ], [ -104.934063317367062, 39.701317979860633 ], [ -104.932893080715459, 39.70132744096982 ], [ -104.932893309311112, 39.700309958462817 ], [ -104.931730152492449, 39.700324932686975 ], [ -104.931733977401166, 39.700230854886861 ] ] ] ] } },
{ "type": "Feature", "properties": { "COUNTY": "Arapahoe", "GLOBALID": "{7f00e8e3-0e07-44e5-aa04-c136302d1219}", "Shape__Are": 47175.7666016, "Shape__Len": 975.31274422299998 }, "geometry": { "type": "MultiPolygon", "coordinates": [ [ [ [ -104.928308781621183, 39.701280192814458 ], [ -104.929322578132897, 39.701278595598723 ], [ -104.929320802429388, 39.702043503735624 ], [ -104.92919191790898, 39.702049398372743 ], [ -104.929033815420098, 39.701934013290234 ], [ -104.92865253975269, 39.701619194374267 ], [ -104.928308781621183, 39.701280192814458 ] ] ] ] } },
{ "type": "Feature", "properties": { "COUNTY": "Denver", "GLOBALID": "{c0e05894-d605-4493-92ef-c91daf6058e2}", "Shape__Are": 432598.738281, "Shape__Len": 2635.9401071500001 }, "geometry": { "type": "MultiPolygon", "coordinates": [ [ [ [ -104.93407118444523, 39.699350652703799 ], [ -104.934075015146291, 39.700221854596357 ], [ -104.932902596039824, 39.700227915005854 ], [ -104.931733977401166, 39.700230854886861 ], [ -104.931735932581958, 39.69884283414563 ], [ -104.931737502914245, 39.698429328002888 ], [ -104.932306101313955, 39.698432074180374 ], [ -104.932899649118184, 39.698426013853982 ], [ -104.934081130854992, 39.698406151769348 ], [ -104.93407118444523, 39.699350652703799 ] ] ] ] } },
{ "type": "Feature", "properties": { "COUNTY": "Denver", "GLOBALID": "{c6ee6f98-2d47-4aa5-a54e-7440e27f5b3b}", "Shape__Are": 4313638701.5, "Shape__Len": 854937.01820100006 }, "geometry": { "type": "MultiPolygon", "coordinates": [ [ [ [ -104.89733392377677, 39.696257630606858 ], [ -104.89789221968779, 39.695997176403345 ], [ -104.899060945113476, 39.695328358287952 ], [ -104.899465717201295, 39.695750254187757 ], [ -104.899542266271581, 39.695691757553988 ], [ -104.900417113449251, 39.696603601608203 ], [ -104.899796178486568, 39.697161238891226 ], [ -104.903518360327269, 39.698528514004281 ], [ -104.903518123256177, 39.696633463877554 ], [ -104.900113876760159, 39.692962114026635 ], [ -104.903520261434934, 39.692996227644166 ], [ -104.903522022301047, 39.689357403200468 ], [ -104.898801497067765, 39.68934578030737 ], [ -104.898805202970351, 39.690710634463734 ], [ -104.898142217583384, 39.690711706763715 ], [ -104.898807176713078, 39.691437422179064 ], [ -104.898811368741207, 39.692981145489199 ], [ -104.89418628373943, 39.692966146233772 ], [ -104.894093030141036, 39.692888726374775 ], [ -104.894081226331807, 39.689332894678238 ], [ -104.894068071601154, 39.685700608262167 ], [ -104.889337591557734, 39.685690707317107 ], [ -104.889318216721946, 39.682062718123547 ], [ -104.894055780982526, 39.682067896530967 ], [ -104.894068118252946, 39.678454872163321 ], [ -104.903540979251545, 39.678476408547709 ], [ -104.903525588976549, 39.682084263893827 ], [ -104.903524259246495, 39.684798442705826 ], [ -104.905112078441078, 39.685720318611267 ], [ -104.905191426925896, 39.68572072365091 ], [ -104.90518452920179, 39.683901190304063 ], [ -104.904613668382581, 39.68390143085503 ], [ -104.904607301447129, 39.682083911090515 ], [ -104.904601390680412, 39.68027847628219 ], [ -104.908104472434488, 39.680276317614386 ], [ -104.908102201982373, 39.679845807250409 ], [ -104.908058535672168, 39.67981313155051 ], [ -104.9069919083462, 39.679815272727396 ], [ -104.906994250985036, 39.67880225164518 ], [ -104.906125575916974, 39.67848661508252 ], [ -104.905796069694503, 39.678483919746455 ], [ -104.905648047410025, 39.678447483925154 ], [ -104.905505436314826, 39.678401119826098 ], [ -104.90536734766944, 39.678345170643794 ], [ -104.905236441386492, 39.678280337085127 ], [ -104.905113602792014, 39.678206963217704 ], [ -104.904999715988822, 39.678125398509088 ], [ -104.904895658090894, 39.678036677827166 ], [ -104.904848077356618, 39.677991139783551 ], [ -104.90354836671429, 39.676767678672753 ], [ -104.90355650598427, 39.674868626822047 ], [ -104.903553829141188, 39.671211465308474 ], [ -104.903550454120733, 39.667609625922822 ], [ -104.894104874917289, 39.667594216643209 ], [ -104.894030595151733, 39.667594142688124 ], [ -104.890229451939547, 39.664509671457871 ], [ -104.888361783616489, 39.665680096220306 ], [ -104.888856852315058, 39.665733458497286 ], [ -104.888897662827091, 39.665737788705137 ], [ -104.888937566097837, 39.665744859535778 ], [ -104.888976557478173, 39.66575467006524 ], [ -104.889014634107951, 39.665766879812466 ], [ -104.889050915501002, 39.665781824668947 ], [ -104.889085402939372, 39.66579882190738 ], [ -104.889118091681354, 39.66581855063739 ], [ -104.889148096780218, 39.665839983959678 ], [ -104.889164853325042, 39.665853109665072 ], [ -104.889678783162495, 39.666291606726887 ], [ -104.889747495919707, 39.666355449759884 ], [ -104.889809072312914, 39.666423374634704 ], [ -104.889862615023574, 39.666495372201162 ], [ -104.889901147702659, 39.666558031674768 ], [ -104.890468582263082, 39.66758533486626 ], [ -104.885174129340939, 39.667572440485721 ], [ -104.879535701082176, 39.663933975664946 ], [ -104.876221538767439, 39.663938536910997 ], [ -104.87610180768759, 39.664020947617708 ], [ -104.875991775977155, 39.664110961229198 ], [ -104.875892340533497, 39.664208236662482 ], [ -104.875803504679197, 39.664311746253702 ], [ -104.875727942035951, 39.664420816985881 ], [ -104.875663881150871, 39.664534409064764 ], [ -104.87561399027733, 39.664652194413335 ], [ -104.875576508012188, 39.664772791013192 ], [ -104.875553216089486, 39.664895177931413 ], [ -104.875544124585858, 39.665019016563313 ], [ -104.875545998865334, 39.665107562475079 ], [ -104.875543171261498, 39.665924979106236 ], [ -104.875446139187758, 39.667548686158234 ], [ -104.875388007062725, 39.668492439486137 ], [ -104.875390978119285, 39.668657863720995 ], [ -104.875413491321424, 39.668822702742688 ], [ -104.875446876381858, 39.668962895839726 ], [ -104.876275883019176, 39.670916158769117 ], [ -104.87632111392962, 39.671023122470359 ], [ -104.876378813266115, 39.671126721507413 ], [ -104.876448092812012, 39.671225921644137 ], [ -104.876528076416946, 39.671320034577796 ], [ -104.876618766052118, 39.671408709922957 ], [ -104.876718396552036, 39.671490569223813 ], [ -104.876751926393609, 39.671515111982274 ], [ -104.877238979116527, 39.671875619156417 ], [ -104.877469030554522, 39.672073127469758 ], [ -104.875446260172694, 39.672068373434257 ], [ -104.875429962129715, 39.674715711083856 ], [ -104.875429602486847, 39.674798056990902 ], [ -104.87542915807235, 39.674880367317805 ], [ -104.875304702902568, 39.674880150994689 ], [ -104.870749227280797, 39.674867970057392 ], [ -104.8659762292571, 39.670994658541737 ], [ -104.865956447795867, 39.667545277457897 ], [ -104.865994382756824, 39.663899946386998 ], [ -104.866032438251295, 39.660277738025009 ], [ -104.856671615395101, 39.660296096359104 ], [ -104.856489909928342, 39.660296472530341 ], [ -104.856424182831034, 39.66029783120684 ], [ -104.856324653309684, 39.66030586454368 ], [ -104.856225064344912, 39.660320759983449 ], [ -104.856128074672881, 39.660342195225162 ], [ -104.856034582459941, 39.660369820316426 ], [ -104.855943699632874, 39.66040364210847 ], [ -104.855857198641388, 39.660443662214512 ], [ -104.85577641729067, 39.660490260870937 ], [ -104.855601820374901, 39.660297831631013 ], [ -104.854933669525465, 39.660298977204185 ], [ -104.854236941218801, 39.660080764141838 ], [ -104.853073652567787, 39.659776855009412 ], [ -104.852017268334478, 39.659606390283521 ], [ -104.851693191970853, 39.6594584429739 ], [ -104.849255645804547, 39.659082509898681 ], [ -104.848882919243962, 39.659122997027843 ], [ -104.848686963644383, 39.659092466138425 ], [ -104.848635408668116, 39.659084432513311 ], [ -104.848637099324549, 39.657841063674582 ], [ -104.848562512358612, 39.657840650283639 ], [ -104.848568796119224, 39.657067862649626 ], [ -104.847260771946509, 39.657075704884093 ], [ -104.847932700186277, 39.656815876507544 ], [ -104.848631718149136, 39.656602183893831 ], [ -104.84930801335895, 39.656444980991886 ], [ -104.851396155461202, 39.655996331634789 ], [ -104.852314533859868, 39.655776618257285 ], [ -104.85320505020178, 39.65549600216341 ], [ -104.854059703944088, 39.655156158566591 ], [ -104.854874016422585, 39.654760147691654 ], [ -104.855171212191607, 39.654594997422521 ], [ -104.867171262384318, 39.647616961599958 ], [ -104.867673712425145, 39.647327970226854 ], [ -104.868206030190436, 39.647074141719344 ], [ -104.868764642684908, 39.64685716784102 ], [ -104.869117243872964, 39.646743413343216 ], [ -104.870072223021396, 39.646283195337965 ], [ -104.87119839419141, 39.646235690278068 ], [ -104.873051284996976, 39.645834812875471 ], [ -104.874076545126684, 39.645553384944691 ], [ -104.875065112828835, 39.645204151686286 ], [ -104.87558017460691, 39.644988973776996 ], [ -104.875564057532557, 39.645902755790289 ], [ -104.875460400202002, 39.65166887247269 ], [ -104.87669023237514, 39.65305632572052 ], [ -104.880101758308555, 39.653064271342053 ], [ -104.880249835700766, 39.645906024246564 ], [ -104.880342712132716, 39.641320959016689 ], [ -104.885094990298654, 39.638970483333296 ], [ -104.885102624003792, 39.638639584375312 ], [ -104.885184104050282, 39.631384867359564 ], [ -104.88526509407842, 39.62413482657314 ], [ -104.894650945277959, 39.624115249121395 ], [ -104.904048435881577, 39.624095229445821 ], [ -104.913416790403545, 39.624089460823846 ], [ -104.91332657674316, 39.631363876805153 ], [ -104.913237395190109, 39.638655708180387 ], [ -104.922505377369404, 39.645884678008912 ], [ -104.922506154564644, 39.645856047343173 ], [ -104.931883240991297, 39.645832136627767 ], [ -104.931722730146632, 39.653075207998057 ], [ -104.940706808247242, 39.653062032478658 ], [ -104.950088080835599, 39.653081398324709 ], [ -104.954974759982974, 39.653090957214921 ], [ -104.954408571038826, 39.655796623765347 ], [ -104.953572035027008, 39.655876391298406 ], [ -104.953583782659265, 39.656050311787872 ], [ -104.953810929832713, 39.656713592279701 ], [ -104.959463703747204, 39.656724871901389 ], [ -104.959452822323925, 39.660350425921642 ], [ -104.959449313106347, 39.66157265637851 ], [ -104.963056996083367, 39.661594276215368 ], [ -104.963088943909952, 39.661594467192728 ], [ -104.963095296513856, 39.660384376086732 ], [ -104.968837518024685, 39.660437667698517 ], [ -104.968814740847748, 39.665845368858527 ], [ -104.969974320839981, 39.665860921727287 ], [ -104.971144757147087, 39.66586379049393 ], [ -104.973510708836599, 39.665882072001658 ], [ -104.973500613273146, 39.667682293732035 ], [ -104.978195279629986, 39.667708202972506 ], [ -104.98760101717906, 39.667689344301749 ], [ -104.997015056740423, 39.667667152946173 ], [ -105.000180444952761, 39.667680714404867 ], [ -105.002676677653142, 39.666902244537035 ], [ -105.002764717505201, 39.666872073376339 ], [ -105.002990928445001, 39.666781402822494 ], [ -105.003205701174167, 39.666675587771309 ], [ -105.003408136737676, 39.666555991747877 ], [ -105.003596454254989, 39.666422951360985 ], [ -105.003633974545238, 39.666392223924277 ], [ -105.003695658575467, 39.666334488352462 ], [ -105.0037511506344, 39.666272954477648 ], [ -105.003798678107444, 39.666207953488538 ], [ -105.003839123121665, 39.666139831383738 ], [ -105.003871590441193, 39.666069277029514 ], [ -105.00389608108334, 39.66599697406749 ], [ -105.003912588110353, 39.66592291796961 ], [ -105.003920218447931, 39.665848483040172 ], [ -105.003919951146614, 39.665773329345434 ], [ -105.004724394217519, 39.66401661558762 ], [ -105.004886810132916, 39.663656463169282 ], [ -105.005064246940918, 39.663651468481895 ], [ -105.004974799715413, 39.661753494346044 ], [ -105.004963842980942, 39.661613673855676 ], [ -105.004944147969482, 39.661474427228079 ], [ -105.004915762554717, 39.661336078912697 ], [ -105.004878750916575, 39.661198954326451 ], [ -105.004833201742727, 39.661063373583701 ], [ -105.004779221210427, 39.660929655069303 ], [ -105.004716935354722, 39.660798110044709 ], [ -105.004646488858469, 39.660669048947788 ], [ -105.004568049776168, 39.660542772405805 ], [ -105.006399111928971, 39.660550681727187 ], [ -105.010908342996018, 39.660571862229816 ], [ -105.008201050219597, 39.664096284532256 ], [ -105.008131097668425, 39.664095953097394 ], [ -105.008083961275304, 39.664157311466582 ], [ -105.007814429060844, 39.664531277773676 ], [ -105.00769097566058, 39.664720327432555 ], [ -105.007574200354597, 39.664911893562092 ], [ -105.007464189230262, 39.665105837834489 ], [ -105.007361021430071, 39.665302015587237 ], [ -105.007264776093379, 39.665500283057455 ], [ -105.007175521880171, 39.665700495536818 ], [ -105.007162776990313, 39.665730530864415 ], [ -105.006617684764407, 39.66701279073142 ], [ -105.006331872218652, 39.667706825811749 ], [ -105.006370099015044, 39.667706987247925 ], [ -105.006365333359668, 39.674975656848012 ], [ -105.006366091626376, 39.676790448580611 ], [ -105.008703910846606, 39.676802731055687 ], [ -105.008703880705198, 39.678622228707091 ], [ -105.015714975145784, 39.678672915872419 ], [ -105.015719769235417, 39.675005674843881 ], [ -105.01572392634516, 39.667751397818954 ], [ -105.015834477330117, 39.660512464647468 ], [ -105.022811574894959, 39.660503613003918 ], [ -105.022844258849204, 39.656809185689546 ], [ -105.025185235603431, 39.656806121508666 ], [ -105.025362778578042, 39.656805887502138 ], [ -105.025362032745988, 39.656890541391796 ], [ -105.029888928839867, 39.65688671285308 ], [ -105.032671136582437, 39.656884253943502 ], [ -105.032575814788188, 39.65682445745044 ], [ -105.032486434865504, 39.656759408208842 ], [ -105.03240347921647, 39.656689459424456 ], [ -105.032327397448313, 39.656614988491889 ], [ -105.032258599370323, 39.65653639876772 ], [ -105.032197458531527, 39.656454113279409 ], [ -105.032144304040472, 39.656368578295002 ], [ -105.032171660196369, 39.653282525616163 ], [ -105.034625182874692, 39.653282284332569 ], [ -105.034657644729364, 39.645884600308484 ], [ -105.034369778075572, 39.645884348998365 ], [ -105.034371420721598, 39.645636589825365 ], [ -105.034426856031558, 39.645577782727109 ], [ -105.034445716529135, 39.643804015579434 ], [ -105.032760796343169, 39.643793552216685 ], [ -105.032794567796842, 39.642853405507132 ], [ -105.029990324638561, 39.642825751087564 ], [ -105.029994067850268, 39.642266398348234 ], [ -105.029891090426531, 39.642265986403743 ], [ -105.029914515709436, 39.640092443047322 ], [ -105.030017489946601, 39.640092854971556 ], [ -105.030046772337215, 39.638633391109963 ], [ -105.034711000931622, 39.63862749699522 ], [ -105.034758479995944, 39.633175913192026 ], [ -105.030069254925067, 39.633165832802796 ], [ -105.030069751224019, 39.633097219742353 ], [ -105.030068700728791, 39.633066889597622 ], [ -105.030060693793089, 39.633017205132674 ], [ -105.030045173239373, 39.632968595780952 ], [ -105.030022354711662, 39.63292173883395 ], [ -105.029992557697099, 39.632877285876958 ], [ -105.029848780720343, 39.632742651000342 ], [ -105.029799221218397, 39.632699519507192 ], [ -105.029756705270216, 39.632652106294977 ], [ -105.029721846844069, 39.632601093863435 ], [ -105.029695146551774, 39.632547218300545 ], [ -105.029676989404663, 39.632491256662988 ], [ -105.029667639062666, 39.632434016144089 ], [ -105.029667228601525, 39.632376321426932 ], [ -105.029108983324022, 39.632353920240547 ], [ -105.029028315533566, 39.632341052729139 ], [ -105.028949217046986, 39.632323290699446 ], [ -105.028872184524985, 39.632300746032598 ], [ -105.028797699284169, 39.632273560272651 ], [ -105.027393079662403, 39.631707258822821 ], [ -105.027373459750208, 39.631698996057708 ], [ -105.027244416202961, 39.631649171171212 ], [ -105.027111649903134, 39.631605586579568 ], [ -105.026975664102764, 39.631568405523517 ], [ -105.026836974995959, 39.631537771482449 ], [ -105.02669611060972, 39.631513800063679 ], [ -105.026553603803137, 39.631496580775774 ], [ -105.026409995732607, 39.631486181546215 ], [ -105.026265831253895, 39.631482639695761 ], [ -105.02619186707436, 39.631483479024801 ], [ -105.025410606900209, 39.63147971590957 ], [ -105.025411312322106, 39.631395304321707 ], [ -105.025435403762728, 39.628532238513813 ], [ -105.025692360096315, 39.628530436271134 ], [ -105.026377824869357, 39.628506876666869 ], [ -105.026925871057216, 39.628446285545778 ], [ -105.027464399060207, 39.628348935254579 ], [ -105.02799073504508, 39.628215840188673 ], [ -105.028498667809345, 39.6280476655256 ], [ -105.028887479628452, 39.627907498682248 ], [ -105.029323122745069, 39.627798056754095 ], [ -105.031106179552992, 39.627808274590578 ], [ -105.031621352841555, 39.627883768120398 ], [ -105.032395209769263, 39.628032699150275 ], [ -105.032946642095013, 39.628128578215481 ], [ -105.033501801603933, 39.628198043569093 ], [ -105.034805280216844, 39.628203539227748 ], [ -105.034809112369075, 39.627804434735992 ], [ -105.035804045443271, 39.627809980683374 ], [ -105.035915156309699, 39.627813924322105 ], [ -105.036025538457608, 39.627824505007702 ], [ -105.036134530734884, 39.627841659783876 ], [ -105.036241480408407, 39.627865285198212 ], [ -105.03634574431635, 39.627895239107623 ], [ -105.036446698167339, 39.627931343417337 ], [ -105.036543736569712, 39.62797337957705 ], [ -105.036636277636148, 39.628021096705368 ], [ -105.036723765336802, 39.628074207995766 ], [ -105.036812595372055, 39.628132563937967 ], [ -105.037394291184967, 39.627470319770808 ], [ -105.037542495442324, 39.62730719932194 ], [ -105.037695712453569, 39.627146872591766 ], [ -105.037853855395554, 39.626989432893495 ], [ -105.038016833977281, 39.626834969923571 ], [ -105.039487806316885, 39.627801279852683 ], [ -105.039561668168375, 39.627846172485135 ], [ -105.039638979464698, 39.627887446927659 ], [ -105.039719444225355, 39.627924943489163 ], [ -105.039802754701839, 39.627958520447173 ], [ -105.040041482248924, 39.6280459459566 ], [ -105.040121359859015, 39.627915554055086 ], [ -105.040221720811005, 39.627795349120163 ], [ -105.04026878011868, 39.627752510909289 ], [ -105.040661005926481, 39.628010159100185 ], [ -105.040939044582743, 39.62775705855001 ], [ -105.04134479864183, 39.62802358876241 ], [ -105.041730830986822, 39.627672174882022 ], [ -105.042298889890859, 39.628045312237326 ], [ -105.042800449781609, 39.627588720541809 ], [ -105.042937889050464, 39.627660744624912 ], [ -105.04307970046716, 39.627727509195367 ], [ -105.043225547263745, 39.627788854403541 ], [ -105.043375084421001, 39.627844634780431 ], [ -105.043527956339076, 39.627894719228536 ], [ -105.043683801520217, 39.627938987437496 ], [ -105.043842249039969, 39.627977335274807 ], [ -105.044002923223914, 39.628009672101925 ], [ -105.044165443654038, 39.628035919873774 ], [ -105.044140477471885, 39.631462869131951 ], [ -105.053315762972474, 39.63151167578652 ], [ -105.053245348180369, 39.638776987544816 ], [ -105.053351837050471, 39.638777840941373 ], [ -105.058819827340599, 39.638766649393538 ], [ -105.058760125562287, 39.638975760758441 ], [ -105.05918014334479, 39.638819733736163 ], [ -105.059348732481084, 39.638765742858197 ], [ -105.059458701783157, 39.638737888396889 ], [ -105.059570753244842, 39.6387155350372 ], [ -105.059684424982152, 39.638698775616383 ], [ -105.059799251776383, 39.638687677741011 ], [ -105.059914761550075, 39.638682288277764 ], [ -105.059068225505598, 39.638682132825778 ], [ -105.05984952268031, 39.634697432272738 ], [ -105.057070873329209, 39.631505462027377 ], [ -105.05344395501389, 39.629304681424443 ], [ -105.053461782271327, 39.627711776189827 ], [ -105.055790216936416, 39.626004407431779 ], [ -105.055819010195606, 39.624257778939771 ], [ -105.053493561756369, 39.624260588603903 ], [ -105.053526971375248, 39.62087329697431 ], [ -105.054339963411124, 39.62082870056873 ], [ -105.055359094410036, 39.621060770242757 ], [ -105.056282648561734, 39.621110589592121 ], [ -105.057253875762626, 39.620919335990742 ], [ -105.057395862481812, 39.620498109767155 ], [ -105.056498696034751, 39.619924377885162 ], [ -105.057130492389305, 39.619374254739121 ], [ -105.057096667881439, 39.619389913968803 ], [ -105.058170434977157, 39.617381794192077 ], [ -105.058108063827035, 39.614415236956432 ], [ -105.097019682719932, 39.614317833398097 ], [ -105.097039565454267, 39.618436868094385 ], [ -105.065084091848021, 39.618524426478494 ], [ -105.065100757528597, 39.620051648341004 ], [ -105.065671783260882, 39.620606903436212 ], [ -105.073656134308436, 39.623284404039431 ], [ -105.076125689944973, 39.624231227251983 ], [ -105.074527247953341, 39.624233683979696 ], [ -105.076282857626651, 39.625101043634324 ], [ -105.080241795049318, 39.62946700006119 ], [ -105.080962030863589, 39.631333668869907 ], [ -105.081577100512163, 39.631307378002823 ], [ -105.081576936991681, 39.631334830044416 ], [ -105.083722500933234, 39.631333873501355 ], [ -105.083743209568198, 39.630235804009274 ], [ -105.081700842789772, 39.630236786019807 ], [ -105.081757233312814, 39.627324844504301 ], [ -105.083822590310689, 39.627323943259874 ], [ -105.083799447019913, 39.628533880207861 ], [ -105.085589692737855, 39.628533345489444 ], [ -105.08563592120359, 39.626113128142613 ], [ -105.087400711857342, 39.62605276565391 ], [ -105.087393695486185, 39.627096663534395 ], [ -105.091173859130734, 39.627087229257 ], [ -105.091198403072752, 39.624207774536806 ], [ -105.100654736990123, 39.624229487516622 ], [ -105.107547144968166, 39.624213822223901 ], [ -105.107529262494097, 39.627096654553526 ], [ -105.10997710932152, 39.627089340748874 ], [ -105.109948079258047, 39.631454517441341 ], [ -105.10992421142366, 39.635077217023365 ], [ -105.100544949657461, 39.63509517277776 ], [ -105.091128452142499, 39.635088088847148 ], [ -105.091114929720234, 39.638708633490708 ], [ -105.081537862304202, 39.638716350861607 ], [ -105.081431367924708, 39.638716602034386 ], [ -105.081478906775445, 39.63624553861149 ], [ -105.081290469700633, 39.636174641090854 ], [ -105.080864858304736, 39.636151033800189 ], [ -105.080623398883432, 39.636166294812682 ], [ -105.080309208337027, 39.636215912341825 ], [ -105.079971513263345, 39.636639461740536 ], [ -105.079754779614547, 39.636684565940683 ], [ -105.079490380940115, 39.636732073373949 ], [ -105.079057594148892, 39.636714509123486 ], [ -105.07767934040146, 39.636461122755165 ], [ -105.077233383835676, 39.636416079777007 ], [ -105.076649424727307, 39.636430983344354 ], [ -105.075840228482178, 39.636526424579543 ], [ -105.075253018885277, 39.636515940221571 ], [ -105.074910724901187, 39.636623288602188 ], [ -105.074809095287904, 39.636688519205919 ], [ -105.074793446586639, 39.636624468393443 ], [ -105.074186317784466, 39.636758577842187 ], [ -105.073282401953179, 39.63655023859063 ], [ -105.073287296133515, 39.638653173007 ], [ -105.076919325696991, 39.638644810915181 ], [ -105.076920886922494, 39.639112236040013 ], [ -105.076917647836822, 39.639222165212161 ], [ -105.076905583936707, 39.639331727542086 ], [ -105.076884739674867, 39.639440498955729 ], [ -105.076855197932488, 39.639548058217805 ], [ -105.076817071832679, 39.639653992306208 ], [ -105.076770508274066, 39.639757890120499 ], [ -105.076746413875341, 39.639804714690285 ], [ -105.076111704678624, 39.640983543740575 ], [ -105.076073476940948, 39.641063152315674 ], [ -105.076041665199739, 39.641144431412762 ], [ -105.076016389013901, 39.64122707072552 ], [ -105.075997744666168, 39.641310756259912 ], [ -105.075985803992481, 39.641395171230528 ], [ -105.075980609732355, 39.641479994242452 ], [ -105.07597843482985, 39.641664640488194 ], [ -105.075974601450284, 39.641747119368844 ], [ -105.075963676569145, 39.641829218679874 ], [ -105.075945710128934, 39.641910573814748 ], [ -105.075920780011089, 39.64199082386952 ], [ -105.075888999010274, 39.642069614370008 ], [ -105.075850506696312, 39.642146594540336 ], [ -105.075805472871465, 39.642221423620676 ], [ -105.074579263247728, 39.644120918936501 ], [ -105.074517092537903, 39.644210136312417 ], [ -105.074447405419534, 39.644295969514566 ], [ -105.074370508246645, 39.644378040443755 ], [ -105.074286739896095, 39.644455988231442 ], [ -105.074196469437368, 39.644529469231557 ], [ -105.074100092621421, 39.644598159710299 ], [ -105.073998036529972, 39.644661757664501 ], [ -105.07389074908464, 39.644719983684695 ], [ -105.073778701382054, 39.644772580063304 ], [ -105.072609000687791, 39.645283694600224 ], [ -105.072536372237806, 39.645319311703517 ], [ -105.072468411192645, 39.645360065335311 ], [ -105.072405725597818, 39.645405592030919 ], [ -105.072348871339898, 39.645455484902691 ], [ -105.0722983567629, 39.645509300862209 ], [ -105.072254632187892, 39.645566559680837 ], [ -105.072218086373965, 39.645626751182263 ], [ -105.07218904533606, 39.645689337939857 ], [ -105.072167767634895, 39.64575376336564 ], [ -105.072154444370412, 39.645819452610752 ], [ -105.072149193301016, 39.645885821550714 ], [ -105.072147939562811, 39.645992553799005 ], [ -105.07204142803937, 39.645992837870921 ], [ -105.063246629589784, 39.646006139529092 ], [ -105.063205432842693, 39.649632345239837 ], [ -105.062616236655359, 39.649633318869427 ], [ -105.062615612830356, 39.649688207999681 ], [ -105.057100675997958, 39.64969717947433 ], [ -105.057082732606261, 39.651254736428626 ], [ -105.055633622736394, 39.651257048047306 ], [ -105.055634460405273, 39.65118451232938 ], [ -105.053603081263461, 39.651187723022844 ], [ -105.053732413383472, 39.651401838080901 ], [ -105.054200822665806, 39.651526249964284 ], [ -105.054300604320332, 39.651529853842895 ], [ -105.054399658145982, 39.651539821934797 ], [ -105.054497306468718, 39.651556085921449 ], [ -105.054592881202453, 39.651578535189955 ], [ -105.054685728514713, 39.6516070159498 ], [ -105.054775211138818, 39.651641333943481 ], [ -105.054860716546727, 39.651681251775365 ], [ -105.054941660380663, 39.65172649883187 ], [ -105.055017488834892, 39.651776763183939 ], [ -105.055087680916699, 39.65183170240379 ], [ -105.055151756631375, 39.651890939091935 ], [ -105.055209276936196, 39.651954068082318 ], [ -105.055241926865278, 39.651998915966203 ], [ -105.057074199725662, 39.651995392276639 ], [ -105.05706433404039, 39.652851632552483 ], [ -105.057890030636514, 39.652850035490033 ], [ -105.058043192244995, 39.652849738791829 ], [ -105.05805918083621, 39.651460251512553 ], [ -105.058236702397835, 39.651459907469672 ], [ -105.058239070369581, 39.651254071920121 ], [ -105.062012103491057, 39.651246686455586 ], [ -105.062008962116181, 39.651521131856363 ], [ -105.062594784650187, 39.65151997392055 ], [ -105.062608747201423, 39.650291987451503 ], [ -105.063897536432805, 39.65028985343789 ], [ -105.063905012633725, 39.649631184768964 ], [ -105.070843449685398, 39.649619450495173 ], [ -105.070838955894629, 39.650005319644251 ], [ -105.06992273775839, 39.649997057729635 ], [ -105.069704376487906, 39.650463914063003 ], [ -105.069176640596979, 39.651159422955907 ], [ -105.069130672464908, 39.651307514271295 ], [ -105.068216215511484, 39.652194085320488 ], [ -105.0680665279652, 39.652194342288531 ], [ -105.068062849421167, 39.652496120156215 ], [ -105.067500451093778, 39.652497081744542 ], [ -105.067491241277338, 39.653252329180624 ], [ -105.067264078379083, 39.653252724214823 ], [ -105.067278319669541, 39.656884779452021 ], [ -105.070165905810185, 39.656880618471426 ], [ -105.070167756835048, 39.657448566303685 ], [ -105.070110407146998, 39.657995891277373 ], [ -105.070059326425707, 39.659078667293798 ], [ -105.071981170467268, 39.659610895014019 ], [ -105.071982897323991, 39.66002919713668 ], [ -105.074331796540079, 39.659724982650403 ], [ -105.076681750535826, 39.659338452618719 ], [ -105.076683497941531, 39.6599151369739 ], [ -105.078200550671667, 39.660796078907232 ], [ -105.078922870209794, 39.661588370435958 ], [ -105.079223110767487, 39.662045902682372 ], [ -105.081388231434715, 39.662042737943047 ], [ -105.081398129909843, 39.667737743014648 ], [ -105.081408402609171, 39.670166429833593 ], [ -105.081298604647657, 39.670123996194498 ], [ -105.081109083280666, 39.670058465602636 ], [ -105.080916313662144, 39.669998859598763 ], [ -105.080720606358497, 39.669945274748855 ], [ -105.080522277824684, 39.669897796833162 ], [ -105.080321644560641, 39.669856503527946 ], [ -105.080119030131584, 39.669821459926865 ], [ -105.079914760485138, 39.669792722127205 ], [ -105.079703618343331, 39.66976979590023 ], [ -105.079491433669276, 39.669753607262408 ], [ -105.079278567536889, 39.669744183620914 ], [ -105.079207626224829, 39.669742586762581 ], [ -105.079244092244465, 39.669331785291739 ], [ -105.07874970980869, 39.669337530081407 ], [ -105.078612984686387, 39.66934083736875 ], [ -105.07847627588059, 39.669337154264227 ], [ -105.078340181219957, 39.669326497323134 ], [ -105.078205294863096, 39.669308911912758 ], [ -105.07669896656617, 39.669073246352283 ], [ -105.076700431478528, 39.669423519225397 ], [ -105.076013635983017, 39.669316063598494 ], [ -105.075931730885628, 39.670003988077234 ], [ -105.075315733264418, 39.67006772752805 ], [ -105.074962164757935, 39.67049567744256 ], [ -105.074514648065616, 39.670261895471484 ], [ -105.073029002659069, 39.669806740524145 ], [ -105.072753391174459, 39.669825279700071 ], [ -105.072545324644381, 39.669446298095018 ], [ -105.072005407652284, 39.669377525390594 ], [ -105.072001562339452, 39.667785465026157 ], [ -105.062622156528789, 39.667788598087405 ], [ -105.05324324490033, 39.667791044984568 ], [ -105.053244789979388, 39.675042781489431 ], [ -105.062617159544956, 39.67501264258734 ], [ -105.0626331345414, 39.679298740578524 ], [ -105.062163840117179, 39.678874149350506 ], [ -105.061418733511474, 39.678238850822147 ], [ -105.061015533679821, 39.678022777558219 ], [ -105.060343107318914, 39.67793624730254 ], [ -105.059351912930481, 39.678309416892873 ], [ -105.057802145407791, 39.678684456875118 ], [ -105.057804452748883, 39.679095339935913 ], [ -105.057802152353474, 39.682275500396806 ], [ -105.053245304505921, 39.682301156413921 ], [ -105.053243974315194, 39.689556296742211 ], [ -105.053240632151869, 39.696816253892031 ], [ -105.053259296424258, 39.70408787588493 ], [ -105.053274439962706, 39.711352403385341 ], [ -105.053291232657045, 39.718606961182402 ], [ -105.0532635668214, 39.725856292763346 ], [ -105.053252267437429, 39.733113684327527 ], [ -105.054429075563661, 39.733109721774561 ], [ -105.054426383682681, 39.733646588822872 ], [ -105.054678136813948, 39.733645973845597 ], [ -105.054678325694937, 39.733726466101686 ], [ -105.055013993407783, 39.733725646481183 ], [ -105.055017795418138, 39.733107413936416 ], [ -105.055606020032158, 39.733105748867757 ], [ -105.055596322176029, 39.734918814341029 ], [ -105.053242809288861, 39.734926632753627 ], [ -105.053214478955027, 39.740365044962687 ], [ -105.053230223163141, 39.747610416324612 ], [ -105.053245934268631, 39.754855796950103 ], [ -105.053254046846462, 39.762091791084963 ], [ -105.053251224796611, 39.769328901283757 ], [ -105.053252525994864, 39.776574430387889 ], [ -105.053254116737705, 39.78382070896506 ], [ -105.062670373644409, 39.783855687504698 ], [ -105.062662668449505, 39.788346614757543 ], [ -105.065005224206246, 39.788349734516409 ], [ -105.065001430099656, 39.790327138554787 ], [ -105.064414430755974, 39.790326282789977 ], [ -105.064412966043975, 39.791086764760706 ], [ -105.062656506864982, 39.79108418600827 ], [ -105.062657617853745, 39.790507852537601 ], [ -105.061796317699745, 39.790506646488687 ], [ -105.061465252439518, 39.79108250375139 ], [ -105.05325642954169, 39.791070596313624 ], [ -105.044047213090053, 39.791110232304923 ], [ -105.034656487710976, 39.791150036914289 ], [ -105.034667081108168, 39.792054063358492 ], [ -105.02996267901608, 39.79203828560064 ], [ -105.029953668458162, 39.791131861851717 ], [ -105.025252489634653, 39.791113502883682 ], [ -105.025274474641094, 39.79396459094086 ], [ -105.025043736061562, 39.794029801178155 ], [ -105.024900837613643, 39.794060929675055 ], [ -105.024808123232404, 39.794071834521333 ], [ -105.0247144806969, 39.794075841925363 ], [ -105.024620771938118, 39.794072914834622 ], [ -105.024527856124564, 39.794063079234135 ], [ -105.024436589648687, 39.794046425947549 ], [ -105.024347807463812, 39.794023107859822 ], [ -105.024262328920543, 39.7939933399404 ], [ -105.024180937942234, 39.793957395560511 ], [ -105.024104381875262, 39.793915603786026 ], [ -105.024033365644556, 39.793868350254066 ], [ -105.023938546720771, 39.793788101280057 ], [ -105.023810649149809, 39.793662834258967 ], [ -105.023754835454056, 39.793613248079119 ], [ -105.023693132422835, 39.793568005335402 ], [ -105.023626105835206, 39.793527519907585 ], [ -105.023554368459529, 39.793492162634386 ], [ -105.023478577736853, 39.793462258602808 ], [ -105.023399427651697, 39.79343808081088 ], [ -105.02331764405676, 39.793419851049634 ], [ -105.023233976531344, 39.793407735367332 ], [ -105.023149190191589, 39.793401846738313 ], [ -105.023064062243918, 39.793402236943422 ], [ -105.022979372597078, 39.793408903737138 ], [ -105.022897117409826, 39.793421549885068 ], [ -105.022816772831632, 39.79344011742883 ], [ -105.022739052176703, 39.793464439939775 ], [ -105.022664645743433, 39.793494302262083 ], [ -105.022594218498, 39.793529437801205 ], [ -105.022528392519945, 39.793569534757218 ], [ -105.022467756336013, 39.793614237062805 ], [ -105.022217116120714, 39.793817208361638 ], [ -105.022091429757083, 39.793946810816877 ], [ -105.022049574098389, 39.794002992327393 ], [ -105.022017533549544, 39.794059406400208 ], [ -105.02199167646468, 39.794117679298566 ], [ -105.021972181911039, 39.79417740735849 ], [ -105.02187144964617, 39.794481403170067 ], [ -105.021116424738196, 39.794286708103286 ], [ -105.021578640440083, 39.793220608887232 ], [ -105.020682320919931, 39.793026784137844 ], [ -105.020648919598727, 39.792980604802274 ], [ -105.020608958171408, 39.792937637513859 ], [ -105.020562951249246, 39.792898434662476 ], [ -105.020555376129565, 39.791095135799928 ], [ -105.01585807134903, 39.79107657336273 ], [ -105.006421250913775, 39.791052369726096 ], [ -104.996994640207049, 39.791025414362593 ], [ -104.993252326482491, 39.791032243853977 ], [ -104.993250430449081, 39.792048803963745 ], [ -104.990639462051874, 39.792053493836349 ], [ -104.99027303238222, 39.791524626552402 ], [ -104.990272825931982, 39.791037587929502 ], [ -104.987558119050007, 39.791042394307809 ], [ -104.986380691713066, 39.791044604229427 ], [ -104.986376176329046, 39.791874805960582 ], [ -104.985790804001027, 39.791876953710251 ], [ -104.985791925509389, 39.791671118348759 ], [ -104.985204884114466, 39.79167326849997 ], [ -104.985208302179331, 39.791046788375695 ], [ -104.978179918799199, 39.791059661023908 ], [ -104.978176432561241, 39.791883011602387 ], [ -104.977731726309713, 39.791882400180143 ], [ -104.977735128950926, 39.791059061829955 ], [ -104.97596709390487, 39.791056608592648 ], [ -104.975961261249751, 39.792428845888423 ], [ -104.973075400748272, 39.792424792305923 ], [ -104.973067119695685, 39.794120383502126 ], [ -104.974685842832869, 39.794131353879685 ], [ -104.974675408266862, 39.795716768457524 ], [ -104.97117101835714, 39.795692997369713 ], [ -104.971167983523813, 39.796151312695564 ], [ -104.971666068883366, 39.796154700199715 ], [ -104.971658612707458, 39.797279924015889 ], [ -104.971651701183262, 39.798322813459848 ], [ -104.968734254338699, 39.798302963931526 ], [ -104.96862798748522, 39.798302213421167 ], [ -104.968648219251591, 39.795669950441606 ], [ -104.968661887011905, 39.793223826051232 ], [ -104.968383747669122, 39.793215017853754 ], [ -104.968359555096157, 39.79327919142419 ], [ -104.96754340259838, 39.793278158349793 ], [ -104.967548662433927, 39.793247109370498 ], [ -104.967705036493342, 39.79281309211666 ], [ -104.967808970275826, 39.792612003174938 ], [ -104.967941706029293, 39.791843966141386 ], [ -104.968324740267235, 39.791844449594144 ], [ -104.968423919107977, 39.791738937360307 ], [ -104.968530474712665, 39.791637795912216 ], [ -104.968644086007117, 39.791541332708128 ], [ -104.968764407523025, 39.791449839784995 ], [ -104.968780046518177, 39.791438108981936 ], [ -104.968782659869433, 39.791046364134679 ], [ -104.96019891996086, 39.791031781916011 ], [ -104.959357495296231, 39.791671437786235 ], [ -104.955463997680312, 39.794631062979413 ], [ -104.949906734249211, 39.794627355064058 ], [ -104.940486306455369, 39.794602603809231 ], [ -104.940497153676816, 39.790979790343499 ], [ -104.931670939144922, 39.791022973708145 ], [ -104.926968343270872, 39.791045742497758 ], [ -104.926998034133518, 39.783782156283436 ], [ -104.922283733962942, 39.78380628642801 ], [ -104.912909164204095, 39.783826166261768 ], [ -104.903520623840166, 39.783829925765595 ], [ -104.9035436676036, 39.791122363207499 ], [ -104.903564671739915, 39.798400090020685 ], [ -104.901429868219424, 39.798398880244214 ], [ -104.901428156019875, 39.800210245475157 ], [ -104.899079813519066, 39.800208883333447 ], [ -104.899081586420806, 39.798397518136298 ], [ -104.89417524159407, 39.798394519313227 ], [ -104.884637461106266, 39.798389470402007 ], [ -104.884459381062996, 39.798389828644332 ], [ -104.88443766354618, 39.805674429807127 ], [ -104.88441588600422, 39.812821780426759 ], [ -104.875343090793749, 39.812836674545252 ], [ -104.866270945336623, 39.812851956894427 ], [ -104.866246247241904, 39.805702943905793 ], [ -104.866223036990618, 39.798416946935831 ], [ -104.866045132624564, 39.798417200824112 ], [ -104.856623919351023, 39.79838555866867 ], [ -104.847202534221651, 39.798352856549776 ], [ -104.837654035471502, 39.798278101869684 ], [ -104.828104073774995, 39.798201775600958 ], [ -104.819177969219879, 39.798258261004939 ], [ -104.809727827223085, 39.798313328837921 ], [ -104.800279168425888, 39.798312108427339 ], [ -104.790829878160409, 39.798310381065505 ], [ -104.790902676879085, 39.805585421351275 ], [ -104.790976812613735, 39.812860224762254 ], [ -104.790904051742842, 39.820102971206175 ], [ -104.790664918357706, 39.82725539699193 ], [ -104.790755569009008, 39.834534288398501 ], [ -104.790834898054754, 39.841809033929664 ], [ -104.781400516635969, 39.841788510922925 ], [ -104.771965487794873, 39.841766552224328 ], [ -104.762520328397272, 39.841793191062322 ], [ -104.762331600799939, 39.841793732816768 ], [ -104.762293374463582, 39.845403274072915 ], [ -104.730962805679198, 39.845201882045203 ], [ -104.730399713509911, 39.896137075997132 ], [ -104.703321651238284, 39.895956159801706 ], [ -104.70319584741064, 39.90693347513389 ], [ -104.692149134616486, 39.906857849044513 ], [ -104.692063960890309, 39.914184965339111 ], [ -104.687465212910254, 39.914157757938895 ], [ -104.679590420970953, 39.91411160140369 ], [ -104.679674203329995, 39.907014957955326 ], [ -104.668624526137478, 39.906898358099866 ], [ -104.659215475434365, 39.906792960695505 ], [ -104.649792477348214, 39.90675375409927 ], [ -104.640368633102952, 39.906713762415919 ], [ -104.630949810556942, 39.906652239094257 ], [ -104.630950689138544, 39.899402397696306 ], [ -104.621533161629173, 39.899345368962898 ], [ -104.61212203354286, 39.899203322991653 ], [ -104.602710591404659, 39.899061012474519 ], [ -104.599590945063866, 39.899044339434859 ], [ -104.599820004082559, 39.881313356514809 ], [ -104.605164803570958, 39.881353344350941 ], [ -104.605271411300976, 39.873120448368489 ], [ -104.619161897448265, 39.873226387305344 ], [ -104.619752273197648, 39.826862105864137 ], [ -104.619809431170978, 39.822347727266788 ], [ -104.64035481012057, 39.822501273290278 ], [ -104.655400027725122, 39.822611904708104 ], [ -104.65551590956305, 39.81300674346469 ], [ -104.666191603215509, 39.813081802448195 ], [ -104.666071714859157, 39.822797271034879 ], [ -104.76250991615187, 39.823447583547072 ], [ -104.762559526498464, 39.820119341782267 ], [ -104.762667262325081, 39.812862940851105 ], [ -104.762683478509885, 39.805585269885597 ], [ -104.762699945570631, 39.798338457718053 ], [ -104.753273173279553, 39.798375316055314 ], [ -104.743832776656831, 39.798348854517819 ], [ -104.734392350191257, 39.798322464649786 ], [ -104.734466322938232, 39.791058310151207 ], [ -104.734539987176362, 39.783775550656969 ], [ -104.734549382032228, 39.781600424784436 ], [ -104.734572725858229, 39.776501687396198 ], [ -104.734606090986958, 39.769223790249185 ], [ -104.74401532920561, 39.769261336930057 ], [ -104.753444363202291, 39.769289794226985 ], [ -104.762826297279787, 39.769208139534129 ], [ -104.764584675059496, 39.769192714106843 ], [ -104.764571078347927, 39.771572100310081 ], [ -104.772194329645288, 39.771504921889658 ], [ -104.772166805629269, 39.77641592898982 ], [ -104.781570308208103, 39.77644217322495 ], [ -104.781586600037613, 39.772801723407852 ], [ -104.790990166303033, 39.772832871289616 ], [ -104.800413812104537, 39.772835682491042 ], [ -104.809907632764904, 39.772837491453018 ], [ -104.819263676020753, 39.772819894935836 ], [ -104.828172606211112, 39.772793102137364 ], [ -104.828183373378835, 39.769164371153657 ], [ -104.832896171384931, 39.769179224464722 ], [ -104.83289181743794, 39.766375105919309 ], [ -104.83327933142435, 39.766475098733899 ], [ -104.833669312524435, 39.766569205690054 ], [ -104.834061611601641, 39.766657390794322 ], [ -104.834456077156887, 39.766739620743579 ], [ -104.834852557688436, 39.766815862236783 ], [ -104.835250900482464, 39.766886086471246 ], [ -104.835650952788683, 39.766950268248749 ], [ -104.836052558370653, 39.767008380551985 ], [ -104.836455565607082, 39.767060401795838 ], [ -104.836859817022614, 39.767106312165531 ], [ -104.837265158624547, 39.767146093669275 ], [ -104.837671432892009, 39.767179730999644 ], [ -104.847021459579025, 39.767881892802343 ], [ -104.856413745959898, 39.768586294265539 ], [ -104.856372739286172, 39.762011405909995 ], [ -104.85634801066476, 39.758133502483489 ], [ -104.855534028622415, 39.757807639353651 ], [ -104.85502577554189, 39.757932725671139 ], [ -104.854877912962422, 39.757848163893151 ], [ -104.854361241029252, 39.758068810984597 ], [ -104.853498659615411, 39.757626210200897 ], [ -104.853032716561202, 39.757488024803884 ], [ -104.852054193474473, 39.757323096663619 ], [ -104.850796352348283, 39.756749353431523 ], [ -104.84821766638153, 39.756425865978393 ], [ -104.848011756591362, 39.755455799922487 ], [ -104.847726389152101, 39.755245968866539 ], [ -104.846879038211611, 39.755244384399376 ], [ -104.84687322897571, 39.754730281517766 ], [ -104.856326364632721, 39.754738593668669 ], [ -104.865789005616222, 39.754753254611622 ], [ -104.875229728720086, 39.754750938791659 ], [ -104.879944389956975, 39.754750850327305 ], [ -104.879953971452977, 39.747459084504655 ], [ -104.88466733346948, 39.74746164332749 ], [ -104.884659511709501, 39.740163657005766 ], [ -104.88470980135682, 39.73285345799075 ], [ -104.884722738031158, 39.730574266661293 ], [ -104.884790046762134, 39.730464112557208 ], [ -104.884865318479299, 39.730357074986827 ], [ -104.884948311026037, 39.730253495830894 ], [ -104.885038757842594, 39.730153706934146 ], [ -104.88513637148138, 39.730058028322674 ], [ -104.885240837783257, 39.729966767272991 ], [ -104.885351821748941, 39.729880213839635 ], [ -104.885468968658387, 39.729798646265159 ], [ -104.885591904110441, 39.729722326477571 ], [ -104.886417993552413, 39.729238534927958 ], [ -104.886531061519776, 39.729155607497212 ], [ -104.885042796234472, 39.728149651032524 ], [ -104.88494018838206, 39.728076467061449 ], [ -104.884842797252162, 39.727999149100981 ], [ -104.884750902013309, 39.727917919291869 ], [ -104.884664765413177, 39.7278330095968 ], [ -104.882007317775688, 39.725063748473431 ], [ -104.88183357899473, 39.725162671562522 ], [ -104.881691217541999, 39.725240150000189 ], [ -104.881544411314692, 39.725312515111582 ], [ -104.881393468458995, 39.725379612681564 ], [ -104.881238703988529, 39.725441303843951 ], [ -104.881080444505287, 39.725497458801748 ], [ -104.880919022351605, 39.725547958597545 ], [ -104.880754773237385, 39.725592699605158 ], [ -104.875342424215106, 39.725582148182909 ], [ -104.875354062919925, 39.719233283068775 ], [ -104.87522958199628, 39.719233148012819 ], [ -104.875225031406487, 39.719152693990999 ], [ -104.875211298712244, 39.719072864014578 ], [ -104.875188491512787, 39.718994282830181 ], [ -104.87515678865104, 39.71891756385201 ], [ -104.875116436737997, 39.718843306441443 ], [ -104.875067751365904, 39.718772090509539 ], [ -104.875011114807236, 39.718704472902516 ], [ -104.87494696673987, 39.718640981047912 ], [ -104.874875810085882, 39.718582112085443 ], [ -104.874798199413164, 39.718528325600232 ], [ -104.874714743283619, 39.718480041834404 ], [ -104.874626091464819, 39.718437637116125 ], [ -104.874532937270843, 39.718401442971789 ], [ -104.874436008256865, 39.718371743374924 ], [ -104.874336062769487, 39.718348769324024 ], [ -104.874233880609339, 39.718332699693931 ], [ -104.874176848256297, 39.718326839029345 ], [ -104.874146293696697, 39.718324593175033 ], [ -104.87406123432612, 39.718321568227068 ], [ -104.870653262538127, 39.718320009795818 ], [ -104.870676391049571, 39.711061192137436 ], [ -104.870674278104488, 39.709934315024306 ], [ -104.865983891902786, 39.711058253320282 ], [ -104.865979052564683, 39.703947581935672 ], [ -104.86606210132453, 39.703904280107679 ], [ -104.866149038388244, 39.703865799886536 ], [ -104.866239394312359, 39.703832347695538 ], [ -104.86658873198202, 39.703715087385255 ], [ -104.866846788315968, 39.703631688104068 ], [ -104.867107683202633, 39.703553738332566 ], [ -104.867371226099678, 39.7034812964731 ], [ -104.868305254800902, 39.703235610962466 ], [ -104.868439956194123, 39.703189064059949 ], [ -104.868503171887554, 39.703158418668238 ], [ -104.868562396408038, 39.703123337502518 ], [ -104.868617112735606, 39.703084130334631 ], [ -104.868666838542083, 39.703041139548105 ], [ -104.868712309186265, 39.702993374727775 ], [ -104.868751608345889, 39.70294244774643 ], [ -104.868784371460904, 39.702888832220893 ], [ -104.868810292055244, 39.702833026398032 ], [ -104.869332150895076, 39.701514697256577 ], [ -104.869364304569672, 39.701442490605309 ], [ -104.869402756609006, 39.701372146129735 ], [ -104.8694473314888, 39.701303990736385 ], [ -104.869497818781454, 39.70123834303763 ], [ -104.86955829605013, 39.701171048354453 ], [ -104.869624991840581, 39.701107357332887 ], [ -104.869697549778436, 39.701047611218044 ], [ -104.869775577527335, 39.700992131246949 ], [ -104.869858656148693, 39.700941215096272 ], [ -104.869946340101862, 39.700895136882494 ], [ -104.87011095000139, 39.700815326133139 ], [ -104.870187970101995, 39.700781241043941 ], [ -104.870268275377768, 39.70075202644923 ], [ -104.870351348784823, 39.700727869621211 ], [ -104.8704366584155, 39.70070892532852 ], [ -104.870667279338363, 39.700665426571689 ], [ -104.870665358367674, 39.698376952174037 ], [ -104.869492665099202, 39.698376686433427 ], [ -104.868213393657726, 39.698376314743932 ], [ -104.868214470087452, 39.700188410956109 ], [ -104.867148861213792, 39.700190059990007 ], [ -104.867148336171056, 39.699284011571891 ], [ -104.865975375548842, 39.699285815231605 ], [ -104.865973220925056, 39.696565610352941 ], [ -104.875320667000068, 39.696562886490554 ], [ -104.875327390163349, 39.698441711240754 ], [ -104.87773757609115, 39.698443878845644 ], [ -104.877730623773601, 39.696564948883299 ], [ -104.884658444200909, 39.696570598942337 ], [ -104.894105351102638, 39.69660005520263 ], [ -104.894102337777653, 39.695873980983812 ], [ -104.894775562575248, 39.695876402054573 ], [ -104.894778582865499, 39.696602476255464 ], [ -104.896458226528708, 39.696608638953379 ], [ -104.896786787305146, 39.696609809563917 ], [ -104.896851804360935, 39.696606865416733 ], [ -104.896915832869539, 39.69659765992786 ], [ -104.896977866535011, 39.696582337454323 ], [ -104.897036930888305, 39.696561137992248 ], [ -104.897092097294461, 39.696534395446719 ], [ -104.897142498164087, 39.696502531404825 ], [ -104.897187341037608, 39.696466044398889 ], [ -104.89722592141004, 39.696425509971561 ], [ -104.897257632197579, 39.696381564511661 ], [ -104.89733392377677, 39.696257630606858 ] ], [ [ -104.928805591706734, 39.69842541714771 ], [ -104.928789991407243, 39.700233134671606 ], [ -104.92932397342571, 39.700232981743191 ], [ -104.931733977401166, 39.700230854886861 ], [ -104.931730152492449, 39.700324932686975 ], [ -104.932893309311112, 39.700309958462817 ], [ -104.932893080715459, 39.70132744096982 ], [ -104.934063317367062, 39.701317979860633 ], [ -104.934062782355767, 39.70204548263078 ], [ -104.934055129268145, 39.703765727625871 ], [ -104.933302443571534, 39.703777548304124 ], [ -104.932866550050107, 39.703621022669516 ], [ -104.932892535164726, 39.702054602377451 ], [ -104.931722287677005, 39.702063709579036 ], [ -104.931717461786349, 39.703208483922346 ], [ -104.931714808685285, 39.703864943025131 ], [ -104.930182973765838, 39.703864736820528 ], [ -104.927001288280962, 39.703852013969353 ], [ -104.926995692338963, 39.706706094445089 ], [ -104.928297510653181, 39.706698533684865 ], [ -104.92829737831596, 39.706792204903948 ], [ -104.929128065384816, 39.706793735860273 ], [ -104.929129887646724, 39.706417394582971 ], [ -104.929547121969875, 39.706419611744607 ], [ -104.929556473854603, 39.708517843946247 ], [ -104.926992263822953, 39.708058961349387 ], [ -104.926993100464941, 39.708119013569174 ], [ -104.929556786030474, 39.708587740830758 ], [ -104.930253653576614, 39.708729429449861 ], [ -104.930812346286984, 39.708868026080367 ], [ -104.930969254218809, 39.708914426868269 ], [ -104.931692581008932, 39.709133088998691 ], [ -104.931683945675417, 39.711101366778863 ], [ -104.940696437616452, 39.711082500758515 ], [ -104.940703576194352, 39.703819716483821 ], [ -104.940706787482299, 39.697735208725476 ], [ -104.940037752910882, 39.697738545060801 ], [ -104.940036197682488, 39.697933453049785 ], [ -104.938572855864138, 39.697939174947464 ], [ -104.938574151055519, 39.696666725664109 ], [ -104.939563002884498, 39.696664921398373 ], [ -104.939563718121533, 39.696575358941402 ], [ -104.940707822146834, 39.696576032187913 ], [ -104.940706432891275, 39.69476333704413 ], [ -104.940567080869457, 39.694763729797835 ], [ -104.940568409618521, 39.695407036064516 ], [ -104.939522670447147, 39.695409612477711 ], [ -104.939521163961956, 39.695113125665316 ], [ -104.939519402442016, 39.694766675202757 ], [ -104.936275045818761, 39.69477634870703 ], [ -104.936284620118442, 39.696589432246078 ], [ -104.936434889656809, 39.696588955461827 ], [ -104.936429635469707, 39.697848515962633 ], [ -104.935916063210115, 39.697849837466869 ], [ -104.935924651740734, 39.696590292038522 ], [ -104.934089929030037, 39.696596090920153 ], [ -104.931745184762605, 39.696603039258108 ], [ -104.928223325566961, 39.696611020955828 ], [ -104.928219162903844, 39.698430460131803 ], [ -104.928805591706734, 39.69842541714771 ] ], [ [ -104.929320802429388, 39.702043503735624 ], [ -104.929322578132897, 39.701278595598723 ], [ -104.928308780447836, 39.701280193709422 ], [ -104.928652539745343, 39.701619195274901 ], [ -104.929033815427402, 39.701934012389543 ], [ -104.92919191790898, 39.702049398372743 ], [ -104.929320802429388, 39.702043503735624 ] ], [ [ -104.902747187606749, 39.685719189395122 ], [ -104.898792693129124, 39.683420130522954 ], [ -104.898796169045113, 39.685710721023533 ], [ -104.902747187606749, 39.685719189395122 ] ], [ [ -104.91092997629795, 39.682081101451743 ], [ -104.910929638524095, 39.679898897527863 ], [ -104.908212605596788, 39.679889712854752 ], [ -104.908211124480928, 39.680276112322893 ], [ -104.908210995657868, 39.682082203317059 ], [ -104.91092997629795, 39.682081101451743 ] ], [ [ -105.064921427964023, 39.653782427053642 ], [ -105.064919357960505, 39.653256686078073 ], [ -105.063979960418152, 39.65325835300407 ], [ -105.063992672462561, 39.653784817135097 ], [ -105.064921427964023, 39.653782427053642 ] ], [ [ -105.063563097713413, 39.652900938939936 ], [ -105.06356953420368, 39.65186528321636 ], [ -105.062573366119111, 39.651861579585869 ], [ -105.062566914937861, 39.652897235256148 ], [ -105.063563097713413, 39.652900938939936 ] ], [ [ -105.081493464670658, 39.635695186881641 ], [ -105.08149755180834, 39.635009206513956 ], [ -105.080884193414235, 39.63500702015444 ], [ -105.08088010028662, 39.635693000501277 ], [ -105.081493464670658, 39.635695186881641 ] ], [ [ -104.925809294148891, 39.676566931523844 ], [ -104.925806086755514, 39.675824737463081 ], [ -104.925749197205235, 39.675824804557863 ], [ -104.925746836820991, 39.675267115866426 ], [ -104.927593967913324, 39.675264832025292 ], [ -104.927591701812204, 39.674833301403922 ], [ -104.929266686602574, 39.674831192425543 ], [ -104.930077499245797, 39.674830094672608 ], [ -104.926305909210981, 39.669401035032038 ], [ -104.925480061343222, 39.669397001659249 ], [ -104.925408675951928, 39.669396652746421 ], [ -104.925332204591228, 39.669396278926669 ], [ -104.925255028193732, 39.669393759738234 ], [ -104.925172244432375, 39.669384150666673 ], [ -104.925096830427222, 39.669368802272324 ], [ -104.925024438419086, 39.669347635658077 ], [ -104.924968668204727, 39.669327083526547 ], [ -104.925122534551733, 39.66895682389459 ], [ -104.925018732293893, 39.668848695685092 ], [ -104.924958535596986, 39.668656588366552 ], [ -104.924756241177107, 39.668465263765704 ], [ -104.924548806858894, 39.668381593626506 ], [ -104.924503185660896, 39.668363411158005 ], [ -104.924247079578734, 39.668269245872359 ], [ -104.923984494930792, 39.668186213396034 ], [ -104.92297537709176, 39.667908621175123 ], [ -104.922724281708511, 39.667839802219973 ], [ -104.922723888455693, 39.667668496357926 ], [ -104.921331402660286, 39.66767064403782 ], [ -104.921451812251561, 39.667792495779288 ], [ -104.920670814779413, 39.668244689964794 ], [ -104.920522341116921, 39.668090536767643 ], [ -104.921021005230045, 39.667803674429315 ], [ -104.920318457692531, 39.667093384545424 ], [ -104.920588622683468, 39.666946313856378 ], [ -104.922230606971681, 39.666953021613232 ], [ -104.922249728873297, 39.663766106221118 ], [ -104.922162956499605, 39.663735480839939 ], [ -104.922171064713709, 39.663721106718633 ], [ -104.92217968536194, 39.663698843138903 ], [ -104.922184759681343, 39.6636758766887 ], [ -104.922186279969168, 39.663652718930933 ], [ -104.922183363770415, 39.663629542966618 ], [ -104.922179938912976, 39.663614080841178 ], [ -104.922170350589738, 39.663592071815408 ], [ -104.922152820707311, 39.663564189880688 ], [ -104.921630194783361, 39.662973770600374 ], [ -104.921615242765114, 39.662956537690555 ], [ -104.921592423122206, 39.662923481203293 ], [ -104.921572284563609, 39.662889067031777 ], [ -104.921556596107493, 39.662853297578209 ], [ -104.921545349711195, 39.662816865447112 ], [ -104.921537668358155, 39.662779424956376 ], [ -104.921534424615373, 39.662742001800716 ], [ -104.921535621258428, 39.662704258229724 ], [ -104.921541260114338, 39.662666537421032 ], [ -104.921550442393709, 39.662629863556347 ], [ -104.921564064031116, 39.66259355740852 ], [ -104.921582113613681, 39.66255829625041 ], [ -104.921603703739237, 39.662524429690386 ], [ -104.921628832764767, 39.66249229818515 ], [ -104.921657498416053, 39.662461894515637 ], [ -104.921875873386526, 39.662255694885815 ], [ -104.921025821702486, 39.660344517546974 ], [ -104.918884886481294, 39.660344247828597 ], [ -104.918895443472039, 39.659927005508131 ], [ -104.918623714737777, 39.659928407084848 ], [ -104.918257296027491, 39.659353841105521 ], [ -104.917902865388029, 39.659155108950564 ], [ -104.917822466271971, 39.659320459669168 ], [ -104.916767412456196, 39.659016672579369 ], [ -104.916873090137742, 39.658801686625722 ], [ -104.91590759450655, 39.658514464067224 ], [ -104.915941979572693, 39.658437079569815 ], [ -104.916262724182005, 39.658094127374547 ], [ -104.916040322913531, 39.657502770242445 ], [ -104.916010069396975, 39.657510514620185 ], [ -104.915981607031739, 39.65751586390293 ], [ -104.915952283728032, 39.657518805813488 ], [ -104.915922968859974, 39.657520032811966 ], [ -104.915893670586541, 39.657519544938971 ], [ -104.91552163515982, 39.657517695391853 ], [ -104.91552127288746, 39.657134371453594 ], [ -104.915905577144841, 39.657155499478989 ], [ -104.916033501979598, 39.656934790823378 ], [ -104.916581871212131, 39.656125574119123 ], [ -104.915873006541602, 39.656054447793572 ], [ -104.915867239569934, 39.656107267255585 ], [ -104.915851536147997, 39.656180284337886 ], [ -104.915828739766013, 39.656251894383409 ], [ -104.915797081614912, 39.656322086794489 ], [ -104.915780810468135, 39.656356321974073 ], [ -104.915260177560043, 39.656179746708595 ], [ -104.913098880629008, 39.656187160758066 ], [ -104.913074772850621, 39.663138472021032 ], [ -104.915048525438351, 39.663146756606565 ], [ -104.915597285518899, 39.66325827351455 ], [ -104.915948891608664, 39.663477589263408 ], [ -104.915960339121312, 39.666158142463154 ], [ -104.916399021996796, 39.666160321306712 ], [ -104.916388017592524, 39.667591282318547 ], [ -104.917555339546709, 39.667590459200021 ], [ -104.917565656310344, 39.671219767111658 ], [ -104.917571175707096, 39.67298406917952 ], [ -104.91923637024405, 39.673890863259928 ], [ -104.919308046330983, 39.673923130105358 ], [ -104.919375345303891, 39.673947142871938 ], [ -104.919444464963959, 39.673966359346089 ], [ -104.919515395989379, 39.673980777677343 ], [ -104.919588144816473, 39.673990745565234 ], [ -104.919661824842933, 39.673995227326039 ], [ -104.91973554175209, 39.673995248046104 ], [ -104.91982793806703, 39.673991586966686 ], [ -104.919930061346051, 39.673993805855844 ], [ -104.920030345343022, 39.674003223899497 ], [ -104.920129685743532, 39.674019497849294 ], [ -104.920227194234883, 39.674041944197185 ], [ -104.920321098320329, 39.674071232435821 ], [ -104.920411400147927, 39.674106681653569 ], [ -104.920497210978453, 39.674147940707158 ], [ -104.92057852965246, 39.674195010501037 ], [ -104.920654482992262, 39.674247206711335 ], [ -104.921059500354019, 39.674568346726481 ], [ -104.92105724087196, 39.674842183115004 ], [ -104.922260727329927, 39.674840210874713 ], [ -104.922263724308905, 39.675561348742796 ], [ -104.922299350251421, 39.675585737367676 ], [ -104.922370563420984, 39.67562562987689 ], [ -104.922434218772935, 39.675653223965718 ], [ -104.922501272497144, 39.675675498959578 ], [ -104.922570982958661, 39.675692208921426 ], [ -104.922642578884691, 39.675703168117309 ], [ -104.922715268645248, 39.675708256466109 ], [ -104.922788248434998, 39.675707416878069 ], [ -104.922860709238179, 39.6757006588915 ], [ -104.922931851988821, 39.675688057846777 ], [ -104.923000887601418, 39.675669751283593 ], [ -104.923232657953506, 39.675581789438205 ], [ -104.923416968057907, 39.675485800607092 ], [ -104.923435433754406, 39.675474813447259 ], [ -104.923439980900582, 39.676569540594009 ], [ -104.92449141863321, 39.67656835509807 ], [ -104.924490749455444, 39.67620581972372 ], [ -104.924773825973944, 39.676143289606159 ], [ -104.924774702623466, 39.676349105850797 ], [ -104.925218685132151, 39.676348001540866 ], [ -104.925303036983351, 39.676347892414327 ], [ -104.925308808944919, 39.676732183895979 ], [ -104.925784464629331, 39.676731352957347 ], [ -104.925783724077263, 39.67656695975294 ], [ -104.925809294148891, 39.676566931523844 ] ], [ [ -104.930438418970056, 39.667576809897895 ], [ -104.93043817279748, 39.668482771915258 ], [ -104.92926588526727, 39.668484295193551 ], [ -104.929264684503622, 39.66939643118392 ], [ -104.928084378423733, 39.669398930622336 ], [ -104.92809140139866, 39.668972747679611 ], [ -104.927211312746721, 39.668971553750332 ], [ -104.929661334615403, 39.672388723875407 ], [ -104.930790116562306, 39.672394194908129 ], [ -104.930786694308608, 39.672816273253723 ], [ -104.931626889317172, 39.672814847835916 ], [ -104.931629510100564, 39.67336873515562 ], [ -104.933895308610417, 39.673353242409199 ], [ -104.933887817880063, 39.671198457078418 ], [ -104.933041426087357, 39.671199526408941 ], [ -104.933038419287527, 39.670581807738124 ], [ -104.931723994658014, 39.670583696878772 ], [ -104.931726989892596, 39.671201415582736 ], [ -104.931620412775246, 39.671201584857165 ], [ -104.9316162442869, 39.67029011083541 ], [ -104.931604477337729, 39.667575248481448 ], [ -104.930438418970056, 39.667576809897895 ] ], [ [ -104.903927053971429, 39.626835114110186 ], [ -104.90391929991749, 39.624192635443052 ], [ -104.902913768294212, 39.624187528876007 ], [ -104.902806219266282, 39.624310524692547 ], [ -104.903294544550889, 39.625960929946274 ], [ -104.903797474282158, 39.626834456560005 ], [ -104.903927053971429, 39.626835114110186 ] ] ] ] } }
]
}
