{
"type": "FeatureCollection",
"name": "Denver_Art_Cultural_Centers",
"crs": { "type": "name", "properties": { "name": "urn:ogc:def:crs:OGC:1.3:CRS84" } },
"features": [
{ "type": "Feature", "properties": { "Name": "Mizel Arts and Culture Center (MACC)", "Address": "350 S Dahlia St", "City": "Denver", "State": "CO", "Zip": 80246, "County": "Denver", "Latitude": 39.7099, "Longitude": -104.9306, "Phone": "(303) 316-6360", "Website": "https://www.jccdenver.org/macc/", "Facility_Type": "Arts & Culture Center", "Operator": "JCC Denver", "Amenities_Programs": "Theater performances; Art gallery (Mizel Gallery); Youth theater (Wolf Theatre Academy); Denver Children's Theatre; Film screenings; Cultural events; Educational programs" }, "geometry": { "type": "Point", "coordinates": [ -104.9306, 39.7099 ] } },
{ "type": "Feature", "properties": { "Name": "History Colorado Center", "Address": "1200 Broadway", "City": "Denver", "State": "CO", "Zip": 80203, "County": "Denver", "Latitude": 39.7358, "Longitude": -104.9871, "Phone": "(303) 447-8679", "Website": "https://www.historycolorado.org/history-colorado-center", "Facility_Type": "Museum", "Operator": "History Colorado", "Amenities_Programs": "History exhibits; Interactive youth exhibits; School field trips; Community events; Rotating galleries; Educational programs; Indoor play area for children" }, "geometry": { "type": "Point", "coordinates": [ -104.9871, 39.7358 ] } },
{ "type": "Feature", "properties": { "Name": "Su Teatro Cultural and Performing Arts Center", "Address": "721 Santa Fe Dr", "City": "Denver", "State": "CO", "Zip": 80204, "County": "Denver", "Latitude": 39.7277, "Longitude": -104.999, "Phone": "(303) 296-0219", "Website": "https://www.suteatro.org/", "Facility_Type": "Performing Arts / Cultural Center", "Operator": "Su Teatro", "Amenities_Programs": "Chicano/Latino theater productions; Youth theater internship program; After-school theater program; Community performances; Cultural events; WordFest literary events" }, "geometry": { "type": "Point", "coordinates": [ -104.999, 39.7277 ] } },
{ "type": "Feature", "properties": { "Name": "Museo de las Americas", "Address": "861 Santa Fe Dr", "City": "Denver", "State": "CO", "Zip": 80204, "County": "Denver", "Latitude": 39.7301, "Longitude": -104.9988, "Phone": "(303) 571-4401", "Website": "https://museo.org/", "Facility_Type": "Museum", "Operator": "Museo de las Americas", "Amenities_Programs": "Latin American art exhibits; Rotating exhibitions; Pre-Columbian to contemporary art; Cultural education; School programs" }, "geometry": { "type": "Point", "coordinates": [ -104.9988, 39.7301 ] } },
{ "type": "Feature", "properties": { "Name": "Denver Indian Center", "Address": "4407 Morrison Rd", "City": "Denver", "State": "CO", "Zip": 80219, "County": "Denver", "Latitude": 39.7026, "Longitude": -105.0456, "Phone": "(303) 936-2688", "Website": "https://www.denverindiancenter.org/", "Facility_Type": "Community / Cultural Center", "Operator": "Denver Indian Center Inc", "Amenities_Programs": "Cultural programming; Food bank; Workforce development; Youth programs; Community dinners; Social services; Bus assistance; Hygiene supplies" }, "geometry": { "type": "Point", "coordinates": [ -105.0456, 39.7026 ] } },
{ "type": "Feature", "properties": { "Name": "Blair-Caldwell African American Research Library", "Address": "2401 Welton St", "City": "Denver", "State": "CO", "Zip": 80205, "County": "Denver", "Latitude": 39.7524, "Longitude": -104.9816, "Phone": "(720) 865-2401", "Website": "https://www.denverlibrary.org/content/blair-caldwell-african-american-research-library", "Facility_Type": "Library / Cultural Center", "Operator": "Denver Public Library", "Amenities_Programs": "African American archives and research; Third-floor history exhibit; Community events; Youth programming; Computer access; Meeting rooms" }, "geometry": { "type": "Point", "coordinates": [ -104.9816, 39.7524 ] } },
{ "type": "Feature", "properties": { "Name": "CHAC Gallery and Cultural Center", "Address": "834 Santa Fe Dr", "City": "Denver", "State": "CO", "Zip": 80204, "County": "Denver", "Latitude": 39.7296, "Longitude": -104.9985, "Phone": "(720) 662-4822", "Website": "https://www.chacgallery.org/", "Facility_Type": "Gallery / Cultural Center", "Operator": "Chicano Humanities and Arts Council", "Amenities_Programs": "Chicano/a/x art gallery; Rotating exhibitions; First Friday events; Live music; Community cultural events; Annual heart fundraiser" }, "geometry": { "type": "Point", "coordinates": [ -104.9985, 39.7296 ] } },
{ "type": "Feature", "properties": { "Name": "Cleo Parker Robinson Dance", "Address": "2025 N Washington St", "City": "Denver", "State": "CO", "Zip": 80205, "County": "Denver", "Latitude": 39.7481, "Longitude": -104.9785, "Phone": "(303) 295-1759", "Website": "https://www.cleoparkerdance.org/", "Facility_Type": "Performing Arts / Cultural Center", "Operator": "Cleo Parker Robinson Dance Ensemble", "Amenities_Programs": "Dance classes (all ages); West African dance; Youth recreational dance; Dance intensives for teens; Professional dance company performances; Community events; Performing arts theater" }, "geometry": { "type": "Point", "coordinates": [ -104.9785, 39.7481 ] } },
{ "type": "Feature", "properties": { "Name": "RedLine Contemporary Art Center", "Address": "2350 Arapahoe St", "City": "Denver", "State": "CO", "Zip": 80205, "County": "Denver", "Latitude": 39.755, "Longitude": -104.9862, "Phone": "(720) 769-2390", "Website": "https://www.redlineart.org/", "Facility_Type": "Arts / Cultural Center", "Operator": "RedLine Contemporary Art Center", "Amenities_Programs": "Contemporary art exhibitions; Artist residencies; Community art programs; Art library (open to public); Youth education programs; Free admission" }, "geometry": { "type": "Point", "coordinates": [ -104.9862, 39.755 ] } },
{ "type": "Feature", "properties": { "Name": "Denver Performing Arts Complex (DPAC)", "Address": "1400 Curtis St", "City": "Denver", "State": "CO", "Zip": 80204, "County": "Denver", "Latitude": 39.7445, "Longitude": -104.9982, "Phone": "(720) 865-4200", "Website": "https://www.artscomplex.com/", "Facility_Type": "Performing Arts Complex", "Operator": "Arts & Venues Denver", "Amenities_Programs": "Broadway touring shows; Colorado Symphony; Colorado Ballet; Opera Colorado; Denver Center for the Performing Arts; Multiple theater venues (Buell Theatre; Ellie Caulkins Opera House; Boettcher Concert Hall; others); Youth education programs; Community events" }, "geometry": { "type": "Point", "coordinates": [ -104.9982, 39.7445 ] } },
{ "type": "Feature", "properties": { "Name": "Denver Center for the Performing Arts (DCPA)", "Address": "1101 13th St", "City": "Denver", "State": "CO", "Zip": 80204, "County": "Denver", "Latitude": 39.7453, "Longitude": -104.9993, "Phone": "(303) 893-4100", "Website": "https://www.denvercenter.org", "Facility_Type": "Performing Arts / Education", "Operator": "Denver Center for the Performing Arts", "Amenities_Programs": "Broadway touring productions; Theatre Company (Tony Award-winning); Cabaret; Theatre for Young Audiences (Pre-K through 3rd grade); Acting classes ages 3-17; Broadway Teen Master Classes; In-school workshops; Student matinees; Summer/winter/spring sessions; Community engagement" }, "geometry": { "type": "Point", "coordinates": [ -104.9993, 39.7453 ] } },
{ "type": "Feature", "properties": { "Name": "Denver Art Museum", "Address": "100 W 14th Ave Pkwy", "City": "Denver", "State": "CO", "Zip": 80204, "County": "Denver", "Latitude": 39.7372, "Longitude": -104.9893, "Phone": "(720) 865-5000", "Website": "https://denverartmuseum.org/", "Facility_Type": "Museum", "Operator": "Denver Art Museum", "Amenities_Programs": "Art exhibits (80000+ works); Indigenous art galleries; Western art; Interactive youth spaces; School programs; Free general admission for youth 18 and under; Rotating exhibitions" }, "geometry": { "type": "Point", "coordinates": [ -104.9893, 39.7372 ] } },
{ "type": "Feature", "properties": { "Name": "Denver Museum of Nature and Science", "Address": "2001 Colorado Blvd", "City": "Denver", "State": "CO", "Zip": 80205, "County": "Denver", "Latitude": 39.7475, "Longitude": -104.9428, "Phone": "(303) 370-6000", "Website": "https://www.dmns.org/", "Facility_Type": "Museum", "Operator": "Denver Museum of Nature & Science", "Amenities_Programs": "Natural history exhibits; Planetarium; IMAX theater; Wildlife dioramas; Dinosaur exhibits; Gems and minerals; Interactive youth exhibits; School field trips; Free days available" }, "geometry": { "type": "Point", "coordinates": [ -104.9428, 39.7475 ] } },
{ "type": "Feature", "properties": { "Name": "Children's Museum of Denver at Marsico Campus", "Address": "2121 Children's Museum Dr", "City": "Denver", "State": "CO", "Zip": 80211, "County": "Denver", "Latitude": 39.7486, "Longitude": -105.017, "Phone": "(303) 433-7444", "Website": "https://www.mychildsmuseum.org/", "Facility_Type": "Museum", "Operator": "Children's Museum of Denver", "Amenities_Programs": "Interactive exhibits for ages 0-8; Outdoor adventure area; Zip line; Bubble lab; Art studio; Teaching kitchen; Water play; Fire station exhibit; Outdoor playground (free after hours)" }, "geometry": { "type": "Point", "coordinates": [ -105.017, 39.7486 ] } },
{ "type": "Feature", "properties": { "Name": "Clyfford Still Museum", "Address": "1250 Bannock St", "City": "Denver", "State": "CO", "Zip": 80204, "County": "Denver", "Latitude": 39.7363, "Longitude": -104.9898, "Phone": "(720) 354-4880", "Website": "https://clyffordstillmuseum.org/", "Facility_Type": "Museum", "Operator": "Clyfford Still Museum", "Amenities_Programs": "Abstract expressionist art (95% of Still's works); Rotating exhibitions; Educational programs; School tours" }, "geometry": { "type": "Point", "coordinates": [ -104.9898, 39.7363 ] } },
{ "type": "Feature", "properties": { "Name": "Museum of Contemporary Art Denver (MCA)", "Address": "1485 Delgany St", "City": "Denver", "State": "CO", "Zip": 80202, "County": "Denver", "Latitude": 39.7523, "Longitude": -105.0042, "Phone": "(303) 298-7554", "Website": "https://mcadenver.org/", "Facility_Type": "Museum", "Operator": "MCA Denver", "Amenities_Programs": "Contemporary art exhibitions; Teen art workshops; Rooftop cafe; Gift shop; Rotating exhibitions; Community programs" }, "geometry": { "type": "Point", "coordinates": [ -105.0042, 39.7523 ] } },
{ "type": "Feature", "properties": { "Name": "Wings Over the Rockies Air and Space Museum", "Address": "7711 E Academy Blvd", "City": "Denver", "State": "CO", "Zip": 80230, "County": "Denver", "Latitude": 39.7209, "Longitude": -104.8955, "Phone": "(303) 360-5360", "Website": "https://wingsmuseum.org/", "Facility_Type": "Museum", "Operator": "Wings Over the Rockies", "Amenities_Programs": "Aircraft exhibits; Space exhibits; Flight simulators; STEM education programs; Youth camps; School field trips; Historic Lowry AFB hangar" }, "geometry": { "type": "Point", "coordinates": [ -104.8955, 39.7209 ] } },
{ "type": "Feature", "properties": { "Name": "Molly Brown House Museum", "Address": "1340 Pennsylvania St", "City": "Denver", "State": "CO", "Zip": 80203, "County": "Denver", "Latitude": 39.7375, "Longitude": -104.9807, "Phone": "(303) 832-4092", "Website": "https://mollybrown.org/", "Facility_Type": "Museum", "Operator": "Historic Denver Inc", "Amenities_Programs": "Guided tours; Self-guided tours; Victorian-era history; Women's history; Social justice history; School programs; Special events" }, "geometry": { "type": "Point", "coordinates": [ -104.9807, 39.7375 ] } },
{ "type": "Feature", "properties": { "Name": "Denver Botanic Gardens", "Address": "1007 York St", "City": "Denver", "State": "CO", "Zip": 80206, "County": "Denver", "Latitude": 39.7321, "Longitude": -104.9613, "Phone": "(720) 865-3500", "Website": "https://www.botanicgardens.org/", "Facility_Type": "Botanical Garden", "Operator": "Denver Botanic Gardens", "Amenities_Programs": "Botanical exhibits; Art installations; Concert series; Youth education programs; School field trips; Conservatories; Japanese garden; Community gardens program" }, "geometry": { "type": "Point", "coordinates": [ -104.9613, 39.7321 ] } }
]
}
