{
"type": "FeatureCollection",
"name": "Early_Childhood",
"crs": { "type": "name", "properties": { "name": "urn:ogc:def:crs:OGC:1.3:CRS84" } },
"features": [
{ "type": "Feature", "properties": { "Global_Site_ID": 124376, "Activity_Category": "Early Childhood", "Site_Name": "Escalante-Biggs Academy", "Address": "5300 Crown Blvd.", "City": "Denver", "State": "CO", "Zip": 80239, "Latitude": 39.79117538, "Longitude": -104.8233507, "Site_IDs": 132637, "Org_IDs": 38766, "Organization": "DPS Head Start", "Location_Type": "School (Denver Public Schools)", "DPS_School_Num": 179.0, "Programs": "Preschool Program", "Program_Count": true, "Program_Description": "The DPS Head Start program is part of the school district’s Early Education Department. DPS Head Start programs have committed to providing comprehensive child development services in accordance with the Head Start Performance Standards.", "Cost": "Free", "Scholarship_Available": true, "Open_Enrollment": true, "Registration_Process": "Your community's Head Start can help you with understanding local requirements for enrolling your child. They will answer questions, provide you with required forms, and tell you what documents you should bring with you to apply.Due to limited government funding, there are not enough spaces for all eligible children. If there is not a space for you and your child at this time, ask the program to put your family on the waiting list. ", "Registration_URL": "https://docs.google.com/forms/d/e/1FAIpQLSfNYhTPFPBmjsnuHKaPe180MHIe5MCWDdnRw0wqebrAcp1D7A/viewform", "Food_Provided": "Breakfast; Lunch; Yes - Snacks", "Transport_Available": false, "Time_Availability": "School Day", "Focus_Areas": "Academic", "Phone": "720-424-4645", "Email": "trina_watkins@dpsk12.net", "Website": "https://earlyeducation.dpsk12.org/about-headstart/" }, "geometry": { "type": "Point", "coordinates": [ -104.8233507, 39.79117538 ] } },
{ "type": "Feature", "properties": { "Global_Site_ID": 124503, "Activity_Category": "Early Childhood", "Site_Name": "McGlone Academy", "Address": "4500 Crown Blvd.", "City": "Denver", "State": "CO", "Zip": 80239, "Latitude": 39.78021949, "Longitude": -104.8378919, "Site_IDs": 133611, "Org_IDs": 38766, "Organization": "DPS Head Start", "Location_Type": "School (Denver Public Schools)", "DPS_School_Num": 299.0, "Programs": "Preschool Program", "Program_Count": true, "Program_Description": "The DPS Head Start program is part of the school district’s Early Education Department. DPS Head Start programs have committed to providing comprehensive child development services in accordance with the Head Start Performance Standards.", "Cost": "Free", "Scholarship_Available": true, "Open_Enrollment": true, "Registration_Process": "Your community's Head Start can help you with understanding local requirements for enrolling your child. They will answer questions, provide you with required forms, and tell you what documents you should bring with you to apply.Due to limited government funding, there are not enough spaces for all eligible children. If there is not a space for you and your child at this time, ask the program to put your family on the waiting list. ", "Registration_URL": "https://docs.google.com/forms/d/e/1FAIpQLSfNYhTPFPBmjsnuHKaPe180MHIe5MCWDdnRw0wqebrAcp1D7A/viewform", "Food_Provided": "Breakfast; Lunch; Yes - Snacks", "Transport_Available": false, "Time_Availability": "School Day", "Focus_Areas": "Academic", "Phone": "720-424-4645", "Email": "trina_watkins@dpsk12.net", "Website": "https://earlyeducation.dpsk12.org/about-headstart/" }, "geometry": { "type": "Point", "coordinates": [ -104.8378919, 39.78021949 ] } },
{ "type": "Feature", "properties": { "Global_Site_ID": 124518, "Activity_Category": "Early Childhood", "Site_Name": "Montclair Elementary School", "Address": "1151 Newport St.", "City": "Denver", "State": "CO", "Zip": 80220, "Latitude": 39.73368937, "Longitude": -104.9098442, "Site_IDs": 132646, "Org_IDs": 38766, "Organization": "DPS Head Start", "Location_Type": "School (Denver Public Schools)", "DPS_School_Num": 257.0, "Programs": "Preschool Program", "Program_Count": true, "Program_Description": "The DPS Head Start program is part of the school district’s Early Education Department. DPS Head Start programs have committed to providing comprehensive child development services in accordance with the Head Start Performance Standards.", "Cost": "Free", "Scholarship_Available": true, "Open_Enrollment": true, "Registration_Process": "Your community's Head Start can help you with understanding local requirements for enrolling your child. They will answer questions, provide you with required forms, and tell you what documents you should bring with you to apply.Due to limited government funding, there are not enough spaces for all eligible children. If there is not a space for you and your child at this time, ask the program to put your family on the waiting list. ", "Registration_URL": "https://docs.google.com/forms/d/e/1FAIpQLSfNYhTPFPBmjsnuHKaPe180MHIe5MCWDdnRw0wqebrAcp1D7A/viewform", "Food_Provided": "Breakfast; Lunch; Yes - Snacks", "Transport_Available": false, "Time_Availability": "School Day", "Focus_Areas": "Academic", "Phone": "720-424-4645", "Email": "trina_watkins@dpsk12.net", "Website": "https://earlyeducation.dpsk12.org/about-headstart/" }, "geometry": { "type": "Point", "coordinates": [ -104.9098442, 39.73368937 ] } },
{ "type": "Feature", "properties": { "Global_Site_ID": 124544, "Activity_Category": "Early Childhood", "Site_Name": "Northfield High School", "Address": "5500 Central Park Blvd.", "City": "Denver", "State": "CO", "Zip": 80239, "Latitude": 39.7969996, "Longitude": -104.882486, "Site_IDs": 150234, "Org_IDs": 42546, "Organization": "Whole Child Colorado, LLC", "Location_Type": "School (Denver Public Schools)", "DPS_School_Num": 519.0, "Programs": "School-Based Therapy", "Program_Count": true, "Program_Description": "School-based therapy provided to students at Northfield High School.", "Cost": "Free", "Scholarship_Available": true, "Open_Enrollment": true, "Registration_Process": null, "Registration_URL": null, "Food_Provided": "No", "Transport_Available": false, "Time_Availability": "By Request; School Day", "Focus_Areas": "Family Support", "Phone": "3035698109", "Email": "jamie@wholechildcolorado.org", "Website": "http://www.wholechildcolorado.org" }, "geometry": { "type": "Point", "coordinates": [ -104.882486, 39.7969996 ] } },
{ "type": "Feature", "properties": { "Global_Site_ID": 124607, "Activity_Category": "Early Childhood", "Site_Name": "Smith Elementary School", "Address": "3590 Jasmine St.", "City": "Denver", "State": "CO", "Zip": 80207, "Latitude": 39.76709567, "Longitude": -104.9184918, "Site_IDs": 132648, "Org_IDs": 38766, "Organization": "DPS Head Start", "Location_Type": "School (Denver Public Schools)", "DPS_School_Num": 275.0, "Programs": "Preschool Program", "Program_Count": true, "Program_Description": "The DPS Head Start program is part of the school district’s Early Education Department. DPS Head Start programs have committed to providing comprehensive child development services in accordance with the Head Start Performance Standards.", "Cost": "Free", "Scholarship_Available": true, "Open_Enrollment": true, "Registration_Process": "Your community's Head Start can help you with understanding local requirements for enrolling your child. They will answer questions, provide you with required forms, and tell you what documents you should bring with you to apply.Due to limited government funding, there are not enough spaces for all eligible children. If there is not a space for you and your child at this time, ask the program to put your family on the waiting list. ", "Registration_URL": "https://docs.google.com/forms/d/e/1FAIpQLSfNYhTPFPBmjsnuHKaPe180MHIe5MCWDdnRw0wqebrAcp1D7A/viewform", "Food_Provided": "Breakfast; Lunch; Yes - Snacks", "Transport_Available": false, "Time_Availability": "School Day", "Focus_Areas": "Academic", "Phone": "720-424-4645", "Email": "trina_watkins@dpsk12.net", "Website": "https://earlyeducation.dpsk12.org/about-headstart/" }, "geometry": { "type": "Point", "coordinates": [ -104.9184918, 39.76709567 ] } },
{ "type": "Feature", "properties": { "Global_Site_ID": 124670, "Activity_Category": "Early Childhood", "Site_Name": "Whittier Elementary School", "Address": "2480 Downing St.", "City": "Denver", "State": "CO", "Zip": 80210, "Latitude": 39.75299051, "Longitude": -104.9729849, "Site_IDs": 132650, "Org_IDs": 38766, "Organization": "DPS Head Start", "Location_Type": "School (Denver Public Schools)", "DPS_School_Num": 289.0, "Programs": "Preschool Program", "Program_Count": true, "Program_Description": "The DPS Head Start program is part of the school district’s Early Education Department. DPS Head Start programs have committed to providing comprehensive child development services in accordance with the Head Start Performance Standards.", "Cost": "Free", "Scholarship_Available": true, "Open_Enrollment": true, "Registration_Process": "Your community's Head Start can help you with understanding local requirements for enrolling your child. They will answer questions, provide you with required forms, and tell you what documents you should bring with you to apply.Due to limited government funding, there are not enough spaces for all eligible children. If there is not a space for you and your child at this time, ask the program to put your family on the waiting list. ", "Registration_URL": "https://docs.google.com/forms/d/e/1FAIpQLSfNYhTPFPBmjsnuHKaPe180MHIe5MCWDdnRw0wqebrAcp1D7A/viewform", "Food_Provided": "Breakfast; Lunch; Yes - Snacks", "Transport_Available": false, "Time_Availability": "School Day", "Focus_Areas": "Academic", "Phone": "720-424-4645", "Email": "trina_watkins@dpsk12.net", "Website": "https://earlyeducation.dpsk12.org/about-headstart/" }, "geometry": { "type": "Point", "coordinates": [ -104.9729849, 39.75299051 ] } },
{ "type": "Feature", "properties": { "Global_Site_ID": 137354, "Activity_Category": "Early Childhood", "Site_Name": "Catholic Charities ECE Programs at Quigg Newton", "Address": "4440 Navajo Street", "City": "Denver", "State": "CO", "Zip": 80211, "Latitude": 39.77814506, "Longitude": -105.0037698, "Site_IDs": 132333, "Org_IDs": 38500, "Organization": "Catholic Charities ECE Programs", "Location_Type": "School (Private or Non-DPS)", "DPS_School_Num": null, "Programs": "Catholic Charities ECE Programs", "Program_Count": true, "Program_Description": "Provides Early Head Start and Head Start services for children ages 6 weeks to 5 years. A 6.5 hour preschool option is available at no cost to families who qualify. Participates in DPP and UPK. Accepts CCAP.; Provides Early Head Start and Head Start services for children ages 6 weeks to 5 years. Unable to enroll school age children. A 6.5 hour preschool option is available at no cost to families who qualify.; Provides Head Start services for children ages 3 to 5 years. Unable to enroll school ag", "Cost": "Free and fee-based programs available", "Scholarship_Available": false, "Open_Enrollment": true, "Registration_Process": "In person registration by appointment only", "Registration_URL": null, "Food_Provided": "Breakfast; Lunch; Yes - Snacks", "Transport_Available": false, "Time_Availability": "After School; Before School; School Day; Summer", "Focus_Areas": "Academic", "Phone": "(720) 799-9280", "Email": "enrollment@ccdenver.org", "Website": "https://ccdenver.org/early-childhood-education/" }, "geometry": { "type": "Point", "coordinates": [ -105.0037698, 39.77814506 ] } },
{ "type": "Feature", "properties": { "Global_Site_ID": 137355, "Activity_Category": "Early Childhood", "Site_Name": "Catholic Charities ECE Programs at Mariposa", "Address": "1240 West 10th Avenue", "City": "Denver", "State": "CO", "Zip": 80204, "Latitude": 39.73195915, "Longitude": -105.0033077, "Site_IDs": 132332, "Org_IDs": 38500, "Organization": "Catholic Charities ECE Programs", "Location_Type": "School (Private or Non-DPS)", "DPS_School_Num": null, "Programs": "Catholic Charities ECE Programs", "Program_Count": true, "Program_Description": "Provides Early Head Start and Head Start services for children ages 6 weeks to 5 years. A 6.5 hour preschool option is available at no cost to families who qualify. Participates in DPP and UPK. Accepts CCAP.; Provides Early Head Start and Head Start services for children ages 6 weeks to 5 years. Unable to enroll school age children. A 6.5 hour preschool option is available at no cost to families who qualify.; Provides Head Start services for children ages 3 to 5 years. Unable to enroll school ag", "Cost": "Free and fee-based programs available", "Scholarship_Available": false, "Open_Enrollment": true, "Registration_Process": "In person registration by appointment only", "Registration_URL": null, "Food_Provided": "Breakfast; Lunch; Yes - Snacks", "Transport_Available": false, "Time_Availability": "After School; Before School; School Day; Summer", "Focus_Areas": "Academic", "Phone": "(720) 799-9280", "Email": "enrollment@ccdenver.org", "Website": "https://ccdenver.org/early-childhood-education/" }, "geometry": { "type": "Point", "coordinates": [ -105.0033077, 39.73195915 ] } },
{ "type": "Feature", "properties": { "Global_Site_ID": 137356, "Activity_Category": "Early Childhood", "Site_Name": "Catholic Charities ECE Programs at Margery Reed", "Address": "1128 28th Street", "City": "Denver", "State": "CO", "Zip": 80205, "Latitude": 39.75935162, "Longitude": -104.9821106, "Site_IDs": 132331, "Org_IDs": 38500, "Organization": "Catholic Charities ECE Programs", "Location_Type": "School (Private or Non-DPS)", "DPS_School_Num": null, "Programs": "Catholic Charities ECE Programs", "Program_Count": true, "Program_Description": "Provides Early Head Start and Head Start services for children ages 6 weeks to 5 years. A 6.5 hour preschool option is available at no cost to families who qualify. Participates in DPP and UPK. Accepts CCAP.; Provides Early Head Start and Head Start services for children ages 6 weeks to 5 years. Unable to enroll school age children. A 6.5 hour preschool option is available at no cost to families who qualify.; Provides Head Start services for children ages 3 to 5 years. Unable to enroll school ag", "Cost": "Free and fee-based programs available", "Scholarship_Available": false, "Open_Enrollment": true, "Registration_Process": "In person registration by appointment only", "Registration_URL": null, "Food_Provided": "Breakfast; Lunch; Yes - Snacks", "Transport_Available": false, "Time_Availability": "After School; Before School; School Day; Summer", "Focus_Areas": "Academic", "Phone": "(720) 799-9280", "Email": "enrollment@ccdenver.org", "Website": "https://ccdenver.org/early-childhood-education/" }, "geometry": { "type": "Point", "coordinates": [ -104.9821106, 39.75935162 ] } },
{ "type": "Feature", "properties": { "Global_Site_ID": 137357, "Activity_Category": "Early Childhood", "Site_Name": "Catholic Charities ECE Programs at Annunciation", "Address": "3536 N Lafayette Street", "City": "Denver", "State": "CO", "Zip": 80205, "Latitude": 39.76619531, "Longitude": -104.9705588, "Site_IDs": 132330, "Org_IDs": 38500, "Organization": "Catholic Charities ECE Programs", "Location_Type": "School (Private or Non-DPS)", "DPS_School_Num": null, "Programs": "Catholic Charities ECE Programs", "Program_Count": true, "Program_Description": "Provides Early Head Start and Head Start services for children ages 6 weeks to 5 years. A 6.5 hour preschool option is available at no cost to families who qualify. Participates in DPP and UPK. Accepts CCAP.; Provides Early Head Start and Head Start services for children ages 6 weeks to 5 years. Unable to enroll school age children. A 6.5 hour preschool option is available at no cost to families who qualify.; Provides Head Start services for children ages 3 to 5 years. Unable to enroll school ag", "Cost": "Free and fee-based programs available", "Scholarship_Available": false, "Open_Enrollment": true, "Registration_Process": "In person registration by appointment only", "Registration_URL": null, "Food_Provided": "Breakfast; Lunch; Yes - Snacks", "Transport_Available": false, "Time_Availability": "After School; Before School; School Day; Summer", "Focus_Areas": "Academic", "Phone": "(720) 799-9280", "Email": "enrollment@ccdenver.org", "Website": "https://ccdenver.org/early-childhood-education/" }, "geometry": { "type": "Point", "coordinates": [ -104.9705588, 39.76619531 ] } },
{ "type": "Feature", "properties": { "Global_Site_ID": 137358, "Activity_Category": "Early Childhood", "Site_Name": "Catholic Charities ECE Programs at Child Development Center", "Address": "1155 Decatur Street", "City": "Denver", "State": "CO", "Zip": 80204, "Latitude": 39.73516961, "Longitude": -105.0225896, "Site_IDs": 132326, "Org_IDs": 38500, "Organization": "Catholic Charities ECE Programs", "Location_Type": "School (Private or Non-DPS)", "DPS_School_Num": null, "Programs": "Catholic Charities ECE Programs", "Program_Count": true, "Program_Description": "Provides Early Head Start and Head Start services for children ages 6 weeks to 5 years. A 6.5 hour preschool option is available at no cost to families who qualify. Participates in DPP and UPK. Accepts CCAP.; Provides Early Head Start and Head Start services for children ages 6 weeks to 5 years. Unable to enroll school age children. A 6.5 hour preschool option is available at no cost to families who qualify.; Provides Head Start services for children ages 3 to 5 years. Unable to enroll school ag", "Cost": "Free and fee-based programs available", "Scholarship_Available": false, "Open_Enrollment": true, "Registration_Process": "In person registration by appointment only", "Registration_URL": null, "Food_Provided": "Breakfast; Lunch; Yes - Snacks", "Transport_Available": false, "Time_Availability": "After School; Before School; School Day; Summer", "Focus_Areas": "Academic", "Phone": "(720) 799-9280", "Email": "enrollment@ccdenver.org", "Website": "https://ccdenver.org/early-childhood-education/" }, "geometry": { "type": "Point", "coordinates": [ -105.0225896, 39.73516961 ] } },
{ "type": "Feature", "properties": { "Global_Site_ID": 137360, "Activity_Category": "Early Childhood", "Site_Name": "Catholic Charities ECE Programs at Garfield", "Address": "872 South Knox Court", "City": "Denver", "State": "CO", "Zip": 80219, "Latitude": 39.70093651, "Longitude": -105.0322013, "Site_IDs": 132328, "Org_IDs": 38500, "Organization": "Catholic Charities ECE Programs", "Location_Type": "School (Private or Non-DPS)", "DPS_School_Num": null, "Programs": "Catholic Charities ECE Programs", "Program_Count": true, "Program_Description": "Provides Early Head Start and Head Start services for children ages 6 weeks to 5 years. A 6.5 hour preschool option is available at no cost to families who qualify. Participates in DPP and UPK. Accepts CCAP.; Provides Early Head Start and Head Start services for children ages 6 weeks to 5 years. Unable to enroll school age children. A 6.5 hour preschool option is available at no cost to families who qualify.; Provides Head Start services for children ages 3 to 5 years. Unable to enroll school ag", "Cost": "Free and fee-based programs available", "Scholarship_Available": false, "Open_Enrollment": true, "Registration_Process": "In person registration by appointment only", "Registration_URL": null, "Food_Provided": "Breakfast; Lunch; Yes - Snacks", "Transport_Available": false, "Time_Availability": "After School; Before School; School Day; Summer", "Focus_Areas": "Academic", "Phone": "(720) 799-9280", "Email": "enrollment@ccdenver.org", "Website": "https://ccdenver.org/early-childhood-education/" }, "geometry": { "type": "Point", "coordinates": [ -105.0322013, 39.70093651 ] } },
{ "type": "Feature", "properties": { "Global_Site_ID": 137361, "Activity_Category": "Early Childhood", "Site_Name": "Catholic Charities ECE Programs at Kentucky", "Address": "852 S. Knox Court", "City": "Denver", "State": "CO", "Zip": 80219, "Latitude": 39.7012368, "Longitude": -105.0322067, "Site_IDs": 132329, "Org_IDs": 38500, "Organization": "Catholic Charities ECE Programs", "Location_Type": "School (Private or Non-DPS)", "DPS_School_Num": null, "Programs": "Catholic Charities ECE Programs", "Program_Count": true, "Program_Description": "Provides Early Head Start and Head Start services for children ages 6 weeks to 5 years. A 6.5 hour preschool option is available at no cost to families who qualify. Participates in DPP and UPK. Accepts CCAP.; Provides Early Head Start and Head Start services for children ages 6 weeks to 5 years. Unable to enroll school age children. A 6.5 hour preschool option is available at no cost to families who qualify.; Provides Head Start services for children ages 3 to 5 years. Unable to enroll school ag", "Cost": "Free and fee-based programs available", "Scholarship_Available": false, "Open_Enrollment": true, "Registration_Process": "In person registration by appointment only", "Registration_URL": null, "Food_Provided": "Breakfast; Lunch; Yes - Snacks", "Transport_Available": false, "Time_Availability": "After School; Before School; School Day; Summer", "Focus_Areas": "Academic", "Phone": "(720) 799-9280", "Email": "enrollment@ccdenver.org", "Website": "https://ccdenver.org/early-childhood-education/" }, "geometry": { "type": "Point", "coordinates": [ -105.0322067, 39.7012368 ] } }
]
}
