{
"type": "FeatureCollection",
"name": "Farmers_Markets",
"crs": { "type": "name", "properties": { "name": "urn:ogc:def:crs:OGC:1.3:CRS84" } },
"features": [
{ "type": "Feature", "properties": { "NAME": "Harvey Park Farmer's Market", "LOCATION_G": "In the parking lot of the Kunsmiller Creative Arts Academy", "ADDRESS_FU": "2250 South Quitman St Denver, CO 80219", "ADDRESS": "2250 South Quitman Street", "CITY": "Denver", "ZIP": 80219, "LAT": 39.67584819, "LONG": -105.04054331, "TYPE": "Farmers' Market", "STATUS": "Active (June-October)", "SNAP": "Yes", "DOUBLE_UP_": "Yes", "GlobalID": "aae9b39a-9e6d-44e5-807c-3a5e3d03dd28" }, "geometry": { "type": "Point", "coordinates": [ -105.040553331074378, 39.675854625817479 ] } },
{ "type": "Feature", "properties": { "NAME": "S. Pearl St. Farmers Market", "LOCATION_G": "South Pearl Street Between East Iowa Avenue and East Arkansas Avenue", "ADDRESS_FU": "1527 S Pearl St Denver, CO 80210", "ADDRESS": "1527 S Pearl St", "CITY": "Denver", "ZIP": 80210, "LAT": 39.68884701, "LONG": -104.98063998000001, "TYPE": "Farmers' Market", "STATUS": "Active (June-October)", "SNAP": "Yes", "DOUBLE_UP_": "No", "GlobalID": "126456d4-9319-46fd-8f49-2fbd419a6012" }, "geometry": { "type": "Point", "coordinates": [ -104.980649983172142, 39.688853455889941 ] } },
{ "type": "Feature", "properties": { "NAME": "Central Park Farmers Market", "LOCATION_G": "Founders Green at Central Park, on Syracuse Street and 29th Avenue", "ADDRESS_FU": "7601 29th Ave Denver, CO 80238", "ADDRESS": "7601 29th Ave", "CITY": "Denver", "ZIP": 80238, "LAT": 39.758047, "LONG": -104.89922596, "TYPE": "Farmers' Market", "STATUS": "Active (June-October)", "SNAP": "No", "DOUBLE_UP_": "No", "GlobalID": "52c87206-96fb-47dd-8a7a-b883692dc3b8" }, "geometry": { "type": "Point", "coordinates": [ -104.899235959239974, 39.75805345880346 ] } },
{ "type": "Feature", "properties": { "NAME": "Union Station Farmers Market", "LOCATION_G": "Denver’s Union Station, at 17th Avenue and Wynkoop Street", "ADDRESS_FU": "1701 Wynkoop St Denver, CO 80202", "ADDRESS": "1701 Wynkoop St", "CITY": "Denver", "ZIP": 80202, "LAT": 39.75319326, "LONG": -105.00013882, "TYPE": "Farmers' Market", "STATUS": "Active (June-October)", "SNAP": "Yes", "DOUBLE_UP_": "No", "GlobalID": "4010a74d-cadd-4b15-9617-e6c8a7ecb5c8" }, "geometry": { "type": "Point", "coordinates": [ -105.000148836307659, 39.753199713276395 ] } },
{ "type": "Feature", "properties": { "NAME": "Highlands Farmers Market", "LOCATION_G": "At 32nd Avenue and Lowell Boulevard", "ADDRESS_FU": "W 32nd Ave & Lowell Blvd Denver, CO 80211", "ADDRESS": "W 32nd Ave & Lowell Blvd", "CITY": "Denver", "ZIP": 80211, "LAT": 39.76209515, "LONG": -105.03462281, "TYPE": "Farmers' Market", "STATUS": "Active (June-October)", "SNAP": "No", "DOUBLE_UP_": "No", "GlobalID": "f7e1e0a8-5c42-4030-9bf2-eeb5b95d6954" }, "geometry": { "type": "Point", "coordinates": [ -105.034632840311872, 39.762101595863378 ] } },
{ "type": "Feature", "properties": { "NAME": "Huerta Urbana Market", "LOCATION_G": "Focus Points Family Resource Center", "ADDRESS_FU": "2501 E. 48th Ave Denver, CO 80216", "ADDRESS": "2501 E. 48th Ave", "CITY": "Denver", "ZIP": 80216, "LAT": 39.78402636, "LONG": -104.95691837, "TYPE": "Farmers' Market", "STATUS": "Active (June-October)", "SNAP": "Yes", "DOUBLE_UP_": "Yes", "GlobalID": "b42e6982-1459-4b76-90bd-e99578a74651" }, "geometry": { "type": "Point", "coordinates": [ -104.956928377482811, 39.784032817891521 ] } },
{ "type": "Feature", "properties": { "NAME": "City Park Farmers Market", "LOCATION_G": "<Null>", "ADDRESS_FU": "2551 E Colfax Ave Denver, CO 80206", "ADDRESS": "2551 E Colfax Ave", "CITY": "Denver", "ZIP": 80206, "LAT": 39.74039255, "LONG": -104.95660112, "TYPE": "Farmers' Market", "STATUS": "Active (June-October)", "SNAP": "Yes", "DOUBLE_UP_": "Yes", "GlobalID": "658880e0-2442-44ec-9927-9acf7472447f" }, "geometry": { "type": "Point", "coordinates": [ -104.956611128606639, 39.740399001658346 ] } },
{ "type": "Feature", "properties": { "NAME": "Green Valley Ranch", "LOCATION_G": "<Null>", "ADDRESS_FU": "4890 Argonne Way Denver, CO 80249", "ADDRESS": "4890 Argonne Way", "CITY": "Denver", "ZIP": 80249, "LAT": 39.78557283, "LONG": -104.76709638, "TYPE": "Farmers' Market", "STATUS": "Active (June-October)", "SNAP": "Yes", "DOUBLE_UP_": "No", "GlobalID": "d699c968-e183-4d89-a8e9-0ec944f6d562" }, "geometry": { "type": "Point", "coordinates": [ -104.767106345206798, 39.785579296600005 ] } },
{ "type": "Feature", "properties": { "NAME": "Mo' Betta Greens Marketplace (2 locations)", "LOCATION_G": "Charles Cousin Plaza (24th and Welton St)", "ADDRESS_FU": "24th St & Welton St Denver, CO 80205", "ADDRESS": "24th St & Welton St", "CITY": "Denver", "ZIP": 80205, "LAT": 39.75199244, "LONG": -104.98165329, "TYPE": "Farmers' Market", "STATUS": "Active (June-October)", "SNAP": "No", "DOUBLE_UP_": "No", "GlobalID": "5822111a-12cf-429a-a0c4-728948c507cb" }, "geometry": { "type": "Point", "coordinates": [ -104.981663303302994, 39.75199889032492 ] } },
{ "type": "Feature", "properties": { "NAME": "Cherry Creek Farmers Market", "LOCATION_G": "Cherry Creek Shopping Center at First Avenue and University Boulevard", "ADDRESS_FU": "100 S Steele St Denver, CO 80206", "ADDRESS": "100 S Steele St", "CITY": "Denver", "ZIP": 80206, "LAT": 39.71728238, "LONG": -104.95854504, "TYPE": "Farmers' Market", "STATUS": "Active (June-October)", "SNAP": "No", "DOUBLE_UP_": "No", "GlobalID": "085d3b22-8d68-412d-9d33-6cb22ed3583a" }, "geometry": { "type": "Point", "coordinates": [ -104.958555043160018, 39.71728882717445 ] } },
{ "type": "Feature", "properties": { "NAME": "University Hills Farmers Market", "LOCATION_G": "University Hills Plaza", "ADDRESS_FU": "2999 S Colorado Blvd Denver, CO 80222", "ADDRESS": "2999 S Colorado Blvd", "CITY": "Denver", "ZIP": 80222, "LAT": 39.66306322, "LONG": -104.94130619000001, "TYPE": "Farmers' Market", "STATUS": "Active (June-October)", "SNAP": "No", "DOUBLE_UP_": "No", "GlobalID": "b6da634f-8f58-4b0c-83dd-bbd8504f4cdb" }, "geometry": { "type": "Point", "coordinates": [ -104.941316186735648, 39.66306966341628 ] } },
{ "type": "Feature", "properties": { "NAME": "GoFarm Market - Juanita Nolasco Residences", "LOCATION_G": "<Null>", "ADDRESS_FU": "4550 West 9th Ave Denver, CO 80204", "ADDRESS": "4550 West 9th Ave", "CITY": "Denver", "ZIP": 80204, "LAT": 39.73090012, "LONG": -105.04579138, "TYPE": "Mobile Farmer's Market", "STATUS": "Active (June-October)", "SNAP": "Yes", "DOUBLE_UP_": "Yes", "GlobalID": "b90380da-38d4-442e-884c-f4150f028a0b" }, "geometry": { "type": "Point", "coordinates": [ -105.045801401906829, 39.730906562841497 ] } }
]
}
