{
"type": "FeatureCollection",
"name": "Federally_Qualified_Health_Centers",
"crs": { "type": "name", "properties": { "name": "urn:ogc:def:crs:OGC:1.3:CRS84" } },
"features": [
{ "type": "Feature", "properties": { "OBJECTID": 257, "Facility ID": "61002", "Facility Name": "INNER CITY HEALTH CENTER", "Facility Type Code": 211, "Facility Type": "All Other Factypes", "Map Symbol": "Federally Qualified Health Center", "Facility Type Detail": "FEDERALLY QHC", "Facility Type Abbreviation": "FQHC", "Licensed Beds Total": false, "Telephone": "Phone Number Not Avaliable", "County": "DENVER", "Address Full": "3800 YORK STREET, DENVER, CO 80205", "Latitude": 39.76936, "Longitude": -104.959679, "CDPHE HFEMS Licensed": "HCPF Certified", "Operating Status": "Active", "Date Data Updated": "2025-10-27T07:00:00Z", "Source": "CDPHE Health Facilities and Emergency Medical Services Division", "GlobalID": "2d376e38-99ea-4607-8d95-a91fef0f28a8", "x": 3151888.497, "y": 1705569.094 }, "geometry": { "type": "Point", "coordinates": [ -104.959679, 39.76936 ] } },
{ "type": "Feature", "properties": { "OBJECTID": 523, "Facility ID": "CO061922", "Facility Name": "WEST END HEALTH CENTER", "Facility Type Code": 211, "Facility Type": "All Other Factypes", "Map Symbol": "Federally Qualified Health Center", "Facility Type Detail": "FEDERALLY QHC", "Facility Type Abbreviation": "FQHC", "Licensed Beds Total": false, "Telephone": "(303) 312-9750", "County": "DENVER", "Address Full": "5050 WEST COLFAX AVENUE, DENVER, CO 80204", "Latitude": 39.740269, "Longitude": -105.051605, "CDPHE HFEMS Licensed": "HCPF Certified", "Operating Status": "Active", "Date Data Updated": "2025-10-27T07:00:00Z", "Source": "CDPHE Health Facilities and Emergency Medical Services Division", "GlobalID": "4ee7b8de-cc5a-43d2-a8f4-2df1be02b880", "x": 3126100.384, "y": 1694831.598 }, "geometry": { "type": "Point", "coordinates": [ -105.051605, 39.740269 ] } },
{ "type": "Feature", "properties": { "OBJECTID": 524, "Facility ID": "CO161931", "Facility Name": "SHERIDAN HEALTH SERVICES", "Facility Type Code": 211, "Facility Type": "All Other Factypes", "Map Symbol": "Federally Qualified Health Center", "Facility Type Detail": "FEDERALLY QHC", "Facility Type Abbreviation": "FQHC", "Licensed Beds Total": false, "Telephone": "(303) 797-4260", "County": "DENVER", "Address Full": "3525 WEST OXFORD AVENUE, UNIT G-3, DENVER, CO 80236", "Latitude": 39.642323, "Longitude": -105.033607, "CDPHE HFEMS Licensed": "HCPF Certified", "Operating Status": "Active", "Date Data Updated": "2025-10-27T07:00:00Z", "Source": "CDPHE Health Facilities and Emergency Medical Services Division", "GlobalID": "b64b2fb2-47f7-4baf-943b-bd1f06258391", "x": 3131344.903, "y": 1659179.484 }, "geometry": { "type": "Point", "coordinates": [ -105.033607, 39.642323 ] } },
{ "type": "Feature", "properties": { "OBJECTID": 525, "Facility ID": "CO3514", "Facility Name": "PARK HILL FAMILY HEALTH CENTER", "Facility Type Code": 211, "Facility Type": "All Other Factypes", "Map Symbol": "Federally Qualified Health Center", "Facility Type Detail": "FEDERALLY QHC", "Facility Type Abbreviation": "FQHC", "Licensed Beds Total": false, "Telephone": "(720) 956-2820", "County": "DENVER", "Address Full": "4995 EAST 33RD AVENUE, DENVER, CO 80207", "Latitude": 39.763851, "Longitude": -104.929466, "CDPHE HFEMS Licensed": "HCPF Certified", "Operating Status": "Active", "Date Data Updated": "2025-10-27T07:00:00Z", "Source": "CDPHE Health Facilities and Emergency Medical Services Division", "GlobalID": "c68230b0-c331-4210-8601-a70258fd5ec4", "x": 3160393.947, "y": 1703614.281 }, "geometry": { "type": "Point", "coordinates": [ -104.929466, 39.763851 ] } },
{ "type": "Feature", "properties": { "OBJECTID": 526, "Facility ID": "CO6DNX", "Facility Name": "WESTSIDE FAMILY HEALTH CENTER", "Facility Type Code": 211, "Facility Type": "All Other Factypes", "Map Symbol": "Federally Qualified Health Center", "Facility Type Detail": "FEDERALLY QHC", "Facility Type Abbreviation": "FQHC", "Licensed Beds Total": false, "Telephone": "(303) 436-4200", "County": "DENVER", "Address Full": "1100 FEDERAL BOULEVARD, DENVER, CO 80204", "Latitude": 39.734322, "Longitude": -105.024237, "CDPHE HFEMS Licensed": "HCPF Certified", "Operating Status": "Active", "Date Data Updated": "2025-10-27T07:00:00Z", "Source": "CDPHE Health Facilities and Emergency Medical Services Division", "GlobalID": "87e4506c-864e-4de9-95a7-a82d52b0994f", "x": 3133808.087, "y": 1692704.469 }, "geometry": { "type": "Point", "coordinates": [ -105.024237, 39.734322 ] } },
{ "type": "Feature", "properties": { "OBJECTID": 527, "Facility ID": "COED2O", "Facility Name": "MONTBELLO FAMILY HEALTH CENTER", "Facility Type Code": 211, "Facility Type": "All Other Factypes", "Map Symbol": "Federally Qualified Health Center", "Facility Type Detail": "FEDERALLY QHC", "Facility Type Abbreviation": "FQHC", "Licensed Beds Total": false, "Telephone": "(720) 956-2730", "County": "DENVER", "Address Full": "12600 EAST ALBROOK DRIVE, DENVER, CO 80239", "Latitude": 39.781475, "Longitude": -104.843605, "CDPHE HFEMS Licensed": "HCPF Certified", "Operating Status": "Active", "Date Data Updated": "2025-10-27T07:00:00Z", "Source": "CDPHE Health Facilities and Emergency Medical Services Division", "GlobalID": "c7f8b876-c22c-4a8c-99cf-dd932d82452a", "x": 3184484.809, "y": 1710197.065 }, "geometry": { "type": "Point", "coordinates": [ -104.843605, 39.781475 ] } },
{ "type": "Feature", "properties": { "OBJECTID": 528, "Facility ID": "COFZJO", "Facility Name": "WESTWOOD FAMILY HEALTH CENTER", "Facility Type Code": 211, "Facility Type": "All Other Factypes", "Map Symbol": "Federally Qualified Health Center", "Facility Type Detail": "FEDERALLY QHC", "Facility Type Abbreviation": "FQHC", "Licensed Beds Total": false, "Telephone": "(720) 956-2900", "County": "DENVER", "Address Full": "4320 WEST ALASKA PLACE, DENVER, CO 80219", "Latitude": 39.708885, "Longitude": -105.044014, "CDPHE HFEMS Licensed": "HCPF Certified", "Operating Status": "Active", "Date Data Updated": "2025-10-27T07:00:00Z", "Source": "CDPHE Health Facilities and Emergency Medical Services Division", "GlobalID": "7bb2cbce-6013-41ad-9e45-df66c2b8e7c3", "x": 3128292.488, "y": 1683410.215 }, "geometry": { "type": "Point", "coordinates": [ -105.044014, 39.708885 ] } },
{ "type": "Feature", "properties": { "OBJECTID": 529, "Facility ID": "COKKM5", "Facility Name": "C C H - STOUT STREET CLINIC", "Facility Type Code": 211, "Facility Type": "All Other Factypes", "Map Symbol": "Federally Qualified Health Center", "Facility Type Detail": "FEDERALLY QHC", "Facility Type Abbreviation": "FQHC", "Licensed Beds Total": false, "Telephone": "(303) 293-2220", "County": "DENVER", "Address Full": "2100 BROADWAY, DENVER, CO 80205", "Latitude": 39.750706, "Longitude": -104.987289, "CDPHE HFEMS Licensed": "HCPF Certified", "Operating Status": "Active", "Date Data Updated": "2025-10-27T07:00:00Z", "Source": "CDPHE Health Facilities and Emergency Medical Services Division", "GlobalID": "7f7ef006-fc81-4b81-b5fa-1b2808405be4", "x": 3144165.685, "y": 1698729.096 }, "geometry": { "type": "Point", "coordinates": [ -104.987289, 39.750706 ] } },
{ "type": "Feature", "properties": { "OBJECTID": 530, "Facility ID": "COM5DB", "Facility Name": "C C H - QUIGG NEWTON CLINIC", "Facility Type Code": 211, "Facility Type": "All Other Factypes", "Map Symbol": "Federally Qualified Health Center", "Facility Type Detail": "FEDERALLY QHC", "Facility Type Abbreviation": "FQHC", "Licensed Beds Total": false, "Telephone": "(303) 433-8180", "County": "DENVER", "Address Full": "4513 MARIPOSA WAY, DENVER, CO 80211", "Latitude": 39.779018, "Longitude": -105.002968, "CDPHE HFEMS Licensed": "HCPF Certified", "Operating Status": "Active", "Date Data Updated": "2025-10-27T07:00:00Z", "Source": "CDPHE Health Facilities and Emergency Medical Services Division", "GlobalID": "d31fcf37-e7ad-4750-9d49-d8f8b0e26cea", "x": 3139700.72, "y": 1709017.72 }, "geometry": { "type": "Point", "coordinates": [ -105.002968, 39.779018 ] } },
{ "type": "Feature", "properties": { "OBJECTID": 531, "Facility ID": "COOPUP", "Facility Name": "DENVER HEALTH WOMEN'S MOBILE SERVICES", "Facility Type Code": 211, "Facility Type": "All Other Factypes", "Map Symbol": "Federally Qualified Health Center", "Facility Type Detail": "FEDERALLY QHC", "Facility Type Abbreviation": "FQHC", "Licensed Beds Total": false, "Telephone": "(303) 436-6000", "County": "DENVER", "Address Full": "777 BANNOCK STREET, DENVER, CO 80204", "Latitude": 39.728134, "Longitude": -104.990257, "CDPHE HFEMS Licensed": "HCPF Certified", "Operating Status": "Active", "Date Data Updated": "2025-10-27T07:00:00Z", "Source": "CDPHE Health Facilities and Emergency Medical Services Division", "GlobalID": "a4eda742-3f66-4dd5-afad-6478fb82605b", "x": 3143377.294, "y": 1690502.252 }, "geometry": { "type": "Point", "coordinates": [ -104.990257, 39.728134 ] } },
{ "type": "Feature", "properties": { "OBJECTID": 532, "Facility ID": "COT32C", "Facility Name": "EASTSIDE FAMILY HEALTH CENTER", "Facility Type Code": 211, "Facility Type": "All Other Factypes", "Map Symbol": "Federally Qualified Health Center", "Facility Type Detail": "FEDERALLY QHC", "Facility Type Abbreviation": "FQHC", "Licensed Beds Total": false, "Telephone": "(303) 297-1241", "County": "DENVER", "Address Full": "501 28TH ST, DENVER, CO 80205", "Latitude": 39.755123, "Longitude": -104.975967, "CDPHE HFEMS Licensed": "HCPF Certified", "Operating Status": "Active", "Date Data Updated": "2025-10-27T07:00:00Z", "Source": "CDPHE Health Facilities and Emergency Medical Services Division", "GlobalID": "7cdd8535-4b03-46cc-9e25-a96ee3e80efa", "x": 3147339.863, "y": 1700356.218 }, "geometry": { "type": "Point", "coordinates": [ -104.975967, 39.755123 ] } },
{ "type": "Feature", "properties": { "OBJECTID": 533, "Facility ID": "COXFI7", "Facility Name": "LOWRY FAMILY HEALTH CENTER", "Facility Type Code": 211, "Facility Type": "All Other Factypes", "Map Symbol": "Federally Qualified Health Center", "Facility Type Detail": "FEDERALLY QHC", "Facility Type Abbreviation": "FQHC", "Licensed Beds Total": false, "Telephone": "(303) 436-4545", "County": "DENVER", "Address Full": "1001 NORTH YOSEMITE STREET, DENVER, CO 80220", "Latitude": 39.730171, "Longitude": -104.88546, "CDPHE HFEMS Licensed": "HCPF Certified", "Operating Status": "Active", "Date Data Updated": "2025-10-27T07:00:00Z", "Source": "CDPHE Health Facilities and Emergency Medical Services Division", "GlobalID": "0f72ebfb-8970-4234-82c0-d28f5b3b702e", "x": 3172847.927, "y": 1691426.641 }, "geometry": { "type": "Point", "coordinates": [ -104.88546, 39.730171 ] } },
{ "type": "Feature", "properties": { "OBJECTID": 534, "Facility ID": "COXXYN", "Facility Name": "LA CASA / QUIGG NEWTON FAMILY HEALTH CENTER", "Facility Type Code": 211, "Facility Type": "All Other Factypes", "Map Symbol": "Federally Qualified Health Center", "Facility Type Detail": "FEDERALLY QHC", "Facility Type Abbreviation": "FQHC", "Licensed Beds Total": false, "Telephone": "(303) 436-8700", "County": "DENVER", "Address Full": "4545 NAVAJO STREET, DENVER, CO 80211", "Latitude": 39.778965, "Longitude": -105.00425, "CDPHE HFEMS Licensed": "HCPF Certified", "Operating Status": "Active", "Date Data Updated": "2025-10-27T07:00:00Z", "Source": "CDPHE Health Facilities and Emergency Medical Services Division", "GlobalID": "6ae705ab-d64e-45e4-9fd7-253f6bd5d306", "x": 3139340.505, "y": 1708996.445 }, "geometry": { "type": "Point", "coordinates": [ -105.00425, 39.778965 ] } },
{ "type": "Feature", "properties": { "OBJECTID": 535, "Facility ID": "COZI2J", "Facility Name": "WELLINGTON E WEBB CENTER FOR PRIMARY CARE", "Facility Type Code": 211, "Facility Type": "All Other Factypes", "Map Symbol": "Federally Qualified Health Center", "Facility Type Detail": "FEDERALLY QHC", "Facility Type Abbreviation": "FQHC", "Licensed Beds Total": false, "Telephone": "(303) 436-6000", "County": "DENVER", "Address Full": "301 WEST 6TH AVENUE, DENVER, CO 80204", "Latitude": 39.725719, "Longitude": -104.992424, "CDPHE HFEMS Licensed": "HCPF Certified", "Operating Status": "Active", "Date Data Updated": "2025-10-27T07:00:00Z", "Source": "CDPHE Health Facilities and Emergency Medical Services Division", "GlobalID": "2cdf7027-6e11-4aa6-aef7-e1776246810d", "x": 3142772.708, "y": 1689619.147 }, "geometry": { "type": "Point", "coordinates": [ -104.992424, 39.725719 ] } }
]
}
