{
"type": "FeatureCollection",
"name": "Five_Highest_Census_Tracts",
"crs": { "type": "name", "properties": { "name": "urn:ogc:def:crs:EPSG::2877" } },
"features": [
{ "type": "Feature", "properties": { "STFID": "08031000800", "STFID_NUM": 8031000800.000001, "NAME": "8", "TRACTCE": "000800", "GlobalID": "12151aa9-a98c-4b87-92b5-ad1cec23e27a", "geo_id": "1400000US08031000800", "tract_name": "Census Tract 8; Denver County; Colorado", "OBJECTID_1": 161, "SVI": 0.994285714, "Shape_Leng": 20961.741435600001, "Shape_Area": 17767595.643100001, "GEOID_2": "8031000800" }, "geometry": { "type": "MultiPolygon", "coordinates": [ [ [ [ 3134756.990458250045776, 1697244.302486091852188 ], [ 3134756.784750014543533, 1697109.094751253724098 ], [ 3134837.898432925343513, 1697109.199081748723984 ], [ 3135007.989300087094307, 1697108.969423428177834 ], [ 3135077.999986842274666, 1697108.874935418367386 ], [ 3135099.621662750840187, 1697108.874935418367386 ], [ 3135114.584559336304665, 1697108.874935418367386 ], [ 3135223.689656093716621, 1697108.874935418367386 ], [ 3135259.999950930476189, 1697108.874935418367386 ], [ 3135260.555396005511284, 1697096.412033841013908 ], [ 3135261.728293925523758, 1697070.10795259475708 ], [ 3135266.827037006616592, 1696955.752210170030594 ], [ 3135268.49894967675209, 1696918.249004334211349 ], [ 3135271.083918258547783, 1696920.629248917102814 ], [ 3135285.341435670852661, 1696936.184664011001587 ], [ 3135305.516264095902443, 1696949.769610583782196 ], [ 3135333.021130338311195, 1696959.750889837741852 ], [ 3135348.21532566845417, 1696958.01007966697216 ], [ 3135362.5775016695261, 1696954.078985169529915 ], [ 3135370.760884255170822, 1696948.658392339944839 ], [ 3135387.411441504955292, 1696937.4540184289217 ], [ 3135403.570858001708984, 1696912.769028425216675 ], [ 3135471.040539339184761, 1696757.217174172401428 ], [ 3135524.113924011588097, 1696676.061496585607529 ], [ 3135568.849726930260658, 1696607.65480925142765 ], [ 3135571.958644583821297, 1696604.75684916973114 ], [ 3135591.744694262742996, 1696585.555444002151489 ], [ 3135625.022842928767204, 1696553.393434837460518 ], [ 3135628.844357594847679, 1696549.478088334202766 ], [ 3135659.65860041975975, 1696497.404373586177826 ], [ 3135695.755969166755676, 1696443.38348425924778 ], [ 3135740.547874346375465, 1696381.577833592891693 ], [ 3135786.135709673166275, 1696323.089433506131172 ], [ 3135854.885572180151939, 1696232.464286670088768 ], [ 3135930.154122427105904, 1696141.614402756094933 ], [ 3135933.387055590748787, 1696137.75220575928688 ], [ 3135962.303336337208748, 1696103.207327336072922 ], [ 3135976.621877253055573, 1696088.141740664839745 ], [ 3135989.815092340111732, 1696070.41966325044632 ], [ 3136018.449877589941025, 1696036.688759595155716 ], [ 3136030.802871257066727, 1696021.781965255737305 ], [ 3136009.750091835856438, 1695958.375267922878265 ], [ 3135997.958120673894882, 1695928.753608003258705 ], [ 3135994.035556346178055, 1695918.899625092744827 ], [ 3135992.279326260089874, 1695914.487560421228409 ], [ 3135989.000133335590363, 1695906.250044092535973 ], [ 3135981.500148341059685, 1695884.375087842345238 ], [ 3135966.999849259853363, 1695831.249866008758545 ], [ 3135962.906353503465652, 1695814.801736176013947 ], [ 3135938.99990525841713, 1695718.750091001391411 ], [ 3135910.814922258257866, 1695619.720433428883553 ], [ 3135909.561315834522247, 1695615.316242754459381 ], [ 3135889.318574175238609, 1695544.192041173577309 ], [ 3135843.595568507909775, 1695383.542428091168404 ], [ 3135809.75016376376152, 1695264.625015005469322 ], [ 3135798.74821725487709, 1695228.727777093648911 ], [ 3135784.339781507849693, 1695181.715732008218765 ], [ 3135765.999923169612885, 1695121.87497241795063 ], [ 3135735.749983668327332, 1695029.124829843640327 ], [ 3135732.211933001875877, 1695016.258057668805122 ], [ 3135726.547902345657349, 1694995.659673675894737 ], [ 3135724.993115425109863, 1694990.006141677498817 ], [ 3135720.333675920963287, 1694973.061949834227562 ], [ 3135713.363545507192612, 1694947.713247254490852 ], [ 3135708.894066259264946, 1694931.459342762827873 ], [ 3135706.075830429792404, 1694921.211003676056862 ], [ 3135699.377681091427803, 1694896.851472333073616 ], [ 3135698.249730587005615, 1694892.75010259449482 ], [ 3135674.250106677412987, 1694802.624954760074615 ], [ 3135664.119877591729164, 1694766.832047343254089 ], [ 3135649.752124175429344, 1694716.068041250109673 ], [ 3135635.67374025285244, 1694666.326014757156372 ], [ 3135633.800056338310242, 1694659.705293089151382 ], [ 3135623.657032012939453, 1694623.868422508239746 ], [ 3135595.24993659555912, 1694523.500184923410416 ], [ 3135590.991743013262749, 1694510.224620923399925 ], [ 3135586.749953597784042, 1694497.000237926840782 ], [ 3135585.63906341791153, 1694493.612121343612671 ], [ 3135574.249978587031364, 1694458.874986082315445 ], [ 3135560.750005587935448, 1694414.12474749982357 ], [ 3135558.125010833144188, 1694400.562438666820526 ], [ 3135555.500016093254089, 1694386.999801754951477 ], [ 3135551.092544585466385, 1694346.931968510150909 ], [ 3135547.250032588839531, 1694311.999951750040054 ], [ 3135540.98560942709446, 1694250.304209008812904 ], [ 3135539.000049084424973, 1694230.750114262104034 ], [ 3135538.74676875770092, 1694226.406947091221809 ], [ 3135537.759894087910652, 1694209.485721081495285 ], [ 3135534.749729514122009, 1694157.874931916594505 ], [ 3135534.749729514122009, 1694130.83397550880909 ], [ 3135534.749729514122009, 1694091.124737337231636 ], [ 3135538.323541253805161, 1694059.984379678964615 ], [ 3135540.000047087669373, 1694045.375156924128532 ], [ 3135548.907509595155716, 1694003.755489498376846 ], [ 3135554.500018090009689, 1693977.624964341521263 ], [ 3135559.811687260866165, 1693959.323491752147675 ], [ 3135560.771331012248993, 1693956.016083672642708 ], [ 3135565.999995097517967, 1693937.999715507030487 ], [ 3135593.99993908405304, 1693838.000243589282036 ], [ 3135616.638017177581787, 1693772.462316915392876 ], [ 3135622.65933059155941, 1693755.030593261122704 ], [ 3135628.925722256302834, 1693736.889225333929062 ], [ 3135639.532984510064125, 1693706.180953428149223 ], [ 3135643.999839097261429, 1693693.249876916408539 ], [ 3135657.874811336398125, 1693656.418585762381554 ], [ 3135669.834104999899864, 1693624.672586262226105 ], [ 3135679.792418420314789, 1693598.237271666526794 ], [ 3135695.680838093161583, 1693556.061503008008003 ], [ 3135716.000023171305656, 1693502.124931082129478 ], [ 3135758.661355167627335, 1693394.43059267103672 ], [ 3135777.499900177121162, 1693346.87491349875927 ], [ 3135780.876861929893494, 1693335.158729583024979 ], [ 3135793.999867171049118, 1693289.625027999281883 ], [ 3135802.98705393075943, 1693243.734699845314026 ], [ 3135813.999827176332474, 1693187.499904170632362 ], [ 3135815.875479593873024, 1693175.215479925274849 ], [ 3135831.499792173504829, 1693072.87513342499733 ], [ 3135834.824260592460632, 1693006.741735503077507 ], [ 3135837.98567159473896, 1692943.847176253795624 ], [ 3135841.000101253390312, 1692883.875183343887329 ], [ 3135840.988946422934532, 1692879.979521840810776 ], [ 3135840.938093513250351, 1692862.676734924316406 ], [ 3135840.824576675891876, 1692823.825106590986252 ], [ 3135840.092294678092003, 1692573.13499116897583 ], [ 3135840.009617671370506, 1692544.95821025967598 ], [ 3135840.000103250145912, 1692541.625211670994759 ], [ 3135840.118541345000267, 1692534.330934926867485 ], [ 3135842.999769181013107, 1692356.749925255775452 ], [ 3135842.537499755620956, 1692250.936160504817963 ], [ 3135842.3829725086689, 1692215.512346833944321 ], [ 3135841.874115258455276, 1692099.031936749815941 ], [ 3135841.636911004781723, 1692044.700024425983429 ], [ 3135841.553577840328217, 1692025.616401165723801 ], [ 3135841.412502005696297, 1691993.38943150639534 ], [ 3135841.000101253390312, 1691899.000184595584869 ], [ 3135845.980734333395958, 1691677.026875257492065 ], [ 3135847.203500926494598, 1691622.512220501899719 ], [ 3135847.533224672079086, 1691607.82458584010601 ], [ 3135848.186766669154167, 1691578.703253000974655 ], [ 3135848.250086754560471, 1691575.875174671411514 ], [ 3135849.050610095262527, 1691538.812584757804871 ], [ 3135851.426589593291283, 1691428.816413670778275 ], [ 3135851.753032505512238, 1691413.694724753499031 ], [ 3135852.21300533413887, 1691392.393914341926575 ], [ 3135852.302244007587433, 1691388.274828091263771 ], [ 3135852.499750167131424, 1691379.12491200864315 ], [ 3135852.873765170574188, 1691361.364448845386505 ], [ 3135854.367528587579727, 1691290.407897844910622 ], [ 3135854.546334013342857, 1691281.919725835323334 ], [ 3135857.883269593119621, 1691123.409544169902802 ], [ 3135858.750065758824348, 1691082.249849587678909 ], [ 3135861.750059753656387, 1691053.124907836318016 ], [ 3135868.000047251582146, 1691024.999964088201523 ], [ 3135878.499698176980019, 1690985.374715253710747 ], [ 3135896.924858167767525, 1690930.100875675678253 ], [ 3135909.324767753481865, 1690895.919185504317284 ], [ 3135915.316553667187691, 1690879.441200092434883 ], [ 3135921.086555257439613, 1690863.574762001633644 ], [ 3135922.645935341715813, 1690859.286712840199471 ], [ 3135925.250260844826698, 1690852.124981760978699 ], [ 3135942.000227347016335, 1690817.250051498413086 ], [ 3135953.514311924576759, 1690796.988281011581421 ], [ 3135973.120571926236153, 1690762.486053422093391 ], [ 3135974.530017927289009, 1690760.005743429064751 ], [ 3135977.463411003351212, 1690754.843680262565613 ], [ 3135980.500150337815285, 1690749.499858915805817 ], [ 3135986.125795260071754, 1690740.955256596207619 ], [ 3135994.685817509889603, 1690727.95331409573555 ], [ 3136020.250070840120316, 1690689.125307753682137 ], [ 3136107.749895840883255, 1690554.750248417258263 ], [ 3136130.723603174090385, 1690517.226373344659805 ], [ 3136137.749835833907127, 1690505.75001834332943 ], [ 3136156.499798342585564, 1690467.250095337629318 ], [ 3136164.748141422867775, 1690444.851518094539642 ], [ 3136183.750071927905083, 1690393.249915257096291 ], [ 3136185.441997677087784, 1690387.78010992705822 ], [ 3136194.513501837849617, 1690358.454709261655807 ], [ 3136212.74968583881855, 1690299.500102758407593 ], [ 3136216.069889172911644, 1690284.771457672119141 ], [ 3136224.483586251735687, 1690247.445416837930679 ], [ 3136226.499986425042152, 1690238.499896675348282 ], [ 3136230.826749429106712, 1690203.737170919775963 ], [ 3136233.252925679087639, 1690184.244755834341049 ], [ 3136233.749971926212311, 1690180.250013172626495 ], [ 3136237.74996392428875, 1690116.624812334775925 ], [ 3136237.438612833619118, 1690096.546112343668938 ], [ 3136237.089860260486603, 1690074.058296427130699 ], [ 3136236.74996592104435, 1690052.12494133412838 ], [ 3136237.74996392428875, 1689997.375050842761993 ], [ 3136232.749973922967911, 1689897.374922752380371 ], [ 3136228.920257180929184, 1689805.91578808426857 ], [ 3136228.442567840218544, 1689794.85314616560936 ], [ 3136227.598081335425377, 1689779.855800837278366 ], [ 3136222.249994918704033, 1689684.875019669532776 ], [ 3136220.937661588191986, 1689671.364219918847084 ], [ 3136219.556102678179741, 1689657.14344784617424 ], [ 3136218.000003427267075, 1689641.124779090285301 ], [ 3136212.805788084864616, 1689595.272180512547493 ], [ 3136211.774622172117233, 1689586.169180333614349 ], [ 3136210.699821174144745, 1689576.597020998597145 ], [ 3136206.381260260939598, 1689531.02985492348671 ], [ 3136205.865185171365738, 1689525.584655836224556 ], [ 3136204.518075004220009, 1689511.372413918375969 ], [ 3136204.104033842682838, 1689507.004968583583832 ], [ 3136178.069637089967728, 1689504.40458008646965 ], [ 3136132.175371930003166, 1689499.819943591952324 ], [ 3136098.77550433576107, 1689496.483336091041565 ], [ 3136072.377919346094131, 1689493.846530333161354 ], [ 3136042.011510252952576, 1689490.813071832060814 ], [ 3136020.660175010561943, 1689488.680202081799507 ], [ 3135950.598963424563408, 1689481.68152841925621 ], [ 3135919.987804174423218, 1689478.623463675379753 ], [ 3135897.819869503378868, 1689476.408901169896126 ], [ 3135837.603454500436783, 1689470.674332588911057 ], [ 3135816.803299263119698, 1689468.69303734600544 ], [ 3135731.33955942094326, 1689460.553617924451828 ], [ 3135679.623783588409424, 1689455.628759011626244 ], [ 3135573.276555344462395, 1689448.294128000736237 ], [ 3135498.711087673902512, 1689443.404702082276344 ], [ 3135474.355821430683136, 1689441.769534751772881 ], [ 3135387.435063511133194, 1689435.934900760650635 ], [ 3135243.774261593818665, 1689438.477874666452408 ], [ 3135175.389555841684341, 1689439.737714678049088 ], [ 3134954.137701749801636, 1689454.406320512294769 ], [ 3134809.628148257732391, 1689466.157937422394753 ], [ 3134664.966692179441452, 1689477.922021508216858 ], [ 3134641.627500012516975, 1689479.819983586668968 ], [ 3134571.578427508473396, 1689485.516494512557983 ], [ 3134547.928212344646454, 1689487.439719006419182 ], [ 3134473.128493174910545, 1689493.522384002804756 ], [ 3134415.373359337449074, 1689497.528281509876251 ], [ 3134367.391828000545502, 1689500.856686919927597 ], [ 3134191.368229925632477, 1689505.746440917253494 ], [ 3134017.288525596261024, 1689506.537449836730957 ], [ 3133922.443242833018303, 1689506.968551337718964 ], [ 3133884.244172260165215, 1689507.02465358376503 ], [ 3133881.23827275633812, 1689507.029246762394905 ], [ 3133821.507093012332916, 1689507.11750116944313 ], [ 3133718.727114841341972, 1689507.268747583031654 ], [ 3133639.740724250674248, 1689507.384889096021652 ], [ 3133632.483192846179008, 1689507.395715832710266 ], [ 3133569.158516347408295, 1689507.488891512155533 ], [ 3133569.135550513863564, 1689514.685727506875992 ], [ 3133569.06665301322937, 1689536.045592918992043 ], [ 3133568.999724000692368, 1689556.874947592616081 ], [ 3133566.586999177932739, 1689622.718976005911827 ], [ 3133565.500059083104134, 1689652.375084668397903 ], [ 3133565.515479013323784, 1689687.875997915863991 ], [ 3133565.540085256099701, 1689744.123588845133781 ], [ 3133565.567644253373146, 1689806.810799419879913 ], [ 3133565.747105836868286, 1690217.586880758404732 ], [ 3133565.750058591365814, 1690224.374924927949905 ], [ 3133563.250063583254814, 1690542.750272423028946 ], [ 3133563.13162550330162, 1690548.978606417775154 ], [ 3133557.478093504905701, 1690846.106949165463448 ], [ 3133556.750076591968536, 1690884.374917253851891 ], [ 3133556.466612592339516, 1690921.076943591237068 ], [ 3133554.000082090497017, 1691240.375189512968063 ], [ 3133552.750084593892097, 1691566.500193417072296 ], [ 3133551.706123426556587, 1691696.454001754522324 ], [ 3133548.554554924368858, 1692088.758991420269012 ], [ 3133547.500423178076744, 1692219.999870672821999 ], [ 3133547.500423178076744, 1692284.371461093425751 ], [ 3133547.500423178076744, 1692479.257882341742516 ], [ 3133547.500423178076744, 1692544.749877333641052 ], [ 3133546.755674004554749, 1692608.201850175857544 ], [ 3133544.507647007703781, 1692799.798907920718193 ], [ 3133543.75010259449482, 1692864.374566167593002 ], [ 3133541.917429089546204, 1692931.287162005901337 ], [ 3133536.371508419513702, 1693133.787741258740425 ], [ 3133534.500121086835861, 1693202.124874919652939 ], [ 3133537.01061475276947, 1693528.601912260055542 ], [ 3133537.045719668269157, 1693533.18293984234333 ], [ 3133537.341322749853134, 1693571.621839344501495 ], [ 3133537.47157184779644, 1693588.5604537576437 ], [ 3133540.370516180992126, 1693965.940932586789131 ], [ 3133541.0001080930233, 1694047.875151917338371 ], [ 3133562.600130513310432, 1694049.44437450170517 ], [ 3133559.569296672940254, 1694134.963232338428497 ], [ 3133540.639872595667839, 1694669.040576249361038 ], [ 3133538.851818427443504, 1694719.492575094103813 ], [ 3133538.77110992372036, 1694734.959735751152039 ], [ 3133538.216977179050446, 1694840.974287509918213 ], [ 3133537.305889755487442, 1694907.205126166343689 ], [ 3133537.915796667337418, 1694907.245808511972427 ], [ 3133539.451882839202881, 1694927.496096089482307 ], [ 3133541.572285428643227, 1694948.069545760750771 ], [ 3133541.592954680323601, 1694948.271645084023476 ], [ 3133541.576878592371941, 1694948.856289595365524 ], [ 3133539.056542426347733, 1695039.990949839353561 ], [ 3133535.550643920898438, 1695430.873698249459267 ], [ 3133535.544410333037376, 1695431.571203425526619 ], [ 3133534.550645917654037, 1695542.365273177623749 ], [ 3133513.702918589115143, 1695761.994755178689957 ], [ 3133513.211121678352356, 1695767.178143754601479 ], [ 3133513.123195335268974, 1695768.103338748216629 ], [ 3133512.999836012721062, 1695768.37564791738987 ], [ 3133510.999840006232262, 1696214.87508299946785 ], [ 3133510.999840006232262, 1696653.500190004706383 ], [ 3133510.356468588113785, 1696740.337286666035652 ], [ 3133508.404372751712799, 1697003.697652339935303 ], [ 3133507.749846503138542, 1697092.000625342130661 ], [ 3133597.312331423163414, 1697092.326412081718445 ], [ 3133865.572293594479561, 1697093.301475748419762 ], [ 3133954.499937251210213, 1697093.62496592104435 ], [ 3133954.499937251210213, 1697100.414978593587875 ], [ 3133963.683974012732506, 1697375.77203942835331 ], [ 3133981.618321344256401, 1697419.743080094456673 ], [ 3134002.447676002979279, 1697448.092760920524597 ], [ 3134020.126118347048759, 1697471.020536586642265 ], [ 3134055.931492924690247, 1697501.94140650331974 ], [ 3134093.362520426511765, 1697529.608017832040787 ], [ 3134146.75217741727829, 1697542.115866839885712 ], [ 3134150.302039086818695, 1697542.143425837159157 ], [ 3134303.001208752393723, 1697543.327150508761406 ], [ 3134389.749722927808762, 1697544.00004942715168 ], [ 3134477.612080007791519, 1697545.002015918493271 ], [ 3134740.796593010425568, 1697548.002994164824486 ], [ 3134756.038688510656357, 1697548.176878333091736 ], [ 3134756.990458250045776, 1697244.302486091852188 ] ] ] ] } },
{ "type": "Feature", "properties": { "STFID": "08031001401", "STFID_NUM": 8031001401.0, "NAME": "14.01", "TRACTCE": "001401", "GlobalID": "460660d6-3361-4a9a-aee3-d39c151a51ff", "geo_id": "1400000US08031001401", "tract_name": "Census Tract 14.01; Denver County; Colorado", "OBJECTID_1": 13, "SVI": 1.0, "Shape_Leng": 22626.1383135, "Shape_Area": 22476652.820799999, "GEOID_2": "8031001401" }, "geometry": { "type": "MultiPolygon", "coordinates": [ [ [ [ 3137346.842233926057816, 1679036.5495315939188 ], [ 3137402.999930009245872, 1679036.375319331884384 ], [ 3137459.398439258337021, 1679036.550843924283981 ], [ 3137627.672709003090858, 1679037.075121089816093 ], [ 3137683.749696597456932, 1679037.24998950958252 ], [ 3137759.653088092803955, 1679037.074464917182922 ], [ 3137986.746137842535973, 1679036.55018775165081 ], [ 3138062.500251427292824, 1679036.375319331884384 ], [ 3138099.304639756679535, 1679036.375319331884384 ], [ 3138209.612161919474602, 1679036.375319331884384 ], [ 3138246.2498839199543, 1679036.375319331884384 ], [ 3138365.222415000200272, 1679036.748350083827972 ], [ 3138722.313236251473427, 1679037.867442339658737 ], [ 3138841.245741173624992, 1679038.24014501273632 ], [ 3138865.545233249664307, 1679038.252940252423286 ], [ 3138937.864970505237579, 1679038.291326001286507 ], [ 3138961.871156096458435, 1679038.304121255874634 ], [ 3139223.766957759857178, 1679038.443228587508202 ], [ 3140009.150229513645172, 1679038.860878676176071 ], [ 3140270.750100001692772, 1679038.999986007809639 ], [ 3140537.385065421462059, 1679038.999986007809639 ], [ 3140608.749752089381218, 1679038.999986007809639 ], [ 3140674.381510585546494, 1679038.824789509177208 ], [ 3140871.084529250860214, 1679038.299856171011925 ], [ 3140936.500080838799477, 1679038.124987751245499 ], [ 3141003.342794924974442, 1679038.124987751245499 ], [ 3141203.418510258197784, 1679038.124987751245499 ], [ 3141270.000070005655289, 1679038.124987751245499 ], [ 3141336.236814171075821, 1679038.124987751245499 ], [ 3141534.061221674084663, 1679038.124987751245499 ], [ 3141599.750066667795181, 1679038.124987751245499 ], [ 3141666.04160076379776, 1679037.949791252613068 ], [ 3141864.430311590433121, 1679037.424529835581779 ], [ 3141930.250061839818954, 1679037.250317588448524 ], [ 3141996.689233422279358, 1679037.250317588448524 ], [ 3142195.639294847846031, 1679037.250317588448524 ], [ 3142261.750055000185966, 1679037.250317588448524 ], [ 3142345.906710833311081, 1679037.075121089816093 ], [ 3142598.327793926000595, 1679036.549859672784805 ], [ 3142682.249870181083679, 1679036.375319331884384 ], [ 3142713.978809341788292, 1679036.479321762919426 ], [ 3142808.808344095945358, 1679036.790672838687897 ], [ 3142824.003523677587509, 1679036.840869590640068 ], [ 3142840.275144666433334, 1679036.894019082188606 ], [ 3142837.999886751174927, 1678981.624772667884827 ], [ 3142837.163274258375168, 1678975.447619676589966 ], [ 3142836.374561920762062, 1678969.623812422156334 ], [ 3142834.749893262982368, 1678957.625148758292198 ], [ 3142826.49990975856781, 1678928.9998779296875 ], [ 3142812.844753339886665, 1678896.022581666707993 ], [ 3142801.500287845730782, 1678868.624998673796654 ], [ 3142776.500009760260582, 1678805.500124916434288 ], [ 3142773.224097669124603, 1678795.139581337571144 ], [ 3142768.580734252929688, 1678780.454899415373802 ], [ 3142755.749723181128502, 1678739.875256165862083 ], [ 3142748.269751250743866, 1678717.064934343099594 ], [ 3142738.000086754560471, 1678685.749708250164986 ], [ 3142708.749817177653313, 1678602.374875009059906 ], [ 3142705.124168261885643, 1678589.371948257088661 ], [ 3142701.500159755349159, 1678576.374926999211311 ], [ 3142689.999854668974876, 1678526.375027000904083 ], [ 3142685.081557422876358, 1678501.190366089344025 ], [ 3142681.91456900537014, 1678484.973206922411919 ], [ 3142675.95526334643364, 1678454.458504170179367 ], [ 3142671.342739760875702, 1678430.840441167354584 ], [ 3142669.249896168708801, 1678420.124911427497864 ], [ 3142668.569451346993446, 1678415.937583833932877 ], [ 3142661.394925013184547, 1678371.778551429510117 ], [ 3142658.75024525821209, 1678355.500040665268898 ], [ 3142649.499935671687126, 1678309.750132173299789 ], [ 3142640.999952673912048, 1678268.624886333942413 ], [ 3142623.025251090526581, 1678196.820568010210991 ], [ 3142617.000000670552254, 1678172.750078082084656 ], [ 3142581.750071167945862, 1678057.124981254339218 ], [ 3142518.249870091676712, 1677896.749973922967911 ], [ 3142463.999978587031364, 1677775.37521667778492 ], [ 3142456.602683678269386, 1677759.715143010020256 ], [ 3142441.522333264350891, 1677727.789025753736496 ], [ 3142423.09881366789341, 1677688.786479085683823 ], [ 3142417.000072583556175, 1677675.875087589025497 ], [ 3142383.750139087438583, 1677619.624871999025345 ], [ 3142343.824365928769112, 1677559.736868426203728 ], [ 3142339.999898508191109, 1677554.00000324845314 ], [ 3142290.12991951406002, 1677492.931555837392807 ], [ 3142244.250090003013611, 1677436.749909669160843 ], [ 3142222.423690095543861, 1677414.722722753882408 ], [ 3142203.499843418598175, 1677395.624991923570633 ], [ 3142174.81715801358223, 1677367.68016591668129 ], [ 3142159.750259011983871, 1677353.000077173113823 ], [ 3142118.250013917684555, 1677321.75013966858387 ], [ 3142058.589044004678726, 1677282.430992588400841 ], [ 3142031.762654095888138, 1677264.750909835100174 ], [ 3142012.092745929956436, 1677251.787353083491325 ], [ 3141986.999948337674141, 1677235.249984592199326 ], [ 3141961.705051422119141, 1677219.118455171585083 ], [ 3141896.249801754951477, 1677177.374772250652313 ], [ 3141798.24999774992466, 1677125.375204339623451 ], [ 3141716.999832168221474, 1677084.749957501888275 ], [ 3141696.936552092432976, 1677074.657129928469658 ], [ 3141584.698587596416473, 1677018.195956751704216 ], [ 3141512.000242173671722, 1676981.625163748860359 ], [ 3141495.053425669670105, 1676973.771176844835281 ], [ 3141426.500085085630417, 1676941.999914929270744 ], [ 3141364.999880000948906, 1676909.749979421496391 ], [ 3141291.000028014183044, 1676868.000062927603722 ], [ 3141226.499828919768333, 1676830.50013792514801 ], [ 3141181.749918431043625, 1676802.375194177031517 ], [ 3141163.253892421722412, 1676789.129157677292824 ], [ 3141133.750014424324036, 1676767.999934837222099 ], [ 3141078.499796837568283, 1676721.125028595328331 ], [ 3141049.995916843414307, 1676692.621148586273193 ], [ 3141047.904385596513748, 1676690.529617339372635 ], [ 3141015.999921843409538, 1676658.625153586268425 ], [ 3140988.291315838694572, 1676632.31943191587925 ], [ 3140956.750040337443352, 1676602.374938011169434 ], [ 3140907.250139340758324, 1676553.625035509467125 ], [ 3140900.247856751084328, 1676546.747752666473389 ], [ 3140893.249839261174202, 1676539.875063002109528 ], [ 3140874.499876752495766, 1676520.124774426221848 ], [ 3140867.251531675457954, 1676511.931221261620522 ], [ 3140851.500250846147537, 1676494.125154510140419 ], [ 3140845.249935254454613, 1676484.187510341405869 ], [ 3140838.999947756528854, 1676474.249866172671318 ], [ 3140821.249983251094818, 1676434.749945178627968 ], [ 3140808.099419012665749, 1676387.934422001242638 ], [ 3140802.500020757317543, 1676368.000078678131104 ], [ 3140795.913747847080231, 1676340.009649083018303 ], [ 3140789.99971766769886, 1676314.875184923410416 ], [ 3140781.004328846931458, 1676277.415286093950272 ], [ 3140754.033582255244255, 1676283.680365428328514 ], [ 3140716.205902010202408, 1676292.448720589280128 ], [ 3140672.064258009195328, 1676303.030720427632332 ], [ 3140644.34744992852211, 1676309.675392165780067 ], [ 3140611.588657170534134, 1676317.370258674025536 ], [ 3140512.61871075630188, 1676340.617915585637093 ], [ 3140479.754931345582008, 1676348.337388336658478 ], [ 3140340.865117251873016, 1676376.81436550617218 ], [ 3140262.983383253216743, 1676389.258238255977631 ], [ 3139939.163820922374725, 1676393.011183500289917 ], [ 3139604.299333170056343, 1676393.120435252785683 ], [ 3139537.332931667566299, 1676393.065973415970802 ], [ 3139336.392716750502586, 1676392.903244093060493 ], [ 3139269.466997593641281, 1676392.848782256245613 ], [ 3139218.195446595549583, 1676393.050225421786308 ], [ 3139064.531711921095848, 1676393.652914509177208 ], [ 3139013.308061093091965, 1676393.854029595851898 ], [ 3139001.770354509353638, 1676393.899305090308189 ], [ 3138966.593915671110153, 1676394.037100091576576 ], [ 3138954.771432757377625, 1676394.083687916398048 ], [ 3138919.873208597302437, 1676394.22115483880043 ], [ 3138815.178208008408546, 1676394.631259009242058 ], [ 3138779.878409847617149, 1676394.769710168242455 ], [ 3138726.528779, 1676394.870759844779968 ], [ 3138566.113089337944984, 1676395.175877332687378 ], [ 3138512.707356259226799, 1676395.277255088090897 ], [ 3138459.448932588100433, 1676395.248055666685104 ], [ 3138299.033242926001549, 1676395.159801259636879 ], [ 3138245.568782925605774, 1676395.130601838231087 ], [ 3138176.331388592720032, 1676395.279223591089249 ], [ 3137967.790795177221298, 1676395.727713510394096 ], [ 3137914.597660094499588, 1676395.841886505484581 ], [ 3137898.569805011153221, 1676395.876335248351097 ], [ 3137894.30669017136097, 1676395.885521590709686 ], [ 3137881.953696504235268, 1676395.912096336483955 ], [ 3137874.355286508798599, 1676395.928172424435616 ], [ 3137802.026034846901894, 1676396.083355844020844 ], [ 3137777.749508589506149, 1676396.135849177837372 ], [ 3137702.962912753224373, 1676396.349103331565857 ], [ 3137477.253390416502953, 1676396.992474749684334 ], [ 3137401.973357260227203, 1676397.207041248679161 ], [ 3137277.435876667499542, 1676397.281844258308411 ], [ 3136902.853292509913445, 1676397.506909415125847 ], [ 3136777.898818001151085, 1676397.581712424755096 ], [ 3136680.806820586323738, 1676397.64011125266552 ], [ 3136388.400909334421158, 1676397.816292002797127 ], [ 3136291.000185504555702, 1676397.874690845608711 ], [ 3136238.957966759800911, 1676397.441620841622353 ], [ 3136166.363623753190041, 1676396.836963251233101 ], [ 3136082.491088092327118, 1676396.139130011200905 ], [ 3136029.994145840406418, 1676395.702123001217842 ], [ 3135977.803961500525475, 1676395.21557542681694 ], [ 3135821.055587336421013, 1676393.754948422312737 ], [ 3135768.263370096683502, 1676393.26315151154995 ], [ 3135718.621737092733383, 1676392.914070844650269 ], [ 3135568.907797679305077, 1676391.861907586455345 ], [ 3135518.821611762046814, 1676391.509874165058136 ], [ 3135410.468810096383095, 1676390.483629509806633 ], [ 3135085.15318775177002, 1676387.401942759752274 ], [ 3134976.613706678152084, 1676386.373729586601257 ], [ 3134791.356531262397766, 1676385.041383177042007 ], [ 3134714.464952751994133, 1676384.488234668970108 ], [ 3134451.998942255973816, 1676381.175249174237251 ], [ 3134425.799847677350044, 1676380.866522759199142 ], [ 3134347.005385845899582, 1676379.937718838453293 ], [ 3134320.43752558529377, 1676379.624727338552475 ], [ 3134294.943810179829597, 1676379.182142928242683 ], [ 3134217.556169673800468, 1676377.838313594460487 ], [ 3134191.722559928894043, 1676377.38982367515564 ], [ 3134085.578415259718895, 1676376.672961592674255 ], [ 3133766.449132263660431, 1676374.517454087734222 ], [ 3133659.903413593769073, 1676373.798295423388481 ], [ 3133659.306958094239235, 1676469.067789927124977 ], [ 3133657.501515507698059, 1676757.558354675769806 ], [ 3133656.896529838442802, 1676854.179552510380745 ], [ 3133656.564837589859962, 1676889.417671009898186 ], [ 3133655.553684756159782, 1676996.871524333953857 ], [ 3133655.209197252988815, 1677033.469548255205154 ], [ 3133654.430655509233475, 1677164.793432593345642 ], [ 3133652.082891181111336, 1677560.740147262811661 ], [ 3133651.676724001765251, 1677629.281348749995232 ], [ 3133651.295819252729416, 1677693.498411923646927 ], [ 3133650.878169178962708, 1677756.085229009389877 ], [ 3133650.418852508068085, 1677824.825905174016953 ], [ 3133650.105204835534096, 1677871.749695837497711 ], [ 3133650.051727250218391, 1677879.828091755509377 ], [ 3133647.77745358645916, 1678220.407135009765625 ], [ 3133646.894909426569939, 1678352.560742095112801 ], [ 3133646.647862672805786, 1678485.22451876103878 ], [ 3133645.904097750782967, 1678884.823128998279572 ], [ 3133645.655082508921623, 1679018.610263004899025 ], [ 3133721.391151502728462, 1679018.071878254413605 ], [ 3133947.927443847060204, 1679016.461973339319229 ], [ 3134023.168107002973557, 1679015.927525594830513 ], [ 3134079.330068171024323, 1679016.394716262817383 ], [ 3134246.474418923258781, 1679017.785789594054222 ], [ 3134302.250226005911827, 1679018.250355586409569 ], [ 3134368.315710678696632, 1679018.776273176074028 ], [ 3134566.130931839346886, 1679020.35074508190155 ], [ 3134631.999894589185715, 1679020.875022262334824 ], [ 3134699.226794257760048, 1679021.4255460947752 ], [ 3134900.981968179345131, 1679023.076789498329163 ], [ 3134968.000206843018532, 1679023.625016748905182 ], [ 3135032.103425085544586, 1679024.527245923876762 ], [ 3135224.004616096615791, 1679027.228027924895287 ], [ 3135287.749895423650742, 1679028.125335842370987 ], [ 3135353.442677423357964, 1679028.677828177809715 ], [ 3135549.568925589323044, 1679030.327103093266487 ], [ 3135614.749897584319115, 1679030.87500225007534 ], [ 3135861.058132007718086, 1679033.907148420810699 ], [ 3135870.785802841186523, 1679034.026898846030235 ], [ 3135909.249964758753777, 1679034.500323086977005 ], [ 3136059.432079091668129, 1679036.099073171615601 ], [ 3136281.953615680336952, 1679038.468819081783295 ], [ 3136384.442583918571472, 1679038.633845001459122 ], [ 3136691.165395677089691, 1679039.126954257488251 ], [ 3136793.25016525387764, 1679039.290995925664902 ], [ 3136859.164403513073921, 1679038.880891755223274 ], [ 3137055.867750257253647, 1679037.656812831759453 ], [ 3137121.249837338924408, 1679037.24998950958252 ], [ 3137177.999395757913589, 1679037.073480665683746 ], [ 3137346.842233926057816, 1679036.5495315939188 ] ] ] ] } },
{ "type": "Feature", "properties": { "STFID": "08031003501", "STFID_NUM": 8031003500.999999, "NAME": "35.01", "TRACTCE": "003501", "GlobalID": "969f5ad0-de62-45d7-ba30-a7590b50c6df", "geo_id": "1400000US08031003501", "tract_name": "Census Tract 35.01; Denver County; Colorado", "OBJECTID_1": 74, "SVI": 0.982857143, "Shape_Leng": 38408.9029601, "Shape_Area": 50151438.001100004, "GEOID_2": "8031003501" }, "geometry": { "type": "MultiPolygon", "coordinates": [ [ [ [ 3153894.940371260046959, 1713550.908324256539345 ], [ 3153825.749892845749855, 1713435.250091001391411 ], [ 3153737.749740764498711, 1713287.75005792081356 ], [ 3153733.635903835296631, 1713282.120476007461548 ], [ 3153676.582868337631226, 1713197.817166924476624 ], [ 3153582.566324084997177, 1713036.602922424674034 ], [ 3153514.810554087162018, 1712939.216634258627892 ], [ 3153461.948783174157143, 1712918.532620504498482 ], [ 3153405.349158838391304, 1712823.455382838845253 ], [ 3153266.457704335451126, 1712590.142201170325279 ], [ 3153174.249883502721786, 1712435.24979442358017 ], [ 3153158.49991500377655, 1712408.999846920371056 ], [ 3153140.499951004981995, 1712379.249906420707703 ], [ 3153117.314629927277565, 1712340.256874173879623 ], [ 3153107.499688923358917, 1712323.750017419457436 ], [ 3153075.25008150935173, 1712268.875127166509628 ], [ 3153002.830935001373291, 1712147.336656332015991 ], [ 3152960.249983429908752, 1712075.874857008457184 ], [ 3152890.707799673080444, 1711958.860655337572098 ], [ 3152863.749848335981369, 1711913.499853670597076 ], [ 3152737.499772757291794, 1711701.749949082732201 ], [ 3152665.249917253851891, 1711580.249864012002945 ], [ 3152653.062277585268021, 1711558.99990651011467 ], [ 3152635.999975755810738, 1711529.249966010451317 ], [ 3152605.753645166754723, 1711478.532219678163528 ], [ 3152574.500098749995232, 1711426.125172257423401 ], [ 3152554.726188167929649, 1711393.401484414935112 ], [ 3152482.499954670667648, 1711273.875148668885231 ], [ 3152442.163093090057373, 1711205.760455504059792 ], [ 3152427.500064671039581, 1711181.000006332993507 ], [ 3152410.652001261711121, 1711151.32585309445858 ], [ 3152371.999847590923309, 1711083.249873757362366 ], [ 3152364.99986158311367, 1711070.124899998307228 ], [ 3152323.500272676348686, 1710988.375063508749008 ], [ 3152320.990435168147087, 1710983.257291585206985 ], [ 3152292.912407338619232, 1710925.998875916004181 ], [ 3152281.694582000374794, 1710903.122609332203865 ], [ 3152275.663754180073738, 1710891.043237179517746 ], [ 3152272.637185424566269, 1710885.141018003225327 ], [ 3152263.000065594911575, 1710867.000306248664856 ], [ 3152261.193638756871223, 1710864.156808003783226 ], [ 3152234.500122591853142, 1710824.500063166022301 ], [ 3152227.140229180455208, 1710812.222856760025024 ], [ 3152205.500180587172508, 1710776.124831840395927 ], [ 3152194.749874010682106, 1710756.624870836734772 ], [ 3152183.499896511435509, 1710736.999910086393356 ], [ 3152174.846042424440384, 1710719.251586005091667 ], [ 3152168.750254094600677, 1710706.749642506241798 ], [ 3152138.999985501170158, 1710647.500089094042778 ], [ 3152103.893428429961205, 1710578.448718011379242 ], [ 3152071.000121504068375, 1710513.750028505921364 ], [ 3152054.250155001878738, 1710485.37508524954319 ], [ 3152039.049726083874702, 1710461.909909084439278 ], [ 3152033.64356891810894, 1710454.780658259987831 ], [ 3152027.7498799264431, 1710443.624840676784515 ], [ 3152002.749929919838905, 1710401.249925419688225 ], [ 3151972.582011252641678, 1710350.506588593125343 ], [ 3151972.557405009865761, 1710347.076477333903313 ], [ 3151972.304452762007713, 1710311.4935432523489 ], [ 3151972.152878254652023, 1710290.212417840957642 ], [ 3151972.141395345330238, 1710288.606121838092804 ], [ 3151971.510163009166718, 1710199.77427850663662 ], [ 3151971.250321000814438, 1710163.249417170882225 ], [ 3151969.567581593990326, 1710056.601664587855339 ], [ 3151968.999997422099113, 1710020.624702423810959 ], [ 3151969.087595671415329, 1710017.196887761354446 ], [ 3151972.031815513968468, 1709902.015687674283981 ], [ 3151971.82348258793354, 1709822.386253759264946 ], [ 3151973.212259337306023, 1709727.59444859623909 ], [ 3151973.559371501207352, 1709695.650286749005318 ], [ 3151969.999995425343513, 1709634.499818503856659 ], [ 3151964.448169261217117, 1709503.000409588217735 ], [ 3151964.149613425135612, 1709495.889531418681145 ], [ 3151963.746727094054222, 1709487.62740883231163 ], [ 3151962.994760096073151, 1709472.554932415485382 ], [ 3151962.738527, 1709460.828577920794487 ], [ 3151962.639117762446404, 1709457.253453835844994 ], [ 3151962.554800346493721, 1709454.21671450138092 ], [ 3151962.337937250733376, 1709448.951961249113083 ], [ 3151965.949806675314903, 1709448.959835261106491 ], [ 3152267.818953588604927, 1709449.64913834631443 ], [ 3152302.808384925127029, 1709449.729190677404404 ], [ 3152573.365586593747139, 1709450.346643507480621 ], [ 3152601.297289252281189, 1709450.410619750618935 ], [ 3152615.992141753435135, 1709450.444084256887436 ], [ 3152769.685403928160667, 1709450.61140675842762 ], [ 3152926.771047756075859, 1709450.777088835835457 ], [ 3152961.062317758798599, 1709450.814162254333496 ], [ 3153063.087704256176949, 1709450.921773582696915 ], [ 3153096.502007514238358, 1709450.957206591963768 ], [ 3153126.890070095658302, 1709450.991655334830284 ], [ 3153215.98700475692749, 1709451.092376917600632 ], [ 3153245.498428672552109, 1709451.125185251235962 ], [ 3153281.194551512598991, 1709451.166195675730705 ], [ 3153387.15496951341629, 1709451.28594608604908 ], [ 3153422.646696418523788, 1709451.324988007545471 ], [ 3153484.684302002191544, 1709451.391260832548141 ], [ 3153539.189442336559296, 1709451.450315833091736 ], [ 3153539.209783509373665, 1709451.44933158159256 ], [ 3153670.187868013978004, 1709451.591063588857651 ], [ 3153731.942009583115578, 1709451.657008334994316 ], [ 3153759.0042914301157, 1709451.686207756400108 ], [ 3153803.904464095830917, 1709451.734764084219933 ], [ 3153839.107477679848671, 1709451.773149833083153 ], [ 3153865.808211669325829, 1709451.80202117562294 ], [ 3153894.477773755788803, 1709451.833189085125923 ], [ 3153979.921828597784042, 1709451.925708591938019 ], [ 3154008.308254763484001, 1709451.956548422574997 ], [ 3154042.04998517036438, 1709451.993293762207031 ], [ 3154134.227622345089912, 1709452.093359172344208 ], [ 3154511.980803847312927, 1709452.502807170152664 ], [ 3154606.71978759765625, 1709452.605497255921364 ], [ 3154637.471366509795189, 1709452.638633668422699 ], [ 3154654.829599499702454, 1709452.657334417104721 ], [ 3154698.325903594493866, 1709452.704250335693359 ], [ 3154706.032581090927124, 1709452.712780505418777 ], [ 3154880.458741426467896, 1709452.712780505418777 ], [ 3154941.166953340172768, 1709452.712780505418777 ], [ 3155004.969319179654121, 1709452.712780505418777 ], [ 3155196.375432416796684, 1709452.712780505418777 ], [ 3155259.896302759647369, 1709452.712780505418777 ], [ 3155327.071365252137184, 1709452.712780505418777 ], [ 3155528.597865089774132, 1709452.712780505418777 ], [ 3155595.626602426171303, 1709452.712780505418777 ], [ 3155639.617656171321869, 1709452.712780505418777 ], [ 3155651.928983256220818, 1709452.712780505418777 ], [ 3155657.885992333292961, 1709452.712780505418777 ], [ 3155709.660167008638382, 1709452.712780505418777 ], [ 3155771.148889169096947, 1709453.283645510673523 ], [ 3155799.945091426372528, 1709453.550705343484879 ], [ 3155814.833841174840927, 1709453.689812675118446 ], [ 3155822.444390252232552, 1709453.75936633348465 ], [ 3155876.824202761054039, 1709454.26428659260273 ], [ 3156062.036430761218071, 1709455.983115166425705 ], [ 3156123.497922003269196, 1709456.553652092814445 ], [ 3156219.70671908557415, 1709457.388624176383018 ], [ 3156508.065722420811653, 1709459.891571924090385 ], [ 3156603.905753836035728, 1709460.72359125316143 ], [ 3156703.114873006939888, 1709461.584481924772263 ], [ 3156741.025886416435242, 1709461.913877591490746 ], [ 3156999.927599593997002, 1709461.629757419228554 ], [ 3157056.328405424952507, 1709461.567749679088593 ], [ 3157098.860144510865211, 1709461.747867420315742 ], [ 3157129.496238097548485, 1709461.877788424491882 ], [ 3157168.38822066783905, 1709462.042158171534538 ], [ 3157205.241821512579918, 1709462.303312510251999 ], [ 3157223.905498087406158, 1709462.435530096292496 ], [ 3157251.280115261673927, 1709462.629427343606949 ], [ 3157251.127556502819061, 1709442.350596502423286 ], [ 3157250.695470750331879, 1709384.791000336408615 ], [ 3157250.550457924604416, 1709365.479031085968018 ], [ 3157249.743701010942459, 1709258.015663340687752 ], [ 3157247.323430255055428, 1708935.610468253493309 ], [ 3157246.518969923257828, 1708828.503727093338966 ], [ 3157246.474350586533546, 1708822.554263919591904 ], [ 3157246.360505670309067, 1708807.378441259264946 ], [ 3157245.890034168958664, 1708744.719445839524269 ], [ 3157245.738459676504135, 1708724.562333926558495 ], [ 3157247.611487418413162, 1708603.745646417140961 ], [ 3157253.196450009942055, 1708243.5058813393116 ], [ 3157255.044215336441994, 1708124.335516005754471 ], [ 3157255.201367259025574, 1708114.199709504842758 ], [ 3157255.547823250293732, 1708091.859203010797501 ], [ 3157255.630500257015228, 1708086.51636591553688 ], [ 3157255.770919919013977, 1708077.470124170184135 ], [ 3157256.220394089818001, 1708048.468213677406311 ], [ 3157257.042570918798447, 1707995.455196335911751 ], [ 3157260.837510839104652, 1707750.679439172148705 ], [ 3157262.095054253935814, 1707669.548367843031883 ], [ 3157264.494983837008476, 1707582.402216672897339 ], [ 3157271.626203179359436, 1707323.44112041592598 ], [ 3157272.330926179885864, 1707297.855541676282883 ], [ 3157272.97364142537117, 1707274.51602141559124 ], [ 3157273.577314764261246, 1707239.677836507558823 ], [ 3157273.608482673764229, 1707236.849430084228516 ], [ 3157273.88210417330265, 1707212.048298582434654 ], [ 3157273.690831586718559, 1707167.188152089715004 ], [ 3157272.799101084470749, 1706958.084895759820938 ], [ 3157272.707237750291824, 1706936.537038594484329 ], [ 3157273.021541595458984, 1706906.338608175516129 ], [ 3157273.173116087913513, 1706891.763178005814552 ], [ 3157273.203627839684486, 1706888.835690423846245 ], [ 3157273.232827261090279, 1706886.007284000515938 ], [ 3157255.944476008415222, 1706885.760565340518951 ], [ 3157245.80998183786869, 1706885.658859506249428 ], [ 3157236.077061668038368, 1706885.238912835717201 ], [ 3157227.663364589214325, 1706885.180185928940773 ], [ 3157205.504616260528564, 1706885.025002509355545 ], [ 3157130.499845013022423, 1706884.500069171190262 ], [ 3157002.84590083360672, 1706883.439047679305077 ], [ 3156935.000236004590988, 1706882.875072419643402 ], [ 3156886.481632262468338, 1706882.875072419643402 ], [ 3156740.591832175850868, 1706882.875072419643402 ], [ 3156691.680840760469437, 1706882.875072419643402 ], [ 3156670.599518090486526, 1706882.875072419643402 ], [ 3156606.510079339146614, 1706882.875072419643402 ], [ 3156584.999951750040054, 1706882.875072419643402 ], [ 3156432.229916095733643, 1706882.679206669330597 ], [ 3155972.642580673098564, 1706882.089640915393829 ], [ 3155819.466377839446068, 1706881.893119007349014 ], [ 3155817.562510251998901, 1706881.890822425484657 ], [ 3155651.915859922766685, 1706881.678552508354187 ], [ 3155610.249932751059532, 1706881.625074923038483 ], [ 3155447.999929174780846, 1706880.375077426433563 ], [ 3155289.999917089939117, 1706879.249751582741737 ], [ 3155148.769884586334229, 1706879.820616587996483 ], [ 3155132.000233083963394, 1706879.8885298371315 ], [ 3155123.875577419996262, 1706879.92133817076683 ], [ 3155115.750593677163124, 1706879.954146504402161 ], [ 3154980.749879419803619, 1706880.499749094247818 ], [ 3154914.609919846057892, 1706880.231048837304115 ], [ 3154826.999858841300011, 1706879.874750345945358 ], [ 3154814.500211924314499, 1706879.812414512038231 ], [ 3154801.999908834695816, 1706879.750078678131104 ], [ 3154714.756316930055618, 1706879.466614678502083 ], [ 3154647.999888762831688, 1706879.249751582741737 ], [ 3154591.074805751442909, 1706878.760907426476479 ], [ 3154517.000150755047798, 1706878.124753832817078 ], [ 3154418.772000759840012, 1706877.257629588246346 ], [ 3154361.250134170055389, 1706876.749756589531898 ], [ 3154299.599338844418526, 1706877.248115167021751 ], [ 3154114.068541929125786, 1706878.748112171888351 ], [ 3154052.000096499919891, 1706879.249751582741737 ], [ 3153990.088146835565567, 1706878.019439086318016 ], [ 3153894.750082924962044, 1706876.125085920095444 ], [ 3153802.902497589588165, 1706874.264197260141373 ], [ 3153740.499735251069069, 1706873.000092178583145 ], [ 3153678.682601675391197, 1706873.246482759714127 ], [ 3153583.750048756599426, 1706873.625090926885605 ], [ 3153493.151804760098457, 1706873.996481254696846 ], [ 3153431.250025674700737, 1706874.250089675188065 ], [ 3153278.394032180309296, 1706873.573909923434258 ], [ 3152819.65840108692646, 1706871.545698761940002 ], [ 3152666.489744171500206, 1706870.868206664919853 ], [ 3152649.881181597709656, 1706870.795044094324112 ], [ 3152600.128656417131424, 1706870.574900165200233 ], [ 3152583.249753177165985, 1706870.500097170472145 ], [ 3152521.985111922025681, 1706870.000754341483116 ], [ 3152338.158051759004593, 1706868.502397760748863 ], [ 3152276.499710500240326, 1706867.99977408349514 ], [ 3152212.788223758339882, 1706866.25896392762661 ], [ 3152020.552715837955475, 1706861.006677836179733 ], [ 3151985.448783427476883, 1706860.047690257430077 ], [ 3151956.250022917985916, 1706859.249791592359543 ], [ 3151718.68849016726017, 1706858.15432134270668 ], [ 3151005.288670256733894, 1706854.86462976038456 ], [ 3150964.782189592719078, 1706854.677950337529182 ], [ 3150830.555095836520195, 1706854.059185177087784 ], [ 3150804.045634418725967, 1706853.937138170003891 ], [ 3150767.488292843103409, 1706853.768503338098526 ], [ 3150707.054358586668968, 1706853.489960595965385 ], [ 3150630.501362085342407, 1706853.137271001935005 ], [ 3150525.753540083765984, 1706852.654004260897636 ], [ 3150465.25005216896534, 1706852.37513342499733 ], [ 3150396.16816933453083, 1706851.028351336717606 ], [ 3150294.251378417015076, 1706849.041478678584099 ], [ 3150188.460579514503479, 1706846.979146838188171 ], [ 3150118.999760419130325, 1706845.625146925449371 ], [ 3149976.534822255373001, 1706846.598242089152336 ], [ 3149548.128526836633682, 1706849.524089261889458 ], [ 3149405.249875590205193, 1706850.499809086322784 ], [ 3149335.30021233856678, 1706782.280129253864288 ], [ 3149125.973531261086464, 1706578.130275085568428 ], [ 3149056.500245004892349, 1706510.37516126036644 ], [ 3148933.718338340520859, 1706386.817009419202805 ], [ 3148566.424125418066978, 1706017.198654174804688 ], [ 3148443.999501511454582, 1705893.999097421765327 ], [ 3148393.8217803388834, 1705940.192574590444565 ], [ 3148316.500084593892097, 1706011.374846920371056 ], [ 3148242.178382843732834, 1706079.688358590006828 ], [ 3148191.250007003545761, 1706126.499944761395454 ], [ 3148157.040101677179337, 1706160.344693332910538 ], [ 3148094.396198093891144, 1706222.320619255304337 ], [ 3148070.261075749993324, 1706246.198196172714233 ], [ 3148065.460888504981995, 1706250.947530508041382 ], [ 3148053.536699756979942, 1706262.744094833731651 ], [ 3148044.782780259847641, 1706271.404510587453842 ], [ 3148033.923221930861473, 1706282.14825551211834 ], [ 3148021.767406344413757, 1706294.17447817325592 ], [ 3148017.937033429741859, 1706297.963840678334236 ], [ 3148017.625354260206223, 1706298.272238999605179 ], [ 3148007.354377418756485, 1706308.433964088559151 ], [ 3147998.84652042388916, 1706316.850942000746727 ], [ 3147945.250170916318893, 1706369.875114172697067 ], [ 3147896.361489176750183, 1706419.285120338201523 ], [ 3147748.91887067258358, 1706568.301226511597633 ], [ 3147699.250006750226021, 1706618.5002730935812 ], [ 3147650.270774006843567, 1706665.836792588233948 ], [ 3147576.249924674630165, 1706737.375035345554352 ], [ 3147501.934128418564796, 1706809.303369179368019 ], [ 3147451.750173673033714, 1706857.874794334173203 ], [ 3147402.856570675969124, 1706905.772336333990097 ], [ 3147329.000091090798378, 1706978.125210002064705 ], [ 3147254.28206467628479, 1707051.19264917075634 ], [ 3147204.500340089201927, 1707099.874966502189636 ], [ 3147155.047026917338371, 1707148.235106006264687 ], [ 3147005.97941167652607, 1707294.006796091794968 ], [ 3146955.750181421637535, 1707343.125136166810989 ], [ 3146915.423162341117859, 1707382.998744085431099 ], [ 3146792.72491692006588, 1707504.318711414933205 ], [ 3146751.717781096696854, 1707544.865218251943588 ], [ 3146743.730592340230942, 1707552.762512177228928 ], [ 3146719.487202510237694, 1707576.733592838048935 ], [ 3146711.000014752149582, 1707585.124980255961418 ], [ 3146689.739230513572693, 1707608.18234883248806 ], [ 3146685.891797259449959, 1707612.354584589600563 ], [ 3146638.500159755349159, 1707663.749823004007339 ], [ 3146626.27544666826725, 1707680.208451509475708 ], [ 3146606.706260085105896, 1707706.555839762091637 ], [ 3146628.499851673841476, 1707754.125298425555229 ], [ 3146640.364001169800758, 1707781.281740173697472 ], [ 3146646.15500009059906, 1707794.536634922027588 ], [ 3146662.721239924430847, 1707832.45617850124836 ], [ 3146666.999774679541588, 1707842.249794095754623 ], [ 3146676.439716428518295, 1707863.39837384223938 ], [ 3146682.953811004757881, 1707877.992504760622978 ], [ 3146693.000050753355026, 1707900.500005677342415 ], [ 3146722.395989343523979, 1707968.784974083304405 ], [ 3146740.999954760074615, 1708012.000110760331154 ], [ 3146754.500255838036537, 1708049.000036761164665 ], [ 3146767.999900758266449, 1708090.624953508377075 ], [ 3146774.250216335058212, 1708123.999886751174927 ], [ 3146775.88932067155838, 1708142.916187509894371 ], [ 3146776.166223004460335, 1708146.110078752040863 ], [ 3146777.499881759285927, 1708161.499811753630638 ], [ 3146777.499881759285927, 1708195.87474299967289 ], [ 3146778.499879762530327, 1708256.249950334429741 ], [ 3146772.342411756515503, 1708334.75766733288765 ], [ 3146767.999900758266449, 1708390.125010669231415 ], [ 3146766.999902755022049, 1708435.999918922781944 ], [ 3146766.398854091763496, 1708443.71512658894062 ], [ 3146764.000236839056015, 1708474.499841928482056 ], [ 3146757.598346754908562, 1708510.933496087789536 ], [ 3146755.500253841280937, 1708522.874745175242424 ], [ 3146752.220404759049416, 1708545.483951926231384 ], [ 3146750.503872752189636, 1708557.317261591553688 ], [ 3146748.135111093521118, 1708573.644656762480736 ], [ 3146747.763392671942711, 1708576.209284171462059 ], [ 3146747.652172416448593, 1708576.977327257394791 ], [ 3146747.64823542535305, 1708576.999965012073517 ], [ 3146747.480912923812866, 1708578.155146420001984 ], [ 3146745.143647253513336, 1708594.267318919301033 ], [ 3146742.841814592480659, 1708610.135069340467453 ], [ 3146741.788667097687721, 1708617.395881593227386 ], [ 3146738.648253425955772, 1708639.04183566570282 ], [ 3146736.750291347503662, 1708652.125142842531204 ], [ 3146733.662042930722237, 1708672.871820509433746 ], [ 3146725.02295258641243, 1708730.912386834621429 ], [ 3146721.546253502368927, 1708754.269623592495918 ], [ 3146718.999998763203621, 1708771.374904334545135 ], [ 3146712.750011250376701, 1708859.87505541741848 ], [ 3146709.128299340605736, 1708928.59375 ], [ 3146707.750021263957024, 1708954.749865666031837 ], [ 3146711.750013262033463, 1709013.00007726252079 ], [ 3146716.000004753470421, 1709055.24999275803566 ], [ 3146727.809692427515984, 1709100.480545341968536 ], [ 3146732.93829108774662, 1709120.123550668358803 ], [ 3146734.772933095693588, 1709127.150767594575882 ], [ 3146740.999954760074615, 1709150.999801248311996 ], [ 3146746.37035083770752, 1709174.404282003641129 ], [ 3146749.383140087127686, 1709187.53450508415699 ], [ 3146750.846719846129417, 1709193.913429334759712 ], [ 3146757.749921262264252, 1709223.999983340501785 ], [ 3146761.493352085351944, 1709236.427780002355576 ], [ 3146766.379497170448303, 1709250.247962340712547 ], [ 3146771.249894261360168, 1709261.500236421823502 ], [ 3146781.191475421190262, 1709282.854196339845657 ], [ 3146781.203614503145218, 1709282.880114927887917 ], [ 3146791.863042011857033, 1709305.776394590735435 ], [ 3146791.967372506856918, 1709306.000803589820862 ], [ 3146802.500159844756126, 1709328.625102177262306 ], [ 3146804.746546417474747, 1709332.607377678155899 ], [ 3146810.750143334269524, 1709343.250072926282883 ], [ 3146825.490271344780922, 1709373.368122920393944 ], [ 3146829.04407000541687, 1709380.629591345787048 ], [ 3146836.750091344118118, 1709396.374966666102409 ], [ 3146840.615897253155708, 1709405.210907012224197 ], [ 3146847.250070333480835, 1709420.374918669462204 ], [ 3146857.738894507288933, 1709445.269882008433342 ], [ 3146867.000030845403671, 1709467.249824926257133 ], [ 3146870.338278755545616, 1709475.957812756299973 ], [ 3146875.946535259485245, 1709490.586720511317253 ], [ 3146879.741475179791451, 1709500.485650837421417 ], [ 3146887.749989345669746, 1709521.375044748187065 ], [ 3146897.368408426642418, 1709543.656168177723885 ], [ 3146911.06424717605114, 1709575.382154583930969 ], [ 3146934.750223428010941, 1709630.249827012419701 ], [ 3146960.749843344092369, 1709680.250055089592934 ], [ 3146962.114341929554939, 1709682.928527429699898 ], [ 3146974.250144422054291, 1709706.750002086162567 ], [ 3146994.000104919075966, 1709744.249927088618279 ], [ 3147023.250046417117119, 1709791.125161424279213 ], [ 3147049.249994426965714, 1709838.000067666172981 ], [ 3147061.74996942281723, 1709870.375002920627594 ], [ 3147067.151205345988274, 1709884.106274679303169 ], [ 3147076.499939918518066, 1709907.874927923083305 ], [ 3147090.999910920858383, 1709949.50017274916172 ], [ 3147106.500208005309105, 1709992.250087261199951 ], [ 3147124.249844416975975, 1710025.500020757317543 ], [ 3147132.125156760215759, 1710035.437664926052094 ], [ 3147135.160255670547485, 1710039.26738166809082 ], [ 3147139.999812930822372, 1710045.374981001019478 ], [ 3147157.749777421355247, 1710062.499946758151054 ], [ 3147163.997796431183815, 1710068.247638672590256 ], [ 3147170.25008051097393, 1710073.999923750758171 ], [ 3147172.802896916866302, 1710075.938896253705025 ], [ 3147176.32684001326561, 1710078.616056248545647 ], [ 3147187.811725169420242, 1710087.340120166540146 ], [ 3147196.249700427055359, 1710093.750212341547012 ], [ 3147204.500012010335922, 1710103.625192582607269 ], [ 3147212.749995499849319, 1710113.500172838568687 ], [ 3147227.499966010451317, 1710139.625120595097542 ], [ 3147243.000263094902039, 1710174.500050842761993 ], [ 3147251.587188169360161, 1710204.191592499613762 ], [ 3147254.941840261220932, 1710215.79065066576004 ], [ 3147257.74990551173687, 1710225.499948844313622 ], [ 3147260.439204588532448, 1710237.427746504545212 ], [ 3147273.249874502420425, 1710294.25013941526413 ], [ 3147280.738704666495323, 1710325.48564125597477 ], [ 3147282.749855503439903, 1710333.875060170888901 ], [ 3147293.999833002686501, 1710365.624996677041054 ], [ 3147321.25010658800602, 1710422.87488217651844 ], [ 3147327.499766007065773, 1710438.369601845741272 ], [ 3147351.500046089291573, 1710497.875060260295868 ], [ 3147377.499994084239006, 1710582.874890252947807 ], [ 3147392.999963089823723, 1710656.750070586800575 ], [ 3147401.79325258731842, 1710714.501267418265343 ], [ 3147407.749933585524559, 1710753.625204920768738 ], [ 3147413.165605172514915, 1710785.464052006602287 ], [ 3147423.249902591109276, 1710844.750022679567337 ], [ 3147427.313542753458023, 1710893.514032751321793 ], [ 3147429.499890089035034, 1710919.749872669577599 ], [ 3147436.749875590205193, 1710992.750054761767387 ], [ 3147440.000197172164917, 1711056.250255838036537 ], [ 3147440.135367512702942, 1711063.354244261980057 ], [ 3147441.000195175409317, 1711108.87482251226902 ], [ 3147441.000195175409317, 1711171.480012252926826 ], [ 3147441.000195175409317, 1711178.625011086463928 ], [ 3147440.75839775800705, 1711184.440288171172142 ], [ 3147437.749873593449593, 1711256.750182926654816 ], [ 3147435.829929918050766, 1711282.25144425034523 ], [ 3147433.750209674239159, 1711309.874748587608337 ], [ 3147429.499890089035034, 1711360.37497566640377 ], [ 3147426.404095754027367, 1711393.79059125483036 ], [ 3147425.249898597598076, 1711406.2498839199543 ], [ 3147425.249898597598076, 1711427.711127087473869 ], [ 3147425.249898597598076, 1711431.2501620054245 ], [ 3147425.698716595768929, 1711439.724226415157318 ], [ 3147429.499890089035034, 1711511.500001505017281 ], [ 3147440.000197172164917, 1711574.000204592943192 ], [ 3147452.500172168016434, 1711613.000126585364342 ], [ 3147469.000139176845551, 1711661.000030592083931 ], [ 3147484.750107675790787, 1711702.624947339296341 ], [ 3147490.783232092857361, 1711716.9270840883255 ], [ 3147499.250078678131104, 1711737.000206679105759 ], [ 3147527.500022172927856, 1711786.999778583645821 ], [ 3147553.49997016787529, 1711830.750019177794456 ], [ 3147581.499914169311523, 1711871.375266000628471 ], [ 3147615.999845176935196, 1711914.124852418899536 ], [ 3147631.795089170336723, 1711933.923041164875031 ], [ 3147652.500100255012512, 1711959.874760925769806 ], [ 3147683.74970968067646, 1711995.375018000602722 ], [ 3147720.249964758753777, 1712032.875271081924438 ], [ 3147745.24991475045681, 1712055.749897256493568 ], [ 3147778.499848261475563, 1712083.874841004610062 ], [ 3147787.374502420425415, 1712089.624501422047615 ], [ 3147796.250140845775604, 1712095.37481801211834 ], [ 3147875.249982833862305, 1712143.250050336122513 ], [ 3147908.749915838241577, 1712166.625003591179848 ], [ 3148091.124223008751869, 1712332.759185761213303 ], [ 3148171.250047013163567, 1712405.750181511044502 ], [ 3148271.894202679395676, 1712507.492104008793831 ], [ 3148308.750100091099739, 1712544.749903500080109 ], [ 3148422.212799668312073, 1712664.624991834163666 ], [ 3148467.999781593680382, 1712712.999895095825195 ], [ 3148667.366508841514587, 1712902.291511252522469 ], [ 3148725.249923259019852, 1712957.250062748789787 ], [ 3148744.032366007566452, 1712974.821878001093864 ], [ 3148781.499810755252838, 1713009.874957501888275 ], [ 3148799.100497335195541, 1713026.295200258493423 ], [ 3148843.000015839934349, 1713067.249842762947083 ], [ 3148887.749926343560219, 1713116.125073090195656 ], [ 3148935.749830335378647, 1713158.874987587332726 ], [ 3149009.750010430812836, 1713215.625202178955078 ], [ 3149074.249881416559219, 1713264.625104174017906 ], [ 3149123.250111505389214, 1713305.250022917985916 ], [ 3149169.000020012259483, 1713349.000263512134552 ], [ 3149243.855513334274292, 1713416.838054344058037 ], [ 3149258.527071923017502, 1713430.133959501981735 ], [ 3149258.62910583615303, 1713430.226479008793831 ], [ 3149258.490654677152634, 1713453.922953918576241 ], [ 3149283.250119596719742, 1713453.625054255127907 ], [ 3149288.516513258218765, 1713453.652285173535347 ], [ 3151597.036502510309219, 1713462.259879499673843 ], [ 3151625.08828367292881, 1713462.36421000957489 ], [ 3151694.999889254570007, 1713462.625036254525185 ], [ 3151930.500074416399002, 1713694.500228673219681 ], [ 3151978.53573951125145, 1713742.541143089532852 ], [ 3152773.981327086687088, 1714538.077937841415405 ], [ 3153025.249853417277336, 1714789.375007420778275 ], [ 3153260.964933171868324, 1714790.417328178882599 ], [ 3154579.750025257468224, 1714796.249993667006493 ], [ 3154632.995325595140457, 1714796.363182425498962 ], [ 3154621.032423004508018, 1714773.777269586920738 ], [ 3154611.749961256980896, 1714756.249745592474937 ], [ 3154591.767061591148376, 1714721.821664839982986 ], [ 3154548.819969013333321, 1714647.82837450504303 ], [ 3154537.750109255313873, 1714632.124665752053261 ], [ 3154523.24718551337719, 1714606.983639925718307 ], [ 3154499.750185251235962, 1714566.249797508120537 ], [ 3154423.250010177493095, 1714437.625054761767387 ], [ 3154386.250084176659584, 1714375.874850168824196 ], [ 3154382.535524681210518, 1714369.727880835533142 ], [ 3154366.405635669827461, 1714343.033380419015884 ], [ 3154308.000240668654442, 1714246.375109165906906 ], [ 3154271.249986097216606, 1714182.000237926840782 ], [ 3154215.249770000576973, 1714090.625092595815659 ], [ 3154142.24991600215435, 1713966.000013753771782 ], [ 3154067.000066503882408, 1713839.749938175082207 ], [ 3153988.749894917011261, 1713708.374872833490372 ], [ 3153910.250051930546761, 1713576.500136584043503 ], [ 3153894.940371260046959, 1713550.908324256539345 ] ] ] ] } },
{ "type": "Feature", "properties": { "STFID": "08031004102", "STFID_NUM": 8031004102.0, "NAME": "41.02", "TRACTCE": "004102", "GlobalID": "61d39b11-b353-4f63-8dd5-3711467d9913", "geo_id": "1400000US08031004102", "tract_name": "Census Tract 41.02; Denver County; Colorado", "OBJECTID_1": 95, "SVI": 0.977142857, "Shape_Leng": 26726.878776900001, "Shape_Area": 42268423.004000001, "GEOID_2": "8031004102" }, "geometry": { "type": "MultiPolygon", "coordinates": [ [ [ [ 3167659.862316429615021, 1710962.957135334610939 ], [ 3167711.426189675927162, 1710867.314282 ], [ 3167712.963588178157806, 1710864.462581679224968 ], [ 3167739.977313667535782, 1710835.275304093956947 ], [ 3167764.177396506071091, 1710702.470779672265053 ], [ 3167765.928377255797386, 1710692.646652340888977 ], [ 3167778.526449173688889, 1710657.393770083785057 ], [ 3167791.370255500078201, 1710625.359385341405869 ], [ 3167793.220645502209663, 1710620.424027755856514 ], [ 3167795.006075009703636, 1710615.920099750161171 ], [ 3167810.749809920787811, 1710576.499903008341789 ], [ 3167832.592942088842392, 1710516.199498668313026 ], [ 3167834.250091001391411, 1710511.624704673886299 ], [ 3167854.999721422791481, 1710442.874842166900635 ], [ 3167884.249990999698639, 1710360.62533475458622 ], [ 3167922.24991500377655, 1710270.000187918543816 ], [ 3167929.65836475789547, 1710253.601270586252213 ], [ 3167931.821090087294579, 1710248.814206674695015 ], [ 3167946.25019508600235, 1710216.875294178724289 ], [ 3167976.499806508421898, 1710171.999727755784988 ], [ 3168002.500082597136497, 1710138.750122338533401 ], [ 3168011.774670347571373, 1710128.296731173992157 ], [ 3168008.656566336750984, 1710123.889915838837624 ], [ 3167945.683267086744308, 1710028.69916133582592 ], [ 3167919.358516588807106, 1709988.90658999979496 ], [ 3167895.606923669576645, 1709949.688164502382278 ], [ 3167875.023303419351578, 1709915.030753508210182 ], [ 3167847.908200174570084, 1709869.376645341515541 ], [ 3167844.555516585707664, 1709863.731315419077873 ], [ 3167828.230418011546135, 1709833.919367179274559 ], [ 3167823.928589344024658, 1709825.748123675584793 ], [ 3167804.68650184571743, 1709789.261648088693619 ], [ 3167799.97850601375103, 1709780.25543250143528 ], [ 3167799.949962750077248, 1709780.200970679521561 ], [ 3167779.768244594335556, 1709742.879851087927818 ], [ 3167779.316473841667175, 1709741.880837336182594 ], [ 3167778.30007167160511, 1709739.633466511964798 ], [ 3167766.933624595403671, 1709714.500970840454102 ], [ 3167766.459216088056564, 1709713.454385012388229 ], [ 3167766.247602343559265, 1709712.988834753632545 ], [ 3167754.263046249747276, 1709686.751026332378387 ], [ 3167743.706636920571327, 1709655.434487923979759 ], [ 3167726.807720586657524, 1709605.301714166998863 ], [ 3167726.372025921940804, 1709604.085181176662445 ], [ 3167723.664026096463203, 1709596.520891845226288 ], [ 3167723.031809508800507, 1709594.754491165280342 ], [ 3167721.275251343846321, 1709589.84833300113678 ], [ 3167721.108913093805313, 1709589.385735511779785 ], [ 3167701.166367679834366, 1709533.958024844527245 ], [ 3167696.117165178060532, 1709519.924588337540627 ], [ 3167686.265806928277016, 1709495.29701292514801 ], [ 3167683.65656016767025, 1709488.773732006549835 ], [ 3167673.273706927895546, 1709455.547748595476151 ], [ 3167664.96630884706974, 1709419.206285834312439 ], [ 3167655.15497675538063, 1709374.000011429190636 ], [ 3167650.803279429674149, 1709344.281238839030266 ], [ 3167644.904669180512428, 1709303.998511001467705 ], [ 3167643.552637755870819, 1709291.996566504240036 ], [ 3167642.802311167120934, 1709285.336146757006645 ], [ 3167640.181909590959549, 1709237.758814081549644 ], [ 3167640.05264475941658, 1709233.055083334445953 ], [ 3167635.239006087183952, 1709057.831680506467819 ], [ 3167636.081196010112762, 1709003.517484664916992 ], [ 3167636.200618341565132, 1708995.812775671482086 ], [ 3167636.553307920694351, 1708973.058884173631668 ], [ 3167636.793464928865433, 1708957.530700013041496 ], [ 3167636.916824251413345, 1708949.555322259664536 ], [ 3167637.042152091860771, 1708941.445430338382721 ], [ 3167637.216036260128021, 1708928.813237756490707 ], [ 3167637.216036260128021, 1708903.947145760059357 ], [ 3167637.216036260128021, 1708884.825464844703674 ], [ 3167637.610064342617989, 1708858.176568001508713 ], [ 3167640.647787928581238, 1708652.744236081838608 ], [ 3167641.224230334162712, 1708613.754484668374062 ], [ 3167659.250112920999527, 1708596.499597921967506 ], [ 3167641.919438928365707, 1708569.191581666469574 ], [ 3167640.173707500100136, 1708566.440931007266045 ], [ 3167639.788865759968758, 1708539.82090550661087 ], [ 3167636.974566921591759, 1708345.273394346237183 ], [ 3167636.641562342643738, 1708322.251786842942238 ], [ 3167636.043794512748718, 1708280.943142428994179 ], [ 3167636.82922600209713, 1708185.710065171122551 ], [ 3167639.168460175395012, 1707901.951118260622025 ], [ 3167639.932894334197044, 1707809.258718341588974 ], [ 3167639.992277428507805, 1707808.037920251488686 ], [ 3167623.495591253042221, 1707687.924971505999565 ], [ 3167623.112389922142029, 1707685.428585425019264 ], [ 3167622.286604180932045, 1707659.506393179297447 ], [ 3167620.482145845890045, 1707627.392612248659134 ], [ 3167621.325648084282875, 1707589.419591084122658 ], [ 3167621.454256758093834, 1707583.627607926726341 ], [ 3167624.144212007522583, 1707550.67852683365345 ], [ 3167625.344668924808502, 1707535.97284759581089 ], [ 3167632.152398094534874, 1707483.455564171075821 ], [ 3167650.630379512906075, 1707341.463722169399261 ], [ 3167651.747831344604492, 1707329.39976991713047 ], [ 3167655.493886843323708, 1707288.946438759565353 ], [ 3167658.410875752568245, 1707256.852342844009399 ], [ 3167664.246165916323662, 1707203.362620428204536 ], [ 3167666.192028179764748, 1707154.73607724905014 ], [ 3167667.776014506816864, 1707118.304391592741013 ], [ 3167668.136906176805496, 1707109.997977748513222 ], [ 3167668.417089343070984, 1707081.416342005133629 ], [ 3167670.205799669027328, 1706899.068609595298767 ], [ 3167670.578502342104912, 1706865.04669600725174 ], [ 3167671.672332167625427, 1706765.241449415683746 ], [ 3167671.969247594475746, 1706738.141438007354736 ], [ 3167672.028630673885345, 1706732.726094499230385 ], [ 3167672.059470504522324, 1706729.897688090801239 ], [ 3167672.127383753657341, 1706723.720207005739212 ], [ 3167672.442999929189682, 1706694.940080836415291 ], [ 3167672.82226425409317, 1706660.345005676150322 ], [ 3167673.656580179929733, 1706584.206378415226936 ], [ 3167674.05487334728241, 1706547.872461587190628 ], [ 3167674.313731089234352, 1706498.605827838182449 ], [ 3167675.081118002533913, 1706352.533941507339478 ], [ 3167675.332429841160774, 1706304.679706498980522 ], [ 3167679.127697840332985, 1705640.126245588064194 ], [ 3167675.953819677233696, 1705348.064493760466576 ], [ 3167675.617206171154976, 1705244.708729341626167 ], [ 3167681.101775258779526, 1705227.563750505447388 ], [ 3167692.443616092205048, 1705192.10548809170723 ], [ 3167694.349452167749405, 1705062.725825592875481 ], [ 3167695.590591430664062, 1704978.469432428479195 ], [ 3167697.163094833493233, 1704845.28367517888546 ], [ 3167698.748065426945686, 1704711.032959416508675 ], [ 3167700.06761659681797, 1704448.238209426403046 ], [ 3167700.729032590985298, 1704316.584273248910904 ], [ 3167702.744120419025421, 1704184.152123421430588 ], [ 3167708.758216008543968, 1703788.947533249855042 ], [ 3167710.748369500041008, 1703658.158752843737602 ], [ 3167711.050862342119217, 1703522.311255499720573 ], [ 3167711.951779171824455, 1703117.60110692679882 ], [ 3167711.980650514364243, 1703104.595555499196053 ], [ 3167712.250006929039955, 1702983.478343665599823 ], [ 3167642.927310928702354, 1702982.67617991566658 ], [ 3167619.427686005830765, 1702982.403870761394501 ], [ 3167434.618672430515289, 1702980.264767423272133 ], [ 3167398.018023833632469, 1702979.841211840510368 ], [ 3167365.18344384431839, 1702979.460963249206543 ], [ 3167302.492952421307564, 1702978.735242918133736 ], [ 3167114.144903928041458, 1702976.555129170417786 ], [ 3167090.104597672820091, 1702976.27691450715065 ], [ 3167050.149953171610832, 1702975.818910166621208 ], [ 3167006.104765668511391, 1702975.544632509350777 ], [ 3166986.236695170402527, 1702975.420945093035698 ], [ 3166791.133082762360573, 1702974.205396339297295 ], [ 3166725.800864338874817, 1702973.7985730022192 ], [ 3166656.754086419939995, 1702973.529872760176659 ], [ 3166448.997284084558487, 1702972.721475422382355 ], [ 3166417.410076931118965, 1702972.598444178700447 ], [ 3166379.483315512537956, 1702969.622400254011154 ], [ 3166330.204870760440826, 1702972.066949173808098 ], [ 3166310.678663089871407, 1702971.914718508720398 ], [ 3166103.208277508616447, 1702970.298251926898956 ], [ 3166034.088008925318718, 1702969.75953908264637 ], [ 3165968.830265417695045, 1702969.355340421199799 ], [ 3165772.321472093462944, 1702968.138479337096214 ], [ 3165750.025584921240807, 1702968.000684335827827 ], [ 3165706.714319840073586, 1702967.732312172651291 ], [ 3165657.614024341106415, 1702967.427850842475891 ], [ 3165641.877507254481316, 1702967.33008199930191 ], [ 3165446.774551004171371, 1702966.119454503059387 ], [ 3165381.556177511811256, 1702965.714599668979645 ], [ 3165342.191754922270775, 1702965.270702928304672 ], [ 3165224.122765347361565, 1702963.939340755343437 ], [ 3165208.363938584923744, 1702963.761847674846649 ], [ 3165185.128748834133148, 1702963.500037178397179 ], [ 3165159.649141013622284, 1702964.989535510540009 ], [ 3165129.322429999709129, 1702966.818600088357925 ], [ 3165126.076373502612114, 1702967.014137759804726 ], [ 3165093.211609840393066, 1702968.996089175343513 ], [ 3165090.043637171387672, 1702969.187033668160439 ], [ 3165066.276952430605888, 1702970.620429754257202 ], [ 3165042.134612262248993, 1702970.55218842625618 ], [ 3164998.893885090947151, 1702970.430141419172287 ], [ 3164796.475326672196388, 1702969.858948335051537 ], [ 3164728.539767012000084, 1702969.667019590735435 ], [ 3164663.49790233373642, 1702969.193923428654671 ], [ 3164467.834251672029495, 1702967.771354094147682 ], [ 3164453.666301012039185, 1702967.668335929512978 ], [ 3164402.380314335227013, 1702967.295305177569389 ], [ 3164345.450310096144676, 1702966.881592094898224 ], [ 3164337.110103666782379, 1702966.820896670222282 ], [ 3164140.883790090680122, 1702965.394062250852585 ], [ 3164075.324538007378578, 1702964.917685255408287 ], [ 3164007.346327513456345, 1702964.156860008835793 ], [ 3163803.254216000437737, 1702961.872743844985962 ], [ 3163780.719484180212021, 1702961.620775833725929 ], [ 3163734.994181931018829, 1702961.108965843915939 ], [ 3163674.832228749990463, 1702960.613231927156448 ], [ 3163666.350290343165398, 1702960.543350175023079 ], [ 3163459.442567676305771, 1702958.838629171252251 ], [ 3163390.387259587645531, 1702958.269732668995857 ], [ 3163325.346707254648209, 1702958.1745885014534 ], [ 3163129.393359005451202, 1702957.888171762228012 ], [ 3163105.687041595578194, 1702957.853723004460335 ], [ 3163067.425307095050812, 1702957.797292679548264 ], [ 3163063.817702755331993, 1702957.792371422052383 ], [ 3163029.49526484310627, 1702957.491519004106522 ], [ 3162998.664617836475372, 1702957.221834510564804 ], [ 3162803.001951426267624, 1702955.508255258202553 ], [ 3162737.505035176873207, 1702954.934437498450279 ], [ 3162672.562251672148705, 1702954.672955095767975 ], [ 3162501.764364928007126, 1702953.984308168292046 ], [ 3162477.457983091473579, 1702953.984308168292046 ], [ 3162456.131910264492035, 1702953.984308168292046 ], [ 3162412.320974260568619, 1702957.786465927958488 ], [ 3162411.914150923490524, 1703022.147229582071304 ], [ 3162410.670386999845505, 1703217.029057666659355 ], [ 3162410.250112250447273, 1703282.839949667453766 ], [ 3162409.834430679678917, 1703348.528466582298279 ], [ 3162408.577543422579765, 1703547.052675843238831 ], [ 3162408.153003588318825, 1703614.117502331733704 ], [ 3162405.068036004900932, 1703744.831479758024216 ], [ 3162399.812797173857689, 1703967.499669581651688 ], [ 3162399.796064928174019, 1704138.952410668134689 ], [ 3162399.782941594719887, 1704271.06796008348465 ], [ 3162403.954193085432053, 1704296.43339492380619 ], [ 3162403.256687924265862, 1704401.983380675315857 ], [ 3162400.62972466647625, 1704799.395971670746803 ], [ 3162399.749149009585381, 1704932.624707832932472 ], [ 3162399.025069087743759, 1705063.489603593945503 ], [ 3162396.835440918803215, 1705459.083956748247147 ], [ 3162396.102830842137337, 1705591.463285177946091 ], [ 3162392.901721760630608, 1705601.726716086268425 ], [ 3162389.862685844302177, 1705611.471775338053703 ], [ 3162389.052648097276688, 1705722.044388845562935 ], [ 3162386.133034512400627, 1706120.548185005784035 ], [ 3162385.156330421566963, 1706253.866815999150276 ], [ 3162383.328578174114227, 1706513.224893093109131 ], [ 3162380.604174166917801, 1706899.824513584375381 ], [ 3162377.826292589306831, 1707293.844394832849503 ], [ 3162376.775769755244255, 1707442.925133422017097 ], [ 3162375.989025920629501, 1707554.525303915143013 ], [ 3162377.234102174639702, 1707572.173234507441521 ], [ 3162378.75444033741951, 1707593.724044427275658 ], [ 3162379.050043419003487, 1707597.914652839303017 ], [ 3162379.080227091908455, 1707627.898188665509224 ], [ 3162379.08547642827034, 1707633.194766 ], [ 3162379.099255919456482, 1707647.251168340444565 ], [ 3162379.115660086274147, 1707663.236372590065002 ], [ 3162379.164872586727142, 1707712.414095759391785 ], [ 3162379.182589083909988, 1707729.874690756201744 ], [ 3162379.162576004862785, 1707815.504440754652023 ], [ 3162379.10220867395401, 1708074.508844003081322 ], [ 3162379.092038094997406, 1708117.968074679374695 ], [ 3162379.082195594906807, 1708160.844301253557205 ], [ 3162379.066775679588318, 1708224.959986671805382 ], [ 3162379.066775679588318, 1708225.585641592741013 ], [ 3162378.82563441991806, 1708258.288004010915756 ], [ 3162378.638955011963844, 1708283.601273596286774 ], [ 3162375.912910595536232, 1708652.965364262461662 ], [ 3162374.999526590108871, 1708776.711179748177528 ], [ 3162374.835156843066216, 1708800.857128843665123 ], [ 3162374.308583095669746, 1708878.291357174515724 ], [ 3162374.300052925944328, 1708901.550168916583061 ], [ 3162374.290866583585739, 1708925.466787755489349 ], [ 3162374.233780086040497, 1708929.446766674518585 ], [ 3162373.948347583413124, 1708949.390296339988708 ], [ 3162373.717376917600632, 1708965.528387427330017 ], [ 3162373.663243174552917, 1708973.518857002258301 ], [ 3162373.375842168927193, 1709015.773693755269051 ], [ 3162373.173742845654488, 1709045.554802179336548 ], [ 3162372.640279337763786, 1709223.410745665431023 ], [ 3162371.99067434668541, 1709440.139314845204353 ], [ 3162371.328274086117744, 1709661.331129670143127 ], [ 3162371.036936089396477, 1709758.530082255601883 ], [ 3162370.499863669276237, 1709937.749868169426918 ], [ 3162369.75183367729187, 1710127.175342336297035 ], [ 3162369.289236173033714, 1710244.23088251054287 ], [ 3162367.501510083675385, 1710697.262784838676453 ], [ 3162366.749215006828308, 1710887.876576840877533 ], [ 3162366.750199258327484, 1710896.125248 ], [ 3163001.681672170758247, 1710901.938884675502777 ], [ 3163647.954001680016518, 1710907.856523752212524 ], [ 3163881.892182096838951, 1710909.99857984483242 ], [ 3163919.756607666611671, 1710910.345363914966583 ], [ 3164041.333464249968529, 1710911.458550676703453 ], [ 3164054.469592839479446, 1710911.578629165887833 ], [ 3164108.523290500044823, 1710912.074035003781319 ], [ 3164154.911977261304855, 1710912.498574838042259 ], [ 3164170.185240671038628, 1710912.638338342308998 ], [ 3164189.308562010526657, 1710912.813534840941429 ], [ 3164222.486973345279694, 1710913.117339998483658 ], [ 3164225.676599502563477, 1710913.14653941988945 ], [ 3164324.237754091620445, 1710914.048768594861031 ], [ 3164335.996260762214661, 1710914.156708002090454 ], [ 3164390.943001255393028, 1710914.659659758210182 ], [ 3164610.472745925188065, 1710916.669826343655586 ], [ 3164629.554728761315346, 1710916.844366669654846 ], [ 3164676.984095841646194, 1710917.278749004006386 ], [ 3164728.327825173735619, 1710917.748892426490784 ], [ 3164882.031914085149765, 1710919.156369924545288 ], [ 3165001.499522924423218, 1710920.250199750065804 ], [ 3165004.865001752972603, 1710920.273821756243706 ], [ 3165008.504758253693581, 1710920.299740344285965 ], [ 3165018.119568422436714, 1710920.366669341921806 ], [ 3165113.037685677409172, 1710921.032350420951843 ], [ 3165202.717296347022057, 1710921.661286175251007 ], [ 3165271.296883583068848, 1710922.141928255558014 ], [ 3165602.615118592977524, 1710924.465086340904236 ], [ 3165606.806055083870888, 1710924.494613841176033 ], [ 3165615.247639253735542, 1710924.553668841719627 ], [ 3165795.454956009984016, 1710925.817117750644684 ], [ 3165960.545833170413971, 1710926.974595755338669 ], [ 3165967.141620501875877, 1710927.020855501294136 ], [ 3166615.061584502458572, 1710931.56382542848587 ], [ 3166652.051996096968651, 1710931.823339343070984 ], [ 3166731.010171502828598, 1710932.376815915107727 ], [ 3166754.112159430980682, 1710932.538889095187187 ], [ 3167005.023403003811836, 1710934.298071920871735 ], [ 3167010.000755250453949, 1710934.332848757505417 ], [ 3167013.455472752451897, 1710934.357126921415329 ], [ 3167640.000151425600052, 1710938.750162750482559 ], [ 3167639.997854843735695, 1710938.782971084117889 ], [ 3167660.403653919696808, 1710938.549375757575035 ], [ 3167659.862316429615021, 1710962.957135334610939 ] ] ] ] } },
{ "type": "Feature", "properties": { "STFID": "08031008306", "STFID_NUM": 8031008306.0, "NAME": "83.06", "TRACTCE": "008306", "GlobalID": "5012f0a9-4150-4070-84a7-7c59f5d2e098", "geo_id": "1400000US08031008306", "tract_name": "Census Tract 83.06; Denver County; Colorado", "OBJECTID_1": 164, "SVI": 0.988571429, "Shape_Leng": 15586.033676499999, "Shape_Area": 14715172.0222, "GEOID_2": "8031008306" }, "geometry": { "type": "MultiPolygon", "coordinates": [ [ [ [ 3187484.324635922908783, 1710551.62528084218502 ], [ 3187437.156095087528229, 1710525.115819424390793 ], [ 3187296.421140342950821, 1710446.020833253860474 ], [ 3187249.608569920063019, 1710419.711830750107765 ], [ 3187204.77204541862011, 1710394.194821417331696 ], [ 3187071.245409592986107, 1710318.203831672668457 ], [ 3187026.891823753714561, 1710292.96175616979599 ], [ 3186964.380137756466866, 1710257.581905677914619 ], [ 3186777.150525346398354, 1710151.614597916603088 ], [ 3186714.858983263373375, 1710116.359090998768806 ], [ 3186670.010647758841515, 1710099.491998761892319 ], [ 3186651.043166011571884, 1710092.358482837677002 ], [ 3186607.555064007639885, 1710079.931670427322388 ], [ 3186533.448256835341454, 1710058.595427006483078 ], [ 3186487.961799263954163, 1710045.499324589967728 ], [ 3186463.636060506105423, 1710039.112854421138763 ], [ 3186391.321900680661201, 1710020.127984255552292 ], [ 3186366.893471837043762, 1710013.714611262083054 ], [ 3186318.576967418193817, 1710000.614243760704994 ], [ 3186173.64582684636116, 1709961.31707826256752 ], [ 3186125.321776509284973, 1709948.214414179325104 ], [ 3186040.146750003099442, 1709925.656716510653496 ], [ 3186016.332165092229843, 1709918.409027591347694 ], [ 3185992.517252087593079, 1709907.018630415201187 ], [ 3185987.114375755190849, 1709904.174804091453552 ], [ 3185972.844063088297844, 1709896.664320424199104 ], [ 3185945.922857090830803, 1709875.957340836524963 ], [ 3185927.286083340644836, 1709859.389132499694824 ], [ 3185663.137005344033241, 1709546.828734010457993 ], [ 3185558.216283425688744, 1709422.678719833493233 ], [ 3185455.311633586883545, 1709509.881629422307014 ], [ 3185041.710754752159119, 1709860.37338250875473 ], [ 3185016.940463095903397, 1709881.363826096057892 ], [ 3184996.561894923448563, 1709898.06687667965889 ], [ 3184985.006143763661385, 1709907.538314417004585 ], [ 3184946.988831341266632, 1709938.699341341853142 ], [ 3184888.008962422609329, 1709986.140191331505775 ], [ 3184816.472688168287277, 1710047.418612092733383 ], [ 3184813.867378428578377, 1710049.170577093958855 ], [ 3184764.510849833488464, 1710082.35883092880249 ], [ 3184753.449848338961601, 1710089.245628178119659 ], [ 3184717.028333261609077, 1710111.922748178243637 ], [ 3184673.129799008369446, 1710136.111676171422005 ], [ 3184662.898192167282104, 1710140.834107667207718 ], [ 3184638.189580172300339, 1710152.238284334540367 ], [ 3184379.035899013280869, 1710255.068131178617477 ], [ 3184283.996062844991684, 1710292.779013752937317 ], [ 3184227.897421762347221, 1710315.038483679294586 ], [ 3184161.266977593302727, 1710341.476750999689102 ], [ 3184058.720922842621803, 1710382.166302174329758 ], [ 3184002.291901841759682, 1710404.556677341461182 ], [ 3183921.705776929855347, 1710436.532663255929947 ], [ 3183908.194649085402489, 1710441.893873006105423 ], [ 3183800.522292256355286, 1710484.617212757468224 ], [ 3183760.206756085157394, 1710499.847825333476067 ], [ 3183725.26784959435463, 1710512.390123084187508 ], [ 3183692.1196219176054, 1710519.557431593537331 ], [ 3183671.514020085334778, 1710522.245746418833733 ], [ 3183651.802773430943489, 1710524.03642526268959 ], [ 3183621.371731922030449, 1710525.521330416202545 ], [ 3183615.071875751018524, 1710525.828744500875473 ], [ 3183522.582887500524521, 1710525.139113336801529 ], [ 3183521.216092333197594, 1710614.693396165966988 ], [ 3183517.07961767911911, 1710885.689573332667351 ], [ 3183515.695105999708176, 1710976.387226581573486 ], [ 3183514.855540752410889, 1711031.386460423469543 ], [ 3183513.552721843123436, 1711116.733730673789978 ], [ 3183512.325690180063248, 1711197.116115838289261 ], [ 3183511.480547502636909, 1711252.482146844267845 ], [ 3183511.369327262043953, 1711259.766909167170525 ], [ 3183511.030089095234871, 1711281.98405633866787 ], [ 3183510.913291424512863, 1711289.635287761688232 ], [ 3183508.778125092387199, 1711429.502790167927742 ], [ 3183502.373610347509384, 1711849.109890595078468 ], [ 3183501.23417691886425, 1711923.743599593639374 ], [ 3183501.191198006272316, 1711926.57200600206852 ], [ 3183500.723679259419441, 1711957.201866000890732 ], [ 3183500.220071345567703, 1711987.632579416036606 ], [ 3183499.185296505689621, 1712050.172808676958084 ], [ 3183496.148557171225548, 1712233.750525504350662 ], [ 3183495.129858419299126, 1712295.309785589575768 ], [ 3183494.400857254862785, 1712339.381547838449478 ], [ 3183492.213525667786598, 1712471.603068172931671 ], [ 3183491.484196424484253, 1712515.677455082535744 ], [ 3183490.604605004191399, 1712568.85484217107296 ], [ 3183487.959269091486931, 1712728.758721843361855 ], [ 3183487.073444083333015, 1712782.305202677845955 ], [ 3183486.242080926895142, 1712832.56920975446701 ], [ 3183483.747335255146027, 1712983.367792665958405 ], [ 3183482.898583680391312, 1713034.680026009678841 ], [ 3183619.001986011862755, 1713036.447739005088806 ], [ 3184026.177680835127831, 1713041.736770421266556 ], [ 3184161.933971002697945, 1713043.500546425580978 ], [ 3184212.202571257948875, 1713044.186240583658218 ], [ 3184362.257389262318611, 1713046.233480587601662 ], [ 3184412.276974260807037, 1713046.91589392721653 ], [ 3184462.571821168065071, 1713047.811233341693878 ], [ 3184612.906822338700294, 1713050.488065257668495 ], [ 3184662.727588847279549, 1713051.375530675053596 ], [ 3184712.94861701130867, 1713051.941802501678467 ], [ 3184863.286899000406265, 1713053.637009084224701 ], [ 3184912.869148924946785, 1713054.196063086390495 ], [ 3184963.594441175460815, 1713055.343698590993881 ], [ 3185114.76244592666626, 1713058.762655004858971 ], [ 3185165.052371591329575, 1713059.899791836738586 ], [ 3185216.48468342423439, 1713060.889619261026382 ], [ 3185369.906292587518692, 1713063.842369258403778 ], [ 3185420.950809925794601, 1713064.824322670698166 ], [ 3185487.938864916563034, 1713065.367628678679466 ], [ 3185595.540683835744858, 1713066.240002259612083 ], [ 3185634.232863679528236, 1713067.138622507452965 ], [ 3185668.427677169442177, 1713069.839732587337494 ], [ 3185688.478162005543709, 1713071.60810175538063 ], [ 3185699.022760346531868, 1713072.538546085357666 ], [ 3185754.438988089561462, 1713084.352170750498772 ], [ 3185794.004197672009468, 1713099.235999256372452 ], [ 3185813.705601841211319, 1713106.647401750087738 ], [ 3185851.115960091352463, 1713126.955760091543198 ], [ 3185888.526318341493607, 1713150.470804914832115 ], [ 3185906.524641931056976, 1713165.145644336938858 ], [ 3185942.04392783343792, 1713194.106872498989105 ], [ 3185979.853235423564911, 1713226.670455679297447 ], [ 3186094.280500009655952, 1713325.223080083727837 ], [ 3186132.561591416597366, 1713358.193158507347107 ], [ 3186170.317093342542648, 1713390.181283503770828 ], [ 3186284.480907008051872, 1713486.905827581882477 ], [ 3186322.680961847305298, 1713519.270264178514481 ], [ 3186393.692958921194077, 1713579.852492094039917 ], [ 3186481.750525593757629, 1713654.977013751864433 ], [ 3186492.973272174596786, 1713662.994386166334152 ], [ 3186504.196346834301949, 1713671.011758595705032 ], [ 3186529.850166916847229, 1713684.907400086522102 ], [ 3186542.14115284383297, 1713689.716773673892021 ], [ 3186554.432138755917549, 1713694.526475340127945 ], [ 3186581.155838593840599, 1713702.009400010108948 ], [ 3186594.516376167535782, 1713703.612415179610252 ], [ 3186607.877241834998131, 1713705.215758427977562 ], [ 3186625.654109179973602, 1713705.388002172112465 ], [ 3186674.226190507411957, 1713705.859457924962044 ], [ 3186710.666734427213669, 1713706.213131755590439 ], [ 3186741.830714091658592, 1713735.67829592525959 ], [ 3186783.653465092182159, 1713735.745553001761436 ], [ 3186982.027412176132202, 1713736.06510616838932 ], [ 3187026.406260430812836, 1713736.06510616838932 ], [ 3187059.333688005805016, 1713733.201594844460487 ], [ 3187104.01765376329422, 1713727.314795583486557 ], [ 3187150.954895839095116, 1713716.023151502013206 ], [ 3187156.143205672502518, 1713714.170136839151382 ], [ 3187191.039133250713348, 1713701.706579089164734 ], [ 3187303.884708091616631, 1713644.319882839918137 ], [ 3187352.300949841737747, 1713619.69788484275341 ], [ 3187401.035432428121567, 1713593.849839419126511 ], [ 3187545.668345257639885, 1713517.13903483748436 ], [ 3187593.207948341965675, 1713491.924518331885338 ], [ 3187641.868612170219421, 1713466.482968166470528 ], [ 3187786.276131764054298, 1713390.981478750705719 ], [ 3187833.87708643078804, 1713366.094061344861984 ], [ 3187881.407503172755241, 1713341.152838259935379 ], [ 3188022.832089096307755, 1713266.940388262271881 ], [ 3188069.336261168122292, 1713242.537549927830696 ], [ 3188117.627175092697144, 1713217.379791840910912 ], [ 3188261.184630751609802, 1713142.593196004629135 ], [ 3188308.474234342575073, 1713117.957418501377106 ], [ 3188357.182142168283463, 1713092.442705750465393 ], [ 3188501.532575249671936, 1713016.827699512243271 ], [ 3188549.239828929305077, 1712991.83726392686367 ], [ 3188599.203639760613441, 1712965.556148499250412 ], [ 3188747.559642255306244, 1712887.519559174776077 ], [ 3188796.491959095001221, 1712861.781093582510948 ], [ 3188782.707537844777107, 1712835.660082831978798 ], [ 3188781.388970926403999, 1712833.157463178038597 ], [ 3188768.939520761370659, 1712809.530870005488396 ], [ 3188710.000334173440933, 1712697.125583007931709 ], [ 3188451.498554587364197, 1712204.123944342136383 ], [ 3188365.576154261827469, 1712040.257474169135094 ], [ 3188284.170149087905884, 1711884.982522249221802 ], [ 3188040.589927583932877, 1711420.375839918851852 ], [ 3187959.718042090535164, 1711266.120242923498154 ], [ 3187945.150485917925835, 1711240.15933683514595 ], [ 3187931.293230175971985, 1711213.828680843114853 ], [ 3187875.427200168371201, 1711107.674037501215935 ], [ 3187724.311688750982285, 1710820.528942510485649 ], [ 3187694.743178337812424, 1710764.343359336256981 ], [ 3187692.351450845599174, 1710759.918499425053596 ], [ 3187674.034886419773102, 1710726.033068507909775 ], [ 3187649.183886259794235, 1710689.794295832514763 ], [ 3187624.333870336413383, 1710660.801899760961533 ], [ 3187611.534027174115181, 1710647.468265011906624 ], [ 3187599.485494837164879, 1710634.91710901260376 ], [ 3187571.528201669454575, 1710609.031005918979645 ], [ 3187551.247074261307716, 1710595.04415725171566 ], [ 3187541.500702679157257, 1710588.322714000940323 ], [ 3187523.343914836645126, 1710576.668865919113159 ], [ 3187484.324635922908783, 1710551.62528084218502 ] ] ] ] } }
]
}
