{
"type": "FeatureCollection",
"name": "Food_Assistance",
"crs": { "type": "name", "properties": { "name": "urn:ogc:def:crs:OGC:1.3:CRS84" } },
"features": [
{ "type": "Feature", "properties": { "ObjectID": 1, "Food Pantry Name": "Ambassadors for Christ", "Full Address": "3052 Stout St Denver, CO 80205", "Address": "3052 Stout St", "City": "Denver", "Zip": "80205", "County": "Denver", "Longitude": -104.9749816, "Latitude": 39.75946551, "Type": "Food Pantry", "GlobalID": "75dde2e6-8118-4e59-a625-4a23855aa939", "x": 3147605.0, "y": 1701941.993 }, "geometry": { "type": "Point", "coordinates": [ -104.9749816, 39.75946551 ] } },
{ "type": "Feature", "properties": { "ObjectID": 2, "Food Pantry Name": "All Brothers In Christ", "Full Address": "4920 Washington St Denver, CO 80216", "Address": "4920 Washington St", "City": "Denver", "Zip": "80216", "County": "Denver", "Longitude": -104.9780129, "Latitude": 39.78626627, "Type": "Food Pantry", "GlobalID": "6214aab1-fc1c-46d5-961b-e099c0f7b3f4", "x": 3146696.684, "y": 1711699.727 }, "geometry": { "type": "Point", "coordinates": [ -104.9780129, 39.78626627 ] } },
{ "type": "Feature", "properties": { "ObjectID": 3, "Food Pantry Name": "Agape Christian Church", "Full Address": "2501 California St Denver, CO 80205", "Address": "2501 California St", "City": "Denver", "Zip": "80205", "County": "Denver", "Longitude": -104.9813677, "Latitude": 39.75390974, "Type": "Food Pantry", "GlobalID": "a956bb9e-2dc6-43d8-bc25-6cdf486f5da1", "x": 3145821.174, "y": 1699907.905 }, "geometry": { "type": "Point", "coordinates": [ -104.9813677, 39.75390974 ] } },
{ "type": "Feature", "properties": { "ObjectID": 4, "Food Pantry Name": "Anchor of Hope Church-SAY Yes", "Full Address": "2101 High St. Denver, CO 80205", "Address": "2101 High St.", "City": "Denver", "Zip": "80205", "County": "Denver", "Longitude": -104.9649013, "Latitude": 39.74836654, "Type": "Food Pantry", "GlobalID": "8ef8ce4d-00e5-499e-ad5b-2d7173149e00", "x": 3150462.79, "y": 1697915.567 }, "geometry": { "type": "Point", "coordinates": [ -104.9649013, 39.74836654 ] } },
{ "type": "Feature", "properties": { "ObjectID": 5, "Food Pantry Name": "Archway Communities Mosaic Community Campus", "Full Address": "7150 Montview Boulevard Denver, CO 80220-1800", "Address": "7150 Montview Boulevard", "City": "Denver", "Zip": "80220-1800", "County": "Denver", "Longitude": -104.9049713, "Latitude": 39.74631204, "Type": "Food Pantry", "GlobalID": "6d6ec707-b350-42aa-9ffd-7b13720b59c4", "x": 3167319.001, "y": 1697272.006 }, "geometry": { "type": "Point", "coordinates": [ -104.9049713, 39.74631204 ] } },
{ "type": "Feature", "properties": { "ObjectID": 6, "Food Pantry Name": "Archway Housing - Cornerstone", "Full Address": "1001 Park Ave West Denver, CO 80205-2605", "Address": "1001 Park Ave West", "City": "Denver", "Zip": "80205-2605", "County": "Denver", "Longitude": -104.9862455, "Latitude": 39.75404745, "Type": "Food Pantry", "GlobalID": "7c13e288-901c-446d-941a-de7a41676203", "x": 3144449.425, "y": 1699950.276 }, "geometry": { "type": "Point", "coordinates": [ -104.9862455, 39.75404745 ] } },
{ "type": "Feature", "properties": { "ObjectID": 7, "Food Pantry Name": "Appointed Seed Ministry", "Full Address": "175 S Julian St. Denver, CO 80219-1943", "Address": "175 S Julian St.", "City": "Denver", "Zip": "80219-1943", "County": "Denver", "Longitude": -105.0315912, "Latitude": 39.71356203, "Type": "Food Pantry", "GlobalID": "ef87d50c-dcad-4977-9adf-fc70f1c3a2f1", "x": 3131775.999, "y": 1685134.001 }, "geometry": { "type": "Point", "coordinates": [ -105.0315912, 39.71356203 ] } },
{ "type": "Feature", "properties": { "ObjectID": 8, "Food Pantry Name": "Bayaud Enterprises", "Full Address": "313 W Bayaud Ave Denver, CO 80223-1801", "Address": "313 W Bayaud Ave", "City": "Denver", "Zip": "80223-1801", "County": "Denver", "Longitude": -104.9929844, "Latitude": 39.71504366, "Type": "Food Pantry", "GlobalID": "1732a673-1f7b-4bf0-b2d3-11612f99d7cc", "x": 3142634.004, "y": 1685732.008 }, "geometry": { "type": "Point", "coordinates": [ -104.9929844, 39.71504366 ] } },
{ "type": "Feature", "properties": { "ObjectID": 9, "Food Pantry Name": "Barnum Elementary School", "Full Address": "85 Hooker St Denver, CO 80219", "Address": "85 Hooker St", "City": "Denver", "Zip": "80219", "County": "Denver", "Longitude": -105.029408, "Latitude": 39.71735828, "Type": "Food Pantry", "GlobalID": "768d5341-f19f-4b2a-8570-66f723330c01", "x": 3132383.009, "y": 1686520.0 }, "geometry": { "type": "Point", "coordinates": [ -105.029408, 39.71735828 ] } },
{ "type": "Feature", "properties": { "ObjectID": 10, "Food Pantry Name": "Bethlehem Missionary Baptist", "Full Address": "3212 High St Denver, CO 80205-4062", "Address": "3212 High St", "City": "Denver", "Zip": "80205-4062", "County": "Denver", "Longitude": -104.9643929, "Latitude": 39.76221247, "Type": "Food Pantry", "GlobalID": "fb08332c-1be9-4cee-a0da-a4194f674d27", "x": 3150575.997, "y": 1702959.993 }, "geometry": { "type": "Point", "coordinates": [ -104.9643929, 39.76221247 ] } },
{ "type": "Feature", "properties": { "ObjectID": 11, "Food Pantry Name": "Beyond Hunger - YMCA Denver", "Full Address": "5181 West Kenyon Avenue Denver, CO 80236", "Address": "5181 West Kenyon Avenue", "City": "Denver", "Zip": "80236", "County": "Denver", "Longitude": -105.0476718, "Latitude": 39.65133379, "Type": "Food Pantry", "GlobalID": "dedc5436-d0b2-49ea-a78b-84a4a954ed3e", "x": 3127364.993, "y": 1662444.003 }, "geometry": { "type": "Point", "coordinates": [ -105.0476718, 39.65133379 ] } },
{ "type": "Feature", "properties": { "ObjectID": 12, "Food Pantry Name": "Bienvenidos Food Bank", "Full Address": "3810 N Pecos St Denver, CO 80211-3318", "Address": "3810 N Pecos St", "City": "Denver", "Zip": "80211-3318", "County": "Denver", "Longitude": -105.0063179, "Latitude": 39.76959412, "Type": "Food Pantry", "GlobalID": "cc59f5fa-74ce-49c2-a364-6efe576934d5", "x": 3138775.067, "y": 1705582.116 }, "geometry": { "type": "Point", "coordinates": [ -105.0063179, 39.76959412 ] } },
{ "type": "Feature", "properties": { "ObjectID": 13, "Food Pantry Name": "Bill Roberts PTA", "Full Address": "2100 Akron Way Denver, CO 80238-3087", "Address": "2100 Akron Way", "City": "Denver", "Zip": "80238-3087", "County": "Denver", "Longitude": -104.8831233, "Latitude": 39.74833317, "Type": "Food Pantry", "GlobalID": "a0a00961-a5fb-4085-84b5-50d998aef4ed", "x": 3173457.431, "y": 1698049.204 }, "geometry": { "type": "Point", "coordinates": [ -104.8831233, 39.74833317 ] } },
{ "type": "Feature", "properties": { "ObjectID": 14, "Food Pantry Name": "Boys and Girls Club Broncos", "Full Address": "4397 Crown Blvd Denver, CO 80239-4821", "Address": "4397 Crown Blvd", "City": "Denver", "Zip": "80239-4821", "County": "Denver", "Longitude": -104.839573, "Latitude": 39.78005397, "Type": "Food Pantry", "GlobalID": "79b72431-3be5-4748-ab6f-79c994e6f523", "x": 3185618.995, "y": 1709689.996 }, "geometry": { "type": "Point", "coordinates": [ -104.839573, 39.78005397 ] } },
{ "type": "Feature", "properties": { "ObjectID": 15, "Food Pantry Name": "Birdseed Collective", "Full Address": "4496 Grant Street  Denver, CO 80216-3513", "Address": "4496 Grant Street ", "City": "Denver", "Zip": "80216-3513", "County": "Denver", "Longitude": -104.9832739, "Latitude": 39.77814513, "Type": "Food Pantry", "GlobalID": "7d927dbb-f855-468d-8286-6539a046a277", "x": 3145235.007, "y": 1708732.996 }, "geometry": { "type": "Point", "coordinates": [ -104.9832739, 39.77814513 ] } },
{ "type": "Feature", "properties": { "ObjectID": 16, "Food Pantry Name": "Bradley PTO", "Full Address": "3051 S Elm St Denver, CO 80222-7339", "Address": "3051 S Elm St", "City": "Denver", "Zip": "80222-7339", "County": "Denver", "Longitude": -104.9298164, "Latitude": 39.66278886, "Type": "Food Pantry", "GlobalID": "2e82426b-5c59-41de-bc3c-ec0e0919ed6f", "x": 3160523.724, "y": 1666803.282 }, "geometry": { "type": "Point", "coordinates": [ -104.9298164, 39.66278886 ] } },
{ "type": "Feature", "properties": { "ObjectID": 17, "Food Pantry Name": "Bridgeway Church", "Full Address": "5201 E. Warren Ave Denver, CO 80222", "Address": "5201 E. Warren Ave", "City": "Denver", "Zip": "80222", "County": "Denver", "Longitude": -104.9270958, "Latitude": 39.67700398, "Type": "Food Pantry", "GlobalID": "2460dcc0-0f5f-4f17-a8e2-5d316055a498", "x": 3161256.99, "y": 1671985.996 }, "geometry": { "type": "Point", "coordinates": [ -104.9270958, 39.67700398 ] } },
{ "type": "Feature", "properties": { "ObjectID": 18, "Food Pantry Name": "Calvary Temple Christian Church", "Full Address": "4338 Lipan St Denver, CO 80211-2451", "Address": "4338 Lipan St", "City": "Denver", "Zip": "80211-2451", "County": "Denver", "Longitude": -105.0016254, "Latitude": 39.77617081, "Type": "Food Pantry", "GlobalID": "06b9ca25-48df-42ca-9229-468e778fb3f2", "x": 3140080.991, "y": 1707984.996 }, "geometry": { "type": "Point", "coordinates": [ -105.0016254, 39.77617081 ] } },
{ "type": "Feature", "properties": { "ObjectID": 19, "Food Pantry Name": "Capitol Hill Community Services", "Full Address": "1820 Broadway Denver, CO 80202-2892", "Address": "1820 Broadway", "City": "Denver", "Zip": "80202-2892", "County": "Denver", "Longitude": -104.9871775, "Latitude": 39.74513305, "Type": "Food Pantry", "GlobalID": "62ded848-bc0a-46c6-b1ec-f8ff6c76bfed", "x": 3144205.719, "y": 1696701.596 }, "geometry": { "type": "Point", "coordinates": [ -104.9871775, 39.74513305 ] } },
{ "type": "Feature", "properties": { "ObjectID": 20, "Food Pantry Name": "Capitol Hill Comm Serv Agape Christian Church", "Full Address": "2501 California St Denver, CO 80205-2929", "Address": "2501 California St", "City": "Denver", "Zip": "80205-2929", "County": "Denver", "Longitude": -104.9813677, "Latitude": 39.75390974, "Type": "Food Pantry", "GlobalID": "ef25b73a-92e1-40dc-9d5b-7a6114a49370", "x": 3145821.174, "y": 1699907.905 }, "geometry": { "type": "Point", "coordinates": [ -104.9813677, 39.75390974 ] } },
{ "type": "Feature", "properties": { "ObjectID": 21, "Food Pantry Name": "Cathedral of the Immaculate Conception", "Full Address": "1535 Logan St. Denver, CO 80203", "Address": "1535 Logan St.", "City": "Denver", "Zip": "80203", "County": "Denver", "Longitude": -104.9826645, "Latitude": 39.74067258, "Type": "Food Pantry", "GlobalID": "66c1cf14-9a64-4aab-b3ba-500eec1140f4", "x": 3145484.008, "y": 1695084.004 }, "geometry": { "type": "Point", "coordinates": [ -104.9826645, 39.74067258 ] } },
{ "type": "Feature", "properties": { "ObjectID": 22, "Food Pantry Name": "Campbell Chapel AME Church", "Full Address": "1500 E 22nd Ave. Denver, CO 80205", "Address": "1500 E 22nd Ave.", "City": "Denver", "Zip": "80205", "County": "Denver", "Longitude": -104.9693077, "Latitude": 39.74919203, "Type": "Food Pantry", "GlobalID": "ca38f567-5ff5-4a50-9ac4-a35fb1baddfb", "x": 3149222.012, "y": 1698208.995 }, "geometry": { "type": "Point", "coordinates": [ -104.9693077, 39.74919203 ] } },
{ "type": "Feature", "properties": { "ObjectID": 23, "Food Pantry Name": "Catholic Charities and Community Services of the Archdiocese of Denver, Inc", "Full Address": "6240 Smith Rd Denver, CO 80216", "Address": "6240 Smith Rd", "City": "Denver", "Zip": "80216", "County": "Denver", "Longitude": -104.915348, "Latitude": 39.77298112, "Type": "Food Pantry", "GlobalID": "9cba10f1-146e-458c-984f-e899b7bdd9ea", "x": 3164338.622, "y": 1706967.651 }, "geometry": { "type": "Point", "coordinates": [ -104.915348, 39.77298112 ] } },
{ "type": "Feature", "properties": { "ObjectID": 24, "Food Pantry Name": "Catholic Charities Samaritan House", "Full Address": "2301 Lawrence St Denver, CO 80205-2126", "Address": "2301 Lawrence St", "City": "Denver", "Zip": "80205-2126", "County": "Denver", "Longitude": -104.9879392, "Latitude": 39.75562711, "Type": "Food Pantry", "GlobalID": "e1b88014-e7a3-45cd-81e9-9d686f5ceb12", "x": 3143969.993, "y": 1700523.002 }, "geometry": { "type": "Point", "coordinates": [ -104.9879392, 39.75562711 ] } },
{ "type": "Feature", "properties": { "ObjectID": 25, "Food Pantry Name": "Cats not Cops", "Full Address": "1415 Park Ave W Denver, CO 80205", "Address": "1415 Park Ave W", "City": "Denver", "Zip": "80205", "County": "Denver", "Longitude": -104.9901077, "Latitude": 39.7567844, "Type": "Food Pantry", "GlobalID": "9c01b54c-9b59-4dcd-bd84-df531caca26d", "x": 3143357.925, "y": 1700941.134 }, "geometry": { "type": "Point", "coordinates": [ -104.9901077, 39.7567844 ] } },
{ "type": "Feature", "properties": { "ObjectID": 26, "Food Pantry Name": "Cats not Cops", "Full Address": "303 22nd street Denver, CO 80205", "Address": "303 22nd street", "City": "Denver", "Zip": "80205", "County": "Denver", "Longitude": -104.9813968, "Latitude": 39.74833431, "Type": "Food Pantry", "GlobalID": "1dede2cd-a775-4000-9261-14acedcff872", "x": 3145824.589, "y": 1697876.927 }, "geometry": { "type": "Point", "coordinates": [ -104.9813968, 39.74833431 ] } },
{ "type": "Feature", "properties": { "ObjectID": 27, "Food Pantry Name": "Center for Work Education and Employment", "Full Address": "1175 Osage St  Denver, CO 80204-3444", "Address": "1175 Osage St ", "City": "Denver", "Zip": "80204-3444", "County": "Denver", "Longitude": -105.0055716, "Latitude": 39.73499082, "Type": "Food Pantry", "GlobalID": "cb883e11-6d7a-44e4-9f0b-186712a42b6b", "x": 3139053.459, "y": 1692978.475 }, "geometry": { "type": "Point", "coordinates": [ -105.0055716, 39.73499082 ] } },
{ "type": "Feature", "properties": { "ObjectID": 28, "Food Pantry Name": "Centro Cristiano Amistad de Denver", "Full Address": "1140 W Custer Pl  Denver, CO 80223", "Address": "1140 W Custer Pl ", "City": "Denver", "Zip": "80223", "County": "Denver", "Longitude": -104.9999378, "Latitude": 39.70651905, "Type": "Food Pantry", "GlobalID": "631082a2-b290-4f16-b521-f4fb560b9950", "x": 3140694.989, "y": 1682615.994 }, "geometry": { "type": "Point", "coordinates": [ -104.9999378, 39.70651905 ] } },
{ "type": "Feature", "properties": { "ObjectID": 29, "Food Pantry Name": "Cherry Creek Presbyterian Agape", "Full Address": "2501 California St Denver, CO 80205-2929", "Address": "2501 California St", "City": "Denver", "Zip": "80205-2929", "County": "Denver", "Longitude": -104.9813677, "Latitude": 39.75390974, "Type": "Food Pantry", "GlobalID": "57003147-25b2-4e00-9861-7bfbccab01fa", "x": 3145821.174, "y": 1699907.905 }, "geometry": { "type": "Point", "coordinates": [ -104.9813677, 39.75390974 ] } },
{ "type": "Feature", "properties": { "ObjectID": 30, "Food Pantry Name": "Christ's Body Ministries", "Full Address": "850 Lincoln St  Denver, CO 80218", "Address": "850 Lincoln St ", "City": "Denver", "Zip": "80218", "County": "Denver", "Longitude": -104.9859592, "Latitude": 39.73000191, "Type": "Food Pantry", "GlobalID": "4c8eb3a6-c450-476d-9e26-a7e86a40b58a", "x": 3144579.489, "y": 1691191.819 }, "geometry": { "type": "Point", "coordinates": [ -104.9859592, 39.73000191 ] } },
{ "type": "Feature", "properties": { "ObjectID": 31, "Food Pantry Name": "Church in the City", "Full Address": "1580 Gaylord St Denver, CO 80206-1314", "Address": "1580 Gaylord St", "City": "Denver", "Zip": "80206-1314", "County": "Denver", "Longitude": -104.9608314, "Latitude": 39.74138014, "Type": "Food Pantry", "GlobalID": "e5150899-80fe-4c2b-b37a-51830f9a64ee", "x": 3151622.287, "y": 1695377.444 }, "geometry": { "type": "Point", "coordinates": [ -104.9608314, 39.74138014 ] } },
{ "type": "Feature", "properties": { "ObjectID": 32, "Food Pantry Name": "Church of Christ at Forest Street", "Full Address": "3500 Forest St Denver, CO 80207-1117", "Address": "3500 Forest St", "City": "Denver", "Zip": "80207-1117", "County": "Denver", "Longitude": -104.9266391, "Latitude": 39.76597682, "Type": "Food Pantry", "GlobalID": "9a78606e-410e-4603-944f-31c815d92029", "x": 3161181.001, "y": 1704395.996 }, "geometry": { "type": "Point", "coordinates": [ -104.9266391, 39.76597682 ] } },
{ "type": "Feature", "properties": { "ObjectID": 33, "Food Pantry Name": "Colorado Coalition for the Homeless Lowry", "Full Address": "550 Alton Way Denver, CO 80230-0000", "Address": "550 Alton Way", "City": "Denver", "Zip": "80230-0000", "County": "Denver", "Longitude": -104.8782099, "Latitude": 39.72386816, "Type": "Food Pantry", "GlobalID": "05cbc3e3-cdba-48a1-b258-7ae2b050cb6a", "x": 3174900.007, "y": 1689146.999 }, "geometry": { "type": "Point", "coordinates": [ -104.8782099, 39.72386816 ] } },
{ "type": "Feature", "properties": { "ObjectID": 34, "Food Pantry Name": "Colorado Coalition for the Homeless Blue Spruce", "Full Address": "7300 East Severn Place Denver, CO 80230-0000", "Address": "7300 East Severn Place", "City": "Denver", "Zip": "80230-0000", "County": "Denver", "Longitude": -104.9029773, "Latitude": 39.72806074, "Type": "Food Pantry", "GlobalID": "0960e2bf-2056-4a62-81e8-5fb2b9403493", "x": 3167923.376, "y": 1690627.452 }, "geometry": { "type": "Point", "coordinates": [ -104.9029773, 39.72806074 ] } },
{ "type": "Feature", "properties": { "ObjectID": 35, "Food Pantry Name": "Church of Pentecost USA", "Full Address": "5900 E 39th Ave Denver, CO 80207-1232", "Address": "5900 E 39th Ave", "City": "Denver", "Zip": "80207-1232", "County": "Denver", "Longitude": -104.9196032, "Latitude": 39.77064496, "Type": "Food Pantry", "GlobalID": "646e95bb-21e1-412c-b0a6-f38033f132f8", "x": 3163148.001, "y": 1706108.998 }, "geometry": { "type": "Point", "coordinates": [ -104.9196032, 39.77064496 ] } },
{ "type": "Feature", "properties": { "ObjectID": 36, "Food Pantry Name": "Clayton Early Learning", "Full Address": "3801 Martin Luther King Blvd Denver, CO 80205-4972", "Address": "3801 Martin Luther King Blvd", "City": "Denver", "Zip": "80205-4972", "County": "Denver", "Longitude": -104.9430807, "Latitude": 39.76218209, "Type": "Food Pantry", "GlobalID": "037e41f3-6b6d-4c9e-80e3-af091c31e62b", "x": 3156567.51, "y": 1702984.954 }, "geometry": { "type": "Point", "coordinates": [ -104.9430807, 39.76218209 ] } },
{ "type": "Feature", "properties": { "ObjectID": 37, "Food Pantry Name": "Colorado Coalition for the Homeless-California", "Full Address": "2175 California Street Denver, CO 80205-2529", "Address": "2175 California Street", "City": "Denver", "Zip": "80205-2529", "County": "Denver", "Longitude": -104.985474, "Latitude": 39.75056008, "Type": "Food Pantry", "GlobalID": "cd1b284c-d37b-4bde-9b36-9e0eabdc9889", "x": 3144673.55, "y": 1698681.177 }, "geometry": { "type": "Point", "coordinates": [ -104.985474, 39.75056008 ] } },
{ "type": "Feature", "properties": { "ObjectID": 38, "Food Pantry Name": "Colorado Coalition- Renewal Village", "Full Address": "200 W Warner Pl Denver, CO 80216-1817", "Address": "200 W Warner Pl", "City": "Denver", "Zip": "80216-1817", "County": "Denver", "Longitude": -104.9908896, "Latitude": 39.78328717, "Type": "Food Pantry", "GlobalID": "4deceae8-6cfd-4124-b2a4-b07b9f822c8d", "x": 3143084.002, "y": 1710593.996 }, "geometry": { "type": "Point", "coordinates": [ -104.9908896, 39.78328717 ] } },
{ "type": "Feature", "properties": { "ObjectID": 39, "Food Pantry Name": "Colorado Coalition- Stout Street Health Center", "Full Address": "2130 Stout Street Denver, CO 80205-2529", "Address": "2130 Stout Street", "City": "Denver", "Zip": "80205-2529", "County": "Denver", "Longitude": -104.9861606, "Latitude": 39.75100378, "Type": "Food Pantry", "GlobalID": "a2e88147-2d2a-4ba6-b109-1e54707fb97f", "x": 3144479.57, "y": 1698841.709 }, "geometry": { "type": "Point", "coordinates": [ -104.9861606, 39.75100378 ] } },
{ "type": "Feature", "properties": { "ObjectID": 40, "Food Pantry Name": "Colorado Health Network ", "Full Address": "6260 E Colfax Ave Denver, CO 80220-1515", "Address": "6260 E Colfax Ave", "City": "Denver", "Zip": "80220-1515", "County": "Denver", "Longitude": -104.9152729, "Latitude": 39.73961029, "Type": "Food Pantry", "GlobalID": "ed292beb-e72a-4ae4-8238-2916ef8a5c96", "x": 3164437.995, "y": 1694812.006 }, "geometry": { "type": "Point", "coordinates": [ -104.9152729, 39.73961029 ] } },
{ "type": "Feature", "properties": { "ObjectID": 41, "Food Pantry Name": "Community College Denver- Student Life", "Full Address": "900 Auraria Pkwy Denver, CO 80204-5800", "Address": "900 Auraria Pkwy", "City": "Denver", "Zip": "80204-5800", "County": "Denver", "Longitude": -105.0061601, "Latitude": 39.74506436, "Type": "Food Pantry", "GlobalID": "139259cc-f4b9-4811-83d5-ca8aedd66bae", "x": 3138868.006, "y": 1696647.0 }, "geometry": { "type": "Point", "coordinates": [ -105.0061601, 39.74506436 ] } },
{ "type": "Feature", "properties": { "ObjectID": 42, "Food Pantry Name": "Commun ", "Full Address": "3040 S Loretto Way Denver, CO 80236", "Address": "3040 S Loretto Way", "City": "Denver", "Zip": "80236", "County": "Denver", "Longitude": -105.0288435, "Latitude": 39.66209288, "Type": "Food Pantry", "GlobalID": "30f961ed-1c4c-4183-8181-3a8069504908", "x": 3132646.216, "y": 1666389.984 }, "geometry": { "type": "Point", "coordinates": [ -105.0288435, 39.66209288 ] } },
{ "type": "Feature", "properties": { "ObjectID": 43, "Food Pantry Name": "Community College Of Denver-Sparc Food Pantry", "Full Address": "900 Auraria Pkwy Denver, CO 80204", "Address": "900 Auraria Pkwy", "City": "Denver", "Zip": "80204", "County": "Denver", "Longitude": -105.0061601, "Latitude": 39.74506436, "Type": "Food Pantry", "GlobalID": "f6858097-4cf4-43ae-8697-19a0f0a168f2", "x": 3138868.006, "y": 1696647.0 }, "geometry": { "type": "Point", "coordinates": [ -105.0061601, 39.74506436 ] } },
{ "type": "Feature", "properties": { "ObjectID": 44, "Food Pantry Name": "Community Ministry Southwest", "Full Address": "1755 S Zuni St Denver, CO 80223-3717", "Address": "1755 S Zuni St", "City": "Denver", "Zip": "80223-3717", "County": "Denver", "Longitude": -105.0159938, "Latitude": 39.68517835, "Type": "Food Pantry", "GlobalID": "6a37b498-5078-464c-81cd-6301a97da46f", "x": 3136219.002, "y": 1674818.005 }, "geometry": { "type": "Point", "coordinates": [ -105.0159938, 39.68517835 ] } },
{ "type": "Feature", "properties": { "ObjectID": 45, "Food Pantry Name": "Denver Food Rescue", "Full Address": "3840 York St Denver, CO 80205", "Address": "3840 York St", "City": "Denver", "Zip": "80205", "County": "Denver", "Longitude": -104.9591385, "Latitude": 39.7701332, "Type": "Food Bank", "GlobalID": "ca47868e-e543-43c4-bdf5-39d2287d072a", "x": 3152035.993, "y": 1705853.999 }, "geometry": { "type": "Point", "coordinates": [ -104.9591385, 39.7701332 ] } },
{ "type": "Feature", "properties": { "ObjectID": 46, "Food Pantry Name": "Denver Family Church Nazarene", "Full Address": "1501 S Zuni St Denver, CO 80223-3534", "Address": "1501 S Zuni St", "City": "Denver", "Zip": "80223-3534", "County": "Denver", "Longitude": -105.0160122, "Latitude": 39.68927245, "Type": "Food Pantry", "GlobalID": "47d0fc5e-e5e1-44bb-b9f6-36fdc9f663ee", "x": 3136205.892, "y": 1676309.282 }, "geometry": { "type": "Point", "coordinates": [ -105.0160122, 39.68927245 ] } },
{ "type": "Feature", "properties": { "ObjectID": 47, "Food Pantry Name": "Cook Park Rec Center - MP", "Full Address": "7100 Cherry Creek S Drive Denver, CO 80224", "Address": "7100 Cherry Creek S Drive", "City": "Denver", "Zip": "80224", "County": "Denver", "Longitude": -104.908619, "Latitude": 39.686995, "Type": "Mobile Pantry", "GlobalID": "019f83e9-858f-4cab-bb98-72b7dd03d752", "x": 3166433.948, "y": 1675658.589 }, "geometry": { "type": "Point", "coordinates": [ -104.908619, 39.686995 ] } },
{ "type": "Feature", "properties": { "ObjectID": 48, "Food Pantry Name": "Denver Hospice", "Full Address": "8289 E Lowry Blvd Denver, CO 80230-7256", "Address": "8289 E Lowry Blvd", "City": "Denver", "Zip": "80230-7256", "County": "Denver", "Longitude": -104.8920405, "Latitude": 39.72070508, "Type": "Food Pantry", "GlobalID": "97616446-280a-4dbc-ac02-99c39f44cdbc", "x": 3171017.43, "y": 1687968.489 }, "geometry": { "type": "Point", "coordinates": [ -104.8920405, 39.72070508 ] } },
{ "type": "Feature", "properties": { "ObjectID": 49, "Food Pantry Name": "Denver Friends Church", "Full Address": "4595 Eliot St Denver, CO 80211-1490", "Address": "4595 Eliot St", "City": "Denver", "Zip": "80211-1490", "County": "Denver", "Longitude": -105.0242812, "Latitude": 39.77987176, "Type": "Food Pantry", "GlobalID": "6e73e001-30bc-4a87-8570-641f671746b5", "x": 3133706.002, "y": 1709298.998 }, "geometry": { "type": "Point", "coordinates": [ -105.0242812, 39.77987176 ] } },
{ "type": "Feature", "properties": { "ObjectID": 50, "Food Pantry Name": "Denver Green School", "Full Address": "6700 E Virginia Ave Denver, CO 80224-1346", "Address": "6700 E Virginia Ave", "City": "Denver", "Zip": "80224-1346", "County": "Denver", "Longitude": -104.9090149, "Latitude": 39.70662168, "Type": "Food Pantry", "GlobalID": "545bda03-0f1f-44fe-b95b-81996c614a97", "x": 3166276.005, "y": 1682806.992 }, "geometry": { "type": "Point", "coordinates": [ -104.9090149, 39.70662168 ] } },
{ "type": "Feature", "properties": { "ObjectID": 51, "Food Pantry Name": "Denver Indian Center", "Full Address": "4407 Morrison Rd Denver, CO 80219-2464", "Address": "4407 Morrison Rd", "City": "Denver", "Zip": "80219-2464", "County": "Denver", "Longitude": -105.0454315, "Latitude": 39.70272449, "Type": "Food Pantry", "GlobalID": "9b7908f3-36d1-4193-9f2c-655fd73e15a2", "x": 3127902.142, "y": 1681166.536 }, "geometry": { "type": "Point", "coordinates": [ -105.0454315, 39.70272449 ] } },
{ "type": "Feature", "properties": { "ObjectID": 52, "Food Pantry Name": "Denver Inner City Parish ", "Full Address": "1212 Mariposa St Denver, CO 80204-3941", "Address": "1212 Mariposa St", "City": "Denver", "Zip": "80204-3941", "County": "Denver", "Longitude": -105.0024467, "Latitude": 39.73563795, "Type": "Food Pantry", "GlobalID": "82d6a6a3-5dc9-44a7-8bae-07f5359b4f30", "x": 3139930.997, "y": 1693218.999 }, "geometry": { "type": "Point", "coordinates": [ -105.0024467, 39.73563795 ] } },
{ "type": "Feature", "properties": { "ObjectID": 53, "Food Pantry Name": "Denver South High School Food Pantry", "Full Address": "1700 E. Louisiana Ave Denver, CO 80210", "Address": "1700 E. Louisiana Ave", "City": "Denver", "Zip": "80210", "County": "Denver", "Longitude": -104.9665015, "Latitude": 39.69213814, "Type": "Food Pantry", "GlobalID": "22ed743a-77d8-438f-9811-3b2fad13a8c9", "x": 3150133.122, "y": 1677431.155 }, "geometry": { "type": "Point", "coordinates": [ -104.9665015, 39.69213814 ] } },
{ "type": "Feature", "properties": { "ObjectID": 54, "Food Pantry Name": "Denver South Hispanic Seventh Day Adventist", "Full Address": "2005 S Lincoln St Denver, CO 80210-4011", "Address": "2005 S Lincoln St", "City": "Denver", "Zip": "80210-4011", "County": "Denver", "Longitude": -104.9866946, "Latitude": 39.67979679, "Type": "Food Pantry", "GlobalID": "db003d25-8771-4f88-893e-4d3ae9da37b1", "x": 3144475.998, "y": 1672903.003 }, "geometry": { "type": "Point", "coordinates": [ -104.9866946, 39.67979679 ] } },
{ "type": "Feature", "properties": { "ObjectID": 55, "Food Pantry Name": "Downtown Denver Islamic Center Warren ", "Full Address": "6700 E Warren Ave Denver, CO 80222-5730", "Address": "6700 E Warren Ave", "City": "Denver", "Zip": "80222-5730", "County": "Denver", "Longitude": -104.9110594, "Latitude": 39.67600272, "Type": "Food Pantry", "GlobalID": "a55487f9-8a42-4591-b233-54ea42fde5cb", "x": 3165773.11, "y": 1671650.148 }, "geometry": { "type": "Point", "coordinates": [ -104.9110594, 39.67600272 ] } },
{ "type": "Feature", "properties": { "ObjectID": 56, "Food Pantry Name": "Downtown Denver Islamic Center", "Full Address": "2952 N Downing St Denver, CO 80205-4414", "Address": "2952 N Downing St", "City": "Denver", "Zip": "80205-4414", "County": "Denver", "Longitude": -104.9729569, "Latitude": 39.7592478, "Type": "Food Pantry", "GlobalID": "c39cae6f-4ad1-49e7-b412-9d362f339729", "x": 3148174.669, "y": 1701865.985 }, "geometry": { "type": "Point", "coordinates": [ -104.9729569, 39.7592478 ] } },
{ "type": "Feature", "properties": { "ObjectID": 57, "Food Pantry Name": "Denver South Hispanic Seventh Day Adventist", "Full Address": "2005 S Lincoln St Denver, CO Denver, CO 80210", "Address": "2005 S Lincoln St Denver, CO", "City": "Denver", "Zip": "80210", "County": "Denver", "Longitude": -104.9866946, "Latitude": 39.67979679, "Type": "Food Pantry", "GlobalID": "c38dc21d-7813-4b78-bf30-91536a0e00be", "x": 3144475.998, "y": 1672903.003 }, "geometry": { "type": "Point", "coordinates": [ -104.9866946, 39.67979679 ] } },
{ "type": "Feature", "properties": { "ObjectID": 58, "Food Pantry Name": "DPS Community Hub Central Region", "Full Address": "4650 Columbine St Denver, CO 80216", "Address": "4650 Columbine St", "City": "Denver", "Zip": "80216", "County": "Denver", "Longitude": -104.9568867, "Latitude": 39.78121072, "Type": "Food Pantry", "GlobalID": "921e1f3a-159c-428c-b9fb-a6616788608c", "x": 3152644.841, "y": 1709892.954 }, "geometry": { "type": "Point", "coordinates": [ -104.9568867, 39.78121072 ] } },
{ "type": "Feature", "properties": { "ObjectID": 59, "Food Pantry Name": "DPS Far Northeast Community Hub", "Full Address": "5440 Scranton St Denver, CO 80239-3668", "Address": "5440 Scranton St", "City": "Denver", "Zip": "80239-3668", "County": "Denver", "Longitude": -104.8418842, "Latitude": 39.7934747, "Type": "Food Pantry", "GlobalID": "0ed317cb-f4ac-4b90-8535-78f9c2f2f5a6", "x": 3184934.001, "y": 1714573.996 }, "geometry": { "type": "Point", "coordinates": [ -104.8418842, 39.7934747 ] } },
{ "type": "Feature", "properties": { "ObjectID": 60, "Food Pantry Name": "DPS Northwest Community Hub", "Full Address": "4130 Navajo St Denver, CO 80211-2534", "Address": "4130 Navajo St", "City": "Denver", "Zip": "80211-2534", "County": "Denver", "Longitude": -105.0039318, "Latitude": 39.77364426, "Type": "Food Pantry", "GlobalID": "d3d48b02-6218-46ed-a472-dfeb831b1ace", "x": 3139437.759, "y": 1707061.106 }, "geometry": { "type": "Point", "coordinates": [ -105.0039318, 39.77364426 ] } },
{ "type": "Feature", "properties": { "ObjectID": 61, "Food Pantry Name": "DPS Near Northeast Community Hub", "Full Address": "2950 N Jasmine St Denver, CO 80207-2820", "Address": "2950 N Jasmine St", "City": "Denver", "Zip": "80207-2820", "County": "Denver", "Longitude": -104.9181572, "Latitude": 39.7592615, "Type": "Food Pantry", "GlobalID": "f98a7825-c3cd-4cda-9785-e8efa84e0f98", "x": 3163581.009, "y": 1701965.003 }, "geometry": { "type": "Point", "coordinates": [ -104.9181572, 39.7592615 ] } },
{ "type": "Feature", "properties": { "ObjectID": 62, "Food Pantry Name": "DPS Northwest Community Hub", "Full Address": "1526 Tennyson St. Denver, CO 80204", "Address": "1526 Tennyson St.", "City": "Denver", "Zip": "80204", "County": "Denver", "Longitude": -105.0436695, "Latitude": 39.74093045, "Type": "Food Pantry", "GlobalID": "dc4f968e-c24b-4a20-ad08-475a44d6fb71", "x": 3128327.994, "y": 1695086.002 }, "geometry": { "type": "Point", "coordinates": [ -105.0436695, 39.74093045 ] } },
{ "type": "Feature", "properties": { "ObjectID": 63, "Food Pantry Name": "DPS Southwest Community Hub - Johnson Elementary", "Full Address": "1850 S Irving St Denver, CO 80219-4656", "Address": "1850 S Irving St", "City": "Denver", "Zip": "80219-4656", "County": "Denver", "Longitude": -105.0290122, "Latitude": 39.6831338, "Type": "Food Pantry", "GlobalID": "2ed03b11-3cf9-4c40-ac86-20ec1c84909d", "x": 3132559.004, "y": 1674054.006 }, "geometry": { "type": "Point", "coordinates": [ -105.0290122, 39.6831338 ] } },
{ "type": "Feature", "properties": { "ObjectID": 64, "Food Pantry Name": "DPS Southeast Community Hub at Place Bridge", "Full Address": "7125 Cherry Creek N. Dr Denver, CO 80207-0000", "Address": "7125 Cherry Creek N. Dr", "City": "Denver", "Zip": "80207-0000", "County": "Denver", "Longitude": -104.9062674, "Latitude": 39.68806985, "Type": "Food Pantry", "GlobalID": "71c60785-0539-4f47-80de-0aedeb9a1bac", "x": 3167093.18, "y": 1676054.424 }, "geometry": { "type": "Point", "coordinates": [ -104.9062674, 39.68806985 ] } },
{ "type": "Feature", "properties": { "ObjectID": 65, "Food Pantry Name": "East High Angel Foundation", "Full Address": "1600 City Park Esplanade Denver, CO 80206-1429", "Address": "1600 City Park Esplanade", "City": "Denver", "Zip": "80206-1429", "County": "Denver", "Longitude": -104.9561405, "Latitude": 39.74160905, "Type": "Food Pantry", "GlobalID": "6a1e3d4f-726c-44ca-815e-02d2e308ecc2", "x": 3152940.909, "y": 1695468.691 }, "geometry": { "type": "Point", "coordinates": [ -104.9561405, 39.74160905 ] } },
{ "type": "Feature", "properties": { "ObjectID": 66, "Food Pantry Name": "East Denver Bible Baptist Church", "Full Address": "5500 East 26th Avenue Denver, CO 80207", "Address": "5500 East 26th Avenue", "City": "Denver", "Zip": "80207", "County": "Denver", "Longitude": -104.9231554, "Latitude": 39.75444069, "Type": "Food Pantry", "GlobalID": "5e08e827-c084-47f4-ba80-185bd71e3041", "x": 3162186.989, "y": 1700199.994 }, "geometry": { "type": "Point", "coordinates": [ -104.9231554, 39.75444069 ] } },
{ "type": "Feature", "properties": { "ObjectID": 67, "Food Pantry Name": "East Colfax Neighborhood Association Food Bank", "Full Address": "7935 East 14th Avenue Denver, CO 80220", "Address": "7935 East 14th Avenue", "City": "Denver", "Zip": "80220", "County": "Denver", "Longitude": -104.8955966, "Latitude": 39.73891514, "Type": "Food Pantry", "GlobalID": "e383d2b8-d0f6-4685-95a1-96e3ac6ee3d6", "x": 3169972.992, "y": 1694595.004 }, "geometry": { "type": "Point", "coordinates": [ -104.8955966, 39.73891514 ] } },
{ "type": "Feature", "properties": { "ObjectID": 68, "Food Pantry Name": "Epworth United Methodist Church", "Full Address": "3401 High St Denver, CO 80205-4041", "Address": "3401 High St", "City": "Denver", "Zip": "80205-4041", "County": "Denver", "Longitude": -104.9650601, "Latitude": 39.76474666, "Type": "Food Pantry", "GlobalID": "f88d404f-f8d4-45c7-ba58-78d26c55174d", "x": 3150382.993, "y": 1703882.007 }, "geometry": { "type": "Point", "coordinates": [ -104.9650601, 39.76474666 ] } },
{ "type": "Feature", "properties": { "ObjectID": 69, "Food Pantry Name": "Family Star Federal", "Full Address": "2246 Federal Blvd Denver, CO 80211-4642", "Address": "2246 Federal Blvd", "City": "Denver", "Zip": "80211-4642", "County": "Denver", "Longitude": -105.0246153, "Latitude": 39.75054575, "Type": "Food Pantry", "GlobalID": "55f79502-4aac-49bb-8667-9068377c3103", "x": 3133667.998, "y": 1698615.995 }, "geometry": { "type": "Point", "coordinates": [ -105.0246153, 39.75054575 ] } },
{ "type": "Feature", "properties": { "ObjectID": 70, "Food Pantry Name": "Family Star Curtis", "Full Address": "2940 Curtis St Denver, CO 80205-2667", "Address": "2940 Curtis St", "City": "Denver", "Zip": "80205-2667", "County": "Denver", "Longitude": -104.9783639, "Latitude": 39.75951899, "Type": "Food Pantry", "GlobalID": "c51349ca-0952-4716-b99c-4820ad351444", "x": 3146654.001, "y": 1701955.996 }, "geometry": { "type": "Point", "coordinates": [ -104.9783639, 39.75951899 ] } },
{ "type": "Feature", "properties": { "ObjectID": 71, "Food Pantry Name": "First Baptist Church of Denver", "Full Address": "1373 Grant St Denver, CO 80203", "Address": "1373 Grant St", "City": "Denver", "Zip": "80203", "County": "Denver", "Longitude": -104.9838071, "Latitude": 39.7379853, "Type": "Food Pantry", "GlobalID": "50bbca76-dcb9-4c08-9ef0-955d208fe742", "x": 3145168.271, "y": 1694103.3 }, "geometry": { "type": "Point", "coordinates": [ -104.9838071, 39.7379853 ] } },
{ "type": "Feature", "properties": { "ObjectID": 72, "Food Pantry Name": "Fish of East Denver Epiphany", "Full Address": "790 S Corona St Denver, CO 80209-4408", "Address": "790 S Corona St", "City": "Denver", "Zip": "80209-4408", "County": "Denver", "Longitude": -104.974265, "Latitude": 39.70228368, "Type": "Food Pantry", "GlobalID": "862939ff-a9ec-441b-a7cf-c9b3e2877393", "x": 3147926.997, "y": 1681114.006 }, "geometry": { "type": "Point", "coordinates": [ -104.974265, 39.70228368 ] } },
{ "type": "Feature", "properties": { "ObjectID": 73, "Food Pantry Name": "Fish of East Denver Epiphany", "Full Address": "400 S William St Denver, CO 80209", "Address": "400 S William St", "City": "Denver", "Zip": "80209", "County": "Denver", "Longitude": -104.966092, "Latitude": 39.7091653, "Type": "Food Pantry", "GlobalID": "eeb9db01-5a24-4f06-b476-b58011ffc7c9", "x": 3150211.896, "y": 1683634.104 }, "geometry": { "type": "Point", "coordinates": [ -104.966092, 39.7091653 ] } },
{ "type": "Feature", "properties": { "ObjectID": 74, "Food Pantry Name": "Food For Thought", "Full Address": "1600 W Colfax Denver, CO 80204-1801", "Address": "1600 W Colfax", "City": "Denver", "Zip": "80204-1801", "County": "Denver", "Longitude": -105.008617, "Latitude": 39.73958842, "Type": "Food Pantry", "GlobalID": "0ec0108a-3203-48b9-9eff-847fb14d85e6", "x": 3138187.921, "y": 1694648.566 }, "geometry": { "type": "Point", "coordinates": [ -105.008617, 39.73958842 ] } },
{ "type": "Feature", "properties": { "ObjectID": 75, "Food Pantry Name": "Food For Thought Pantries", "Full Address": "1700 E Louisiana Ave Denver, CO 80210-1810", "Address": "1700 E Louisiana Ave", "City": "Denver", "Zip": "80210-1810", "County": "Denver", "Longitude": -104.9665015, "Latitude": 39.69213814, "Type": "Food Pantry", "GlobalID": "a3b9b293-c82a-4621-92d7-830bcc4ffc02", "x": 3150133.122, "y": 1677431.155 }, "geometry": { "type": "Point", "coordinates": [ -104.9665015, 39.69213814 ] } },
{ "type": "Feature", "properties": { "ObjectID": 76, "Food Pantry Name": "Food For Thought East", "Full Address": "11000 E 51st Ave Denver, CO 80238-0000", "Address": "11000 E 51st Ave", "City": "Denver", "Zip": "80238-0000", "County": "Denver", "Longitude": -104.861257, "Latitude": 39.7896694, "Type": "Food Pantry", "GlobalID": "736aa907-436d-40ad-86f0-deac570b7f82", "x": 3179499.993, "y": 1713148.994 }, "geometry": { "type": "Point", "coordinates": [ -104.861257, 39.7896694 ] } },
{ "type": "Feature", "properties": { "ObjectID": 77, "Food Pantry Name": "Frontline Farming - Celebration Community Farm", "Full Address": "1650 South Birch St. Denver, CO 80222", "Address": "1650 South Birch St.", "City": "Denver", "Zip": "80222", "County": "Denver", "Longitude": -104.9358352, "Latitude": 39.68677845, "Type": "Food Pantry", "GlobalID": "6a02ec58-ec21-4a82-a9a5-4b86da833293", "x": 3158775.01, "y": 1675530.996 }, "geometry": { "type": "Point", "coordinates": [ -104.9358352, 39.68677845 ] } },
{ "type": "Feature", "properties": { "ObjectID": 78, "Food Pantry Name": "Focus Points Family Resource Center", "Full Address": "2501 East 48th Ave Denver, CO 80216", "Address": "2501 East 48th Ave", "City": "Denver", "Zip": "80216", "County": "Denver", "Longitude": -104.9569985, "Latitude": 39.784157, "Type": "Food Pantry", "GlobalID": "a4fa7859-603d-4e2f-a952-011c418e1ba0", "x": 3152607.002, "y": 1710966.003 }, "geometry": { "type": "Point", "coordinates": [ -104.9569985, 39.784157 ] } },
{ "type": "Feature", "properties": { "ObjectID": 79, "Food Pantry Name": "Gathering Place", "Full Address": "1535 High Street Denver, CO 80218", "Address": "1535 High Street", "City": "Denver", "Zip": "80218", "County": "Denver", "Longitude": -104.9649244, "Latitude": 39.74064014, "Type": "Food Pantry", "GlobalID": "e7d77628-16ca-427e-9c3c-775ff69bfd52", "x": 3150472.861, "y": 1695101.084 }, "geometry": { "type": "Point", "coordinates": [ -104.9649244, 39.74064014 ] } },
{ "type": "Feature", "properties": { "ObjectID": 80, "Food Pantry Name": "Greater Park Hill Community", "Full Address": "2823 Fairfax St Denver, CO 80207-2748", "Address": "2823 Fairfax St", "City": "Denver", "Zip": "80207-2748", "County": "Denver", "Longitude": -104.9284106, "Latitude": 39.75696201, "Type": "Food Pantry", "GlobalID": "e83684d0-b0bd-436e-9fca-31b4edb70307", "x": 3160703.666, "y": 1701109.081 }, "geometry": { "type": "Point", "coordinates": [ -104.9284106, 39.75696201 ] } },
{ "type": "Feature", "properties": { "ObjectID": 81, "Food Pantry Name": "Gathering Place Betsys Cupboard", "Full Address": "1535 N High St Denver, CO 80218-1704", "Address": "1535 N High St", "City": "Denver", "Zip": "80218-1704", "County": "Denver", "Longitude": -104.9649244, "Latitude": 39.74064014, "Type": "Food Pantry", "GlobalID": "860c5328-cbc9-4da0-8a5f-c76f83c84175", "x": 3150472.861, "y": 1695101.084 }, "geometry": { "type": "Point", "coordinates": [ -104.9649244, 39.74064014 ] } },
{ "type": "Feature", "properties": { "ObjectID": 82, "Food Pantry Name": "Godside Ministries", "Full Address": "6430 Martin Luther King Blvd Denver, CO 80207-2155", "Address": "6430 Martin Luther King Blvd", "City": "Denver", "Zip": "80207-2155", "County": "Denver", "Longitude": -104.9131453, "Latitude": 39.76163978, "Type": "Food Pantry", "GlobalID": "de2db36c-bf83-4a83-9948-ff900f5f0936", "x": 3164984.47, "y": 1702840.388 }, "geometry": { "type": "Point", "coordinates": [ -104.9131453, 39.76163978 ] } },
{ "type": "Feature", "properties": { "ObjectID": 83, "Food Pantry Name": "GrowHaus (The)", "Full Address": "3840 York St #245 Denver, CO 80205", "Address": "3840 York St #245", "City": "Denver", "Zip": "80205", "County": "Denver", "Longitude": -104.9591385, "Latitude": 39.7701332, "Type": "Food Pantry", "GlobalID": "ec54ffd8-4784-4765-86bb-14e711addc91", "x": 3152035.993, "y": 1705853.999 }, "geometry": { "type": "Point", "coordinates": [ -104.9591385, 39.7701332 ] } },
{ "type": "Feature", "properties": { "ObjectID": 84, "Food Pantry Name": "Harvest Storehouse Food Pantry by Bridgeway Church", "Full Address": "5201 E Warren Ave Denver, CO 80222-0000", "Address": "5201 E Warren Ave", "City": "Denver", "Zip": "80222-0000", "County": "Denver", "Longitude": -104.9270958, "Latitude": 39.67700398, "Type": "Food Pantry", "GlobalID": "661371d6-5a38-46f9-828d-8e9dd2f97197", "x": 3161256.99, "y": 1671985.996 }, "geometry": { "type": "Point", "coordinates": [ -104.9270958, 39.67700398 ] } },
{ "type": "Feature", "properties": { "ObjectID": 85, "Food Pantry Name": "Heart & Hand Center (Halo)", "Full Address": "2758 Welton Street Denver, CO 80205", "Address": "2758 Welton Street", "City": "Denver", "Zip": "80205", "County": "Denver", "Longitude": -104.9767193, "Latitude": 39.75539656, "Type": "Food Pantry", "GlobalID": "fda9ac65-12a3-4c30-9f77-a9526dcabb8d", "x": 3147124.993, "y": 1700456.997 }, "geometry": { "type": "Point", "coordinates": [ -104.9767193, 39.75539656 ] } },
{ "type": "Feature", "properties": { "ObjectID": 86, "Food Pantry Name": "His Love Fellowship", "Full Address": "910 Kalamath St Denver, CO 80204-3910", "Address": "910 Kalamath St", "City": "Denver", "Zip": "80204-3910", "County": "Denver", "Longitude": -104.9999032, "Latitude": 39.73073454, "Type": "Food Pantry", "GlobalID": "661759eb-b3b8-40f2-86fc-ded48c04161f", "x": 3140656.172, "y": 1691436.798 }, "geometry": { "type": "Point", "coordinates": [ -104.9999032, 39.73073454 ] } },
{ "type": "Feature", "properties": { "ObjectID": 87, "Food Pantry Name": "Hope Center Inc", "Full Address": "3400 N Elizabeth St Denver, CO 80205-4244", "Address": "3400 N Elizabeth St", "City": "Denver", "Zip": "80205-4244", "County": "Denver", "Longitude": -104.9555171, "Latitude": 39.76506525, "Type": "Food Pantry", "GlobalID": "b670271a-186c-4cb6-87a6-5d02d102bae1", "x": 3153064.997, "y": 1704013.997 }, "geometry": { "type": "Point", "coordinates": [ -104.9555171, 39.76506525 ] } },
{ "type": "Feature", "properties": { "ObjectID": 88, "Food Pantry Name": "HOPE Food Bank", "Full Address": "2024 Clarkson st Denver, CO 80205", "Address": "2024 Clarkson st", "City": "Denver", "Zip": "80205", "County": "Denver", "Longitude": -104.9766933, "Latitude": 39.74772779, "Type": "Food Pantry", "GlobalID": "2dabd449-44fc-4d9c-97cf-638f529093ca", "x": 3147148.411, "y": 1697663.578 }, "geometry": { "type": "Point", "coordinates": [ -104.9766933, 39.74772779 ] } },
{ "type": "Feature", "properties": { "ObjectID": 89, "Food Pantry Name": "House of Joy Miracle Church", "Full Address": "3082 Leyden St Denver, CO 80207", "Address": "3082 Leyden St", "City": "Denver", "Zip": "80207", "County": "Denver", "Longitude": -104.9150396, "Latitude": 39.76160696, "Type": "Food Pantry", "GlobalID": "4287d72b-5a83-4264-9267-b542fa657e18", "x": 3164452.001, "y": 1702824.999 }, "geometry": { "type": "Point", "coordinates": [ -104.9150396, 39.76160696 ] } },
{ "type": "Feature", "properties": { "ObjectID": 90, "Food Pantry Name": "House of Purpose", "Full Address": "8720 E. Colfax Ave Denver, CO 80220", "Address": "8720 E. Colfax Ave", "City": "Denver", "Zip": "80220", "County": "Denver", "Longitude": -104.8864853, "Latitude": 39.74001174, "Type": "Food Pantry", "GlobalID": "a180714a-c4a3-42f2-b670-b0c536919e82", "x": 3172532.573, "y": 1695011.628 }, "geometry": { "type": "Point", "coordinates": [ -104.8864853, 39.74001174 ] } },
{ "type": "Feature", "properties": { "ObjectID": 91, "Food Pantry Name": "Haven of Hope", "Full Address": "1101 W 7th Ave Denver, CO 80204-4438", "Address": "1101 W 7th Ave", "City": "Denver", "Zip": "80204-4438", "County": "Denver", "Longitude": -105.0019961, "Latitude": 39.72749355, "Type": "Food Pantry", "GlobalID": "c1c058f9-19eb-42b6-a281-41c552d1b770", "x": 3140073.988, "y": 1690252.995 }, "geometry": { "type": "Point", "coordinates": [ -105.0019961, 39.72749355 ] } },
{ "type": "Feature", "properties": { "ObjectID": 92, "Food Pantry Name": "House of Worship", "Full Address": "999 S Colorado Blvd Denver, CO 80209", "Address": "999 S Colorado Blvd", "City": "Denver", "Zip": "80209", "County": "Denver", "Longitude": -104.9413012, "Latitude": 39.6987028, "Type": "Food Pantry", "GlobalID": "20949238-7374-4d84-ab8d-0fef876efb14", "x": 3157209.998, "y": 1679865.004 }, "geometry": { "type": "Point", "coordinates": [ -104.9413012, 39.6987028 ] } },
{ "type": "Feature", "properties": { "ObjectID": 93, "Food Pantry Name": "Housed Working and Healthy", "Full Address": "3525 W Oxford Ave Denver, CO 80236-3106", "Address": "3525 W Oxford Ave", "City": "Denver", "Zip": "80236-3106", "County": "Denver", "Longitude": -105.0338457, "Latitude": 39.64262294, "Type": "Food Pantry", "GlobalID": "f4f73581-1af8-4279-a595-c3282591f1ab", "x": 3131274.348, "y": 1659290.736 }, "geometry": { "type": "Point", "coordinates": [ -105.0338457, 39.64262294 ] } },
{ "type": "Feature", "properties": { "ObjectID": 94, "Food Pantry Name": "Iglesia Biblica Sublime Gracia", "Full Address": "501 North Raleigh St Denver, CO 80219-2547", "Address": "501 North Raleigh St", "City": "Denver", "Zip": "80219-2547", "County": "Denver", "Longitude": -105.0419257, "Latitude": 39.72480074, "Type": "Food Pantry", "GlobalID": "6cb2985d-7500-48ea-9bd9-a7489d5f7b7a", "x": 3128847.994, "y": 1689213.006 }, "geometry": { "type": "Point", "coordinates": [ -105.0419257, 39.72480074 ] } },
{ "type": "Feature", "properties": { "ObjectID": 95, "Food Pantry Name": "Jewish Family Service Weinburg Food Pantry", "Full Address": "3201 S Tamarac Dr Denver, CO 80231-4394", "Address": "3201 S Tamarac Dr", "City": "Denver", "Zip": "80231-4394", "County": "Denver", "Longitude": -104.8999642, "Latitude": 39.65705082, "Type": "Food Pantry", "GlobalID": "33785f5f-f400-47af-b1c1-74af3789d697", "x": 3168941.702, "y": 1664767.326 }, "geometry": { "type": "Point", "coordinates": [ -104.8999642, 39.65705082 ] } },
{ "type": "Feature", "properties": { "ObjectID": 96, "Food Pantry Name": "Joy's Kitchen", "Full Address": "2080 W. Barberry pl.  Denver, CO 80204", "Address": "2080 W. Barberry pl. ", "City": "Denver", "Zip": "80204", "County": "Denver", "Longitude": -105.0126441, "Latitude": 39.73005141, "Type": "Food Pantry", "GlobalID": "ffc58a05-5b1d-4abb-90e4-e7883a02f5c9", "x": 3137074.06, "y": 1691168.484 }, "geometry": { "type": "Point", "coordinates": [ -105.0126441, 39.73005141 ] } },
{ "type": "Feature", "properties": { "ObjectID": 97, "Food Pantry Name": "Kaizen Food Rescue", "Full Address": "14250 Albrook Dr Denver, CO 80239", "Address": "14250 Albrook Dr", "City": "Denver", "Zip": "80239", "County": "Denver", "Longitude": -104.8325173, "Latitude": 39.77669241, "Type": "Mobile Pantry", "GlobalID": "555f9ef5-7047-4fcd-b79f-7e64ac07b80e", "x": 3187611.008, "y": 1708479.993 }, "geometry": { "type": "Point", "coordinates": [ -104.8325173, 39.77669241 ] } },
{ "type": "Feature", "properties": { "ObjectID": 98, "Food Pantry Name": "Life-Line", "Full Address": "1240 W Bayaud Ave Denver, CO 80223-1213", "Address": "1240 W Bayaud Ave", "City": "Denver", "Zip": "80223-1213", "County": "Denver", "Longitude": -105.0029147, "Latitude": 39.71452997, "Type": "Food Pantry", "GlobalID": "5370d123-93ac-4177-a95f-4c1c7f40c04a", "x": 3139841.459, "y": 1685529.452 }, "geometry": { "type": "Point", "coordinates": [ -105.0029147, 39.71452997 ] } },
{ "type": "Feature", "properties": { "ObjectID": 99, "Food Pantry Name": "Macedonia Baptist Church", "Full Address": "3240 Adams St Denver, CO 80205", "Address": "3240 Adams St", "City": "Denver", "Zip": "80205", "County": "Denver", "Longitude": -104.9484408, "Latitude": 39.76245178, "Type": "Food Pantry", "GlobalID": "ab7554c3-7cd1-463f-9735-6f7b6f8eaec6", "x": 3155060.05, "y": 1703074.0 }, "geometry": { "type": "Point", "coordinates": [ -104.9484408, 39.76245178 ] } },
{ "type": "Feature", "properties": { "ObjectID": 100, "Food Pantry Name": "McAuliffe at Smiley Foundation", "Full Address": "2540 Holly St Denver, CO 80207-3228", "Address": "2540 Holly St", "City": "Denver", "Zip": "80207-3228", "County": "Denver", "Longitude": -104.9217363, "Latitude": 39.75378065, "Type": "Food Pantry", "GlobalID": "a287b6b9-6f42-4ccd-9260-9085c5e54bcc", "x": 3162587.5, "y": 1699962.102 }, "geometry": { "type": "Point", "coordinates": [ -104.9217363, 39.75378065 ] } },
{ "type": "Feature", "properties": { "ObjectID": 101, "Food Pantry Name": "Metropolitan State University of Denver Foundation", "Full Address": "900 Auraria Pkwy  Denver, CO 80204-1894", "Address": "900 Auraria Pkwy ", "City": "Denver", "Zip": "80204-1894", "County": "Denver", "Longitude": -105.0061601, "Latitude": 39.74506436, "Type": "Food Pantry", "GlobalID": "67ff294f-639e-4059-85ec-7efe9c4b2db3", "x": 3138868.006, "y": 1696647.0 }, "geometry": { "type": "Point", "coordinates": [ -105.0061601, 39.74506436 ] } },
{ "type": "Feature", "properties": { "ObjectID": 102, "Food Pantry Name": "Metropolitan Community Church", "Full Address": "980 Clarkson St Denver, CO 80218-2703", "Address": "980 Clarkson St", "City": "Denver", "Zip": "80218-2703", "County": "Denver", "Longitude": -104.977774, "Latitude": 39.69878805, "Type": "Food Pantry", "GlobalID": "6871ed3b-d1e9-4ae2-83e6-c357ff67adb7", "x": 3146946.994, "y": 1679835.0 }, "geometry": { "type": "Point", "coordinates": [ -104.977774, 39.69878805 ] } },
{ "type": "Feature", "properties": { "ObjectID": 103, "Food Pantry Name": "Mile High Youth Corp", "Full Address": "1801 Federal Blvd Denver, CO 80204-1724", "Address": "1801 Federal Blvd", "City": "Denver", "Zip": "80204-1724", "County": "Denver", "Longitude": -105.0257067, "Latitude": 39.74535065, "Type": "Food Pantry", "GlobalID": "4d7c7f29-862f-4edd-bbd4-b5c4449f52f0", "x": 3133371.003, "y": 1696721.997 }, "geometry": { "type": "Point", "coordinates": [ -105.0257067, 39.74535065 ] } },
{ "type": "Feature", "properties": { "ObjectID": 104, "Food Pantry Name": "MHCD Adult Resource Center DBA Wellpower", "Full Address": "1075 Galapago St Denver, CO 80204", "Address": "1075 Galapago St", "City": "Denver", "Zip": "80204", "County": "Denver", "Longitude": -104.9968039, "Latitude": 39.7331432, "Type": "Food Pantry", "GlobalID": "a1fa0775-9b90-450e-9263-346f6f8f2259", "x": 3141523.003, "y": 1692318.996 }, "geometry": { "type": "Point", "coordinates": [ -104.9968039, 39.7331432 ] } },
{ "type": "Feature", "properties": { "ObjectID": 105, "Food Pantry Name": "Montbello Catholic Church - Ascension Food Bank", "Full Address": "14050 Maxwell Place  Denver, CO 80239", "Address": "14050 Maxwell Place ", "City": "Denver", "Zip": "80239", "County": "Denver", "Longitude": -104.8243137, "Latitude": 39.7926795, "Type": "Food Pantry", "GlobalID": "3500272d-ca6e-4410-ae86-6601f4165165", "x": 3189873.463, "y": 1714320.577 }, "geometry": { "type": "Point", "coordinates": [ -104.8243137, 39.7926795 ] } },
{ "type": "Feature", "properties": { "ObjectID": 106, "Food Pantry Name": "Montbello Walks", "Full Address": "12211 E 52 Place Denver, CO 80239", "Address": "12211 E 52 Place", "City": "Denver", "Zip": "80239", "County": "Denver", "Longitude": -104.8460798, "Latitude": 39.79234507, "Type": "Food Pantry", "GlobalID": "8b6467db-8a41-4974-b87a-d4a6360472a0", "x": 3183758.009, "y": 1714153.995 }, "geometry": { "type": "Point", "coordinates": [ -104.8460798, 39.79234507 ] } },
{ "type": "Feature", "properties": { "ObjectID": 107, "Food Pantry Name": "Mount Saint Vincent Home", "Full Address": "4159 Lowell Blvd Denver, CO 80211-1658", "Address": "4159 Lowell Blvd", "City": "Denver", "Zip": "80211-1658", "County": "Denver", "Longitude": -105.0360882, "Latitude": 39.77424725, "Type": "Food Pantry", "GlobalID": "66ee8022-8e9a-44fb-b290-6b2e4fab057b", "x": 3130398.007, "y": 1707233.0 }, "geometry": { "type": "Point", "coordinates": [ -105.0360882, 39.77424725 ] } },
{ "type": "Feature", "properties": { "ObjectID": 108, "Food Pantry Name": "Montbello Organizing Committee", "Full Address": "15555 E 53rd Ave Denver, CO 80239", "Address": "15555 E 53rd Ave", "City": "Denver", "Zip": "80239", "County": "Denver", "Longitude": -104.8059542, "Latitude": 39.7925135, "Type": "Food Pantry", "GlobalID": "23f01973-fb73-4a1f-852f-4b354e71e6f6", "x": 3195033.012, "y": 1714299.002 }, "geometry": { "type": "Point", "coordinates": [ -104.8059542, 39.7925135 ] } },
{ "type": "Feature", "properties": { "ObjectID": 109, "Food Pantry Name": "Metro Caring", "Full Address": "1100 E 18th Ave Denver, CO 80218-1111", "Address": "1100 E 18th Ave", "City": "Denver", "Zip": "80218-1111", "County": "Denver", "Longitude": -104.9732351, "Latitude": 39.74471919, "Type": "Food Pantry", "GlobalID": "9edf95a3-e351-4192-a068-3aa87940c296", "x": 3148127.145, "y": 1696573.274 }, "geometry": { "type": "Point", "coordinates": [ -104.9732351, 39.74471919 ] } },
{ "type": "Feature", "properties": { "ObjectID": 110, "Food Pantry Name": "New Hope Baptist Church ", "Full Address": "3701 Colorado Blvd Denver, CO 80205-3877", "Address": "3701 Colorado Blvd", "City": "Denver", "Zip": "80205-3877", "County": "Denver", "Longitude": -104.9415124, "Latitude": 39.76861788, "Type": "Food Pantry", "GlobalID": "7489937c-26f1-4130-b879-474add5642a5", "x": 3156994.001, "y": 1705331.998 }, "geometry": { "type": "Point", "coordinates": [ -104.9415124, 39.76861788 ] } },
{ "type": "Feature", "properties": { "ObjectID": 111, "Food Pantry Name": "Our Lady of Lourdes Catholic Church", "Full Address": "2200 S. Logan St Denver, CO 80210", "Address": "2200 S. Logan St", "City": "Denver", "Zip": "80210", "County": "Denver", "Longitude": -104.9825122, "Latitude": 39.67650874, "Type": "Food Pantry", "GlobalID": "c3daeed7-ea29-4072-a3b6-eb1eb88f5b9b", "x": 3145659.994, "y": 1671711.993 }, "geometry": { "type": "Point", "coordinates": [ -104.9825122, 39.67650874 ] } },
{ "type": "Feature", "properties": { "ObjectID": 112, "Food Pantry Name": "Park Hill Seventh Day Adventist", "Full Address": "3385 Albion St.  Denver, CO 80207", "Address": "3385 Albion St. ", "City": "Denver", "Zip": "80207", "County": "Denver", "Longitude": -104.9396596, "Latitude": 39.7642258, "Type": "Food Pantry", "GlobalID": "ca3aea40-9670-4a6f-8f64-df97f1ef73da", "x": 3157524.701, "y": 1703735.321 }, "geometry": { "type": "Point", "coordinates": [ -104.9396596, 39.7642258 ] } },
{ "type": "Feature", "properties": { "ObjectID": 113, "Food Pantry Name": "Paradise Missionary Baptist Church", "Full Address": "3715 Garfield St Denver, CO 80205-3749", "Address": "3715 Garfield St", "City": "Denver", "Zip": "80205-3749", "County": "Denver", "Longitude": -104.9442695, "Latitude": 39.7684805, "Type": "Food Pantry", "GlobalID": "14e59559-a66e-4a76-b805-d404b52e2bc9", "x": 3156219.292, "y": 1705277.202 }, "geometry": { "type": "Point", "coordinates": [ -104.9442695, 39.7684805 ] } },
{ "type": "Feature", "properties": { "ObjectID": 114, "Food Pantry Name": "Park Hill United Methodist Church", "Full Address": "1195 Newport Street Denver, CO 80220", "Address": "1195 Newport Street", "City": "Denver", "Zip": "80220", "County": "Denver", "Longitude": -104.909683, "Latitude": 39.73536834, "Type": "Food Pantry", "GlobalID": "67cb99ce-11e6-4f4c-89e1-1d458de0a3e5", "x": 3166020.012, "y": 1693276.995 }, "geometry": { "type": "Point", "coordinates": [ -104.909683, 39.73536834 ] } },
{ "type": "Feature", "properties": { "ObjectID": 115, "Food Pantry Name": "Park Hill Food Pantry", "Full Address": "5500 East 26th Ave Denver, CO 80207", "Address": "5500 East 26th Ave", "City": "Denver", "Zip": "80207", "County": "Denver", "Longitude": -104.9231554, "Latitude": 39.75444069, "Type": "Food Pantry", "GlobalID": "6e1fdefe-d7dc-4892-bbd5-d19e83837426", "x": 3162186.989, "y": 1700199.994 }, "geometry": { "type": "Point", "coordinates": [ -104.9231554, 39.75444069 ] } },
{ "type": "Feature", "properties": { "ObjectID": 116, "Food Pantry Name": "Patriot Cares George Washington High School", "Full Address": "655 S Monaco Pkwy Denver, CO 80224-1228", "Address": "655 S Monaco Pkwy", "City": "Denver", "Zip": "80224-1228", "County": "Denver", "Longitude": -104.9134941, "Latitude": 39.70490888, "Type": "Food Pantry", "GlobalID": "504dd2b8-3216-4360-975b-03f2b275ad53", "x": 3165019.832, "y": 1682174.926 }, "geometry": { "type": "Point", "coordinates": [ -104.9134941, 39.70490888 ] } },
{ "type": "Feature", "properties": { "ObjectID": 117, "Food Pantry Name": "Praise Center", "Full Address": "3105 W Florida Ave Denver, CO 80219-4003", "Address": "3105 W Florida Ave", "City": "Denver", "Zip": "80219-4003", "County": "Denver", "Longitude": -105.0267273, "Latitude": 39.68975927, "Type": "Food Pantry", "GlobalID": "44268090-15a0-4144-a79f-c2e9ec7e045e", "x": 3133189.51, "y": 1676470.722 }, "geometry": { "type": "Point", "coordinates": [ -105.0267273, 39.68975927 ] } },
{ "type": "Feature", "properties": { "ObjectID": 118, "Food Pantry Name": "PlatteForum", "Full Address": "2700 Arapahoe St  Denver, CO 80205-2706", "Address": "2700 Arapahoe St ", "City": "Denver", "Zip": "80205-2706", "County": "Denver", "Longitude": -104.9819754, "Latitude": 39.75810702, "Type": "Food Pantry", "GlobalID": "f3320470-e1c7-4c99-804a-490e3718b1d2", "x": 3145641.574, "y": 1701435.854 }, "geometry": { "type": "Point", "coordinates": [ -104.9819754, 39.75810702 ] } },
{ "type": "Feature", "properties": { "ObjectID": 119, "Food Pantry Name": "Project Access Bridges ", "Full Address": "10025 E Girard Ave Denver, CO 80231-5554", "Address": "10025 E Girard Ave", "City": "Denver", "Zip": "80231-5554", "County": "Denver", "Longitude": -104.8707133, "Latitude": 39.65555721, "Type": "Food Pantry", "GlobalID": "4a839ab6-8131-47ce-b2e6-e28bde826929", "x": 3177180.992, "y": 1664279.001 }, "geometry": { "type": "Point", "coordinates": [ -104.8707133, 39.65555721 ] } },
{ "type": "Feature", "properties": { "ObjectID": 120, "Food Pantry Name": "Providence Logan Exec Net", "Full Address": "801 N Logan Street Denver, CO 80203-3114", "Address": "801 N Logan Street", "City": "Denver", "Zip": "80203-3114", "County": "Denver", "Longitude": -104.9827126, "Latitude": 39.72933207, "Type": "Food Pantry", "GlobalID": "894015ae-603f-45d0-8212-0f75cbe50bec", "x": 3145493.999, "y": 1690953.005 }, "geometry": { "type": "Point", "coordinates": [ -104.9827126, 39.72933207 ] } },
{ "type": "Feature", "properties": { "ObjectID": 121, "Food Pantry Name": "Project Angel Heart", "Full Address": "4950 Washington St Denver, CO 80216-2026", "Address": "4950 Washington St", "City": "Denver", "Zip": "80216-2026", "County": "Denver", "Longitude": -104.9773703, "Latitude": 39.7868846, "Type": "Food Pantry", "GlobalID": "64d52897-dcfe-411a-bd09-a58a000a9e1a", "x": 3146875.99, "y": 1711926.004 }, "geometry": { "type": "Point", "coordinates": [ -104.9773703, 39.7868846 ] } },
{ "type": "Feature", "properties": { "ObjectID": 122, "Food Pantry Name": "Re:Vision", "Full Address": "3738 Morrison Rd Denver, CO 80219-2620", "Address": "3738 Morrison Rd", "City": "Denver", "Zip": "80219-2620", "County": "Denver", "Longitude": -105.0369284, "Latitude": 39.70816032, "Type": "Food Pantry", "GlobalID": "f4e8ea1e-54a3-47bb-9be1-c9b1d0902803", "x": 3130284.549, "y": 1683158.674 }, "geometry": { "type": "Point", "coordinates": [ -105.0369284, 39.70816032 ] } },
{ "type": "Feature", "properties": { "ObjectID": 123, "Food Pantry Name": "Redeemed Christian Church of God", "Full Address": "1195 Newport St Denver, CO 80220-2949", "Address": "1195 Newport St", "City": "Denver", "Zip": "80220-2949", "County": "Denver", "Longitude": -104.909683, "Latitude": 39.73536834, "Type": "Food Pantry", "GlobalID": "69e57adb-9d35-4c87-b90d-9090c510bb95", "x": 3166020.012, "y": 1693276.995 }, "geometry": { "type": "Point", "coordinates": [ -104.909683, 39.73536834 ] } },
{ "type": "Feature", "properties": { "ObjectID": 124, "Food Pantry Name": "Regis University", "Full Address": "3333 Regis Blvd Denver, CO 80221-1099", "Address": "3333 Regis Blvd", "City": "Denver", "Zip": "80221-1099", "County": "Denver", "Longitude": -105.0307018, "Latitude": 39.78914068, "Type": "Food Pantry", "GlobalID": "e208fb2e-b27f-4e3c-bbb1-1ea44414e86b", "x": 3131883.991, "y": 1712666.004 }, "geometry": { "type": "Point", "coordinates": [ -105.0307018, 39.78914068 ] } },
{ "type": "Feature", "properties": { "ObjectID": 125, "Food Pantry Name": "Risen Christ Catholic Parish - MP", "Full Address": "3060 S Monaco Pkwy Denver, CO 80222-7012", "Address": "3060 S Monaco Pkwy", "City": "Denver", "Zip": "80222-7012", "County": "Denver", "Longitude": -104.9121926, "Latitude": 39.66078228, "Type": "Mobile Pantry", "GlobalID": "4af3d827-b4b9-4ad6-865d-4d252650c947", "x": 3165490.006, "y": 1666104.005 }, "geometry": { "type": "Point", "coordinates": [ -104.9121926, 39.66078228 ] } },
{ "type": "Feature", "properties": { "ObjectID": 126, "Food Pantry Name": "Redeeming Love Fellowship Food Bank and Love Kitchen", "Full Address": "1201 W 41st Ave Denver, CO 80211", "Address": "1201 W 41st Ave", "City": "Denver", "Zip": "80211", "County": "Denver", "Longitude": -105.000832, "Latitude": 39.77313485, "Type": "Food Pantry", "GlobalID": "97cdc139-7db0-408a-b3a3-f2d5c5fb5a78", "x": 3140310.054, "y": 1706880.316 }, "geometry": { "type": "Point", "coordinates": [ -105.000832, 39.77313485 ] } },
{ "type": "Feature", "properties": { "ObjectID": 127, "Food Pantry Name": "Rocky Mountain Communities Arroyo Village", "Full Address": "1299 Knox Ct Denver, CO 80204-1868", "Address": "1299 Knox Ct", "City": "Denver", "Zip": "80204-1868", "County": "Denver", "Longitude": -105.0323318, "Latitude": 39.73639735, "Type": "Food Pantry", "GlobalID": "33d06599-c8be-4fa5-bbfa-ed5aff396829", "x": 3131524.823, "y": 1693450.971 }, "geometry": { "type": "Point", "coordinates": [ -105.0323318, 39.73639735 ] } },
{ "type": "Feature", "properties": { "ObjectID": 128, "Food Pantry Name": "Rocky Mountain Communities Garden Court", "Full Address": "1150 Syracuse St Denver, CO 80220-3200", "Address": "1150 Syracuse St", "City": "Denver", "Zip": "80220-3200", "County": "Denver", "Longitude": -104.8978411, "Latitude": 39.73433435, "Type": "Food Pantry", "GlobalID": "ae75284d-932c-45c2-851f-4554f8a962a9", "x": 3169352.85, "y": 1692922.211 }, "geometry": { "type": "Point", "coordinates": [ -104.8978411, 39.73433435 ] } },
{ "type": "Feature", "properties": { "ObjectID": 129, "Food Pantry Name": "Rocky Mountain Communities Townview", "Full Address": "1699 Hooker St Denver, CO 80204-1868", "Address": "1699 Hooker St", "City": "Denver", "Zip": "80204-1868", "County": "Denver", "Longitude": -105.0286029, "Latitude": 39.74378399, "Type": "Food Pantry", "GlobalID": "bc724a45-cd78-4782-993f-a394269cab82", "x": 3132559.562, "y": 1696147.08 }, "geometry": { "type": "Point", "coordinates": [ -105.0286029, 39.74378399 ] } },
{ "type": "Feature", "properties": { "ObjectID": 130, "Food Pantry Name": "Rocky Mountain SER", "Full Address": "3555 Pecos St Denver, CO 80211-3057", "Address": "3555 Pecos St", "City": "Denver", "Zip": "80211-3057", "County": "Denver", "Longitude": -105.0066607, "Latitude": 39.76661922, "Type": "Food Pantry", "GlobalID": "d58114ae-dbcd-4a88-926c-1d785504ec9f", "x": 3138684.608, "y": 1704497.933 }, "geometry": { "type": "Point", "coordinates": [ -105.0066607, 39.76661922 ] } },
{ "type": "Feature", "properties": { "ObjectID": 131, "Food Pantry Name": "Ronald McDonald House Denver", "Full Address": "1300 E 21st St Denver, CO 80205-5218", "Address": "1300 E 21st St", "City": "Denver", "Zip": "80205-5218", "County": "Denver", "Longitude": -104.9720609, "Latitude": 39.74788034, "Type": "Food Pantry", "GlobalID": "0c9d0836-f8be-4c7f-b98c-24a3f11060ba", "x": 3148450.642, "y": 1697726.683 }, "geometry": { "type": "Point", "coordinates": [ -104.9720609, 39.74788034 ] } },
{ "type": "Feature", "properties": { "ObjectID": 132, "Food Pantry Name": "Sacred Heart Catholic Church", "Full Address": "2760 Larimer St Denver, CO 80205-2221", "Address": "2760 Larimer St", "City": "Denver", "Zip": "80205-2221", "County": "Denver", "Longitude": -104.9829594, "Latitude": 39.76000598, "Type": "Food Pantry", "GlobalID": "8c2400b8-c1ef-4472-8deb-1b30ed4a08e0", "x": 3145361.005, "y": 1702126.004 }, "geometry": { "type": "Point", "coordinates": [ -104.9829594, 39.76000598 ] } },
{ "type": "Feature", "properties": { "ObjectID": 133, "Food Pantry Name": "Rotary Club DTC Foundation-Thomas Jefferson H.S.", "Full Address": "3950 S Holly St Denver, CO 80237-1117", "Address": "3950 S Holly St", "City": "Denver", "Zip": "80237-1117", "County": "Denver", "Longitude": -104.9217985, "Latitude": 39.64686145, "Type": "Food Pantry", "GlobalID": "daabbe03-4714-46cc-a39a-9a86c26e9d70", "x": 3162817.889, "y": 1661015.979 }, "geometry": { "type": "Point", "coordinates": [ -104.9217985, 39.64686145 ] } },
{ "type": "Feature", "properties": { "ObjectID": 134, "Food Pantry Name": "SAME Cafe", "Full Address": "2023 E. Colfax Ave. Denver, CO 80206", "Address": "2023 E. Colfax Ave.", "City": "Denver", "Zip": "80206", "County": "Denver", "Longitude": -104.9627171, "Latitude": 39.74016359, "Type": "Food Pantry", "GlobalID": "b3112270-d98b-46c1-9032-84847f6a25e5", "x": 3151094.61, "y": 1694931.158 }, "geometry": { "type": "Point", "coordinates": [ -104.9627171, 39.74016359 ] } },
{ "type": "Feature", "properties": { "ObjectID": 135, "Food Pantry Name": "Savio House", "Full Address": "325 King St Denver, CO 80219-1326", "Address": "325 King St", "City": "Denver", "Zip": "80219-1326", "County": "Denver", "Longitude": -105.0343628, "Latitude": 39.72227556, "Type": "Food Pantry", "GlobalID": "04094d5c-a4f7-42fe-9cfb-ce6d40ae20cc", "x": 3130980.0, "y": 1688303.994 }, "geometry": { "type": "Point", "coordinates": [ -105.0343628, 39.72227556 ] } },
{ "type": "Feature", "properties": { "ObjectID": 136, "Food Pantry Name": "Set Free Church of Denver", "Full Address": "1001 Perry St Denver, CO 80204-3051", "Address": "1001 Perry St", "City": "Denver", "Zip": "80204-3051", "County": "Denver", "Longitude": -105.0396539, "Latitude": 39.73347789, "Type": "Food Pantry", "GlobalID": "e99d28f4-680b-426b-8b06-6a8b031dba94", "x": 3129470.997, "y": 1692377.0 }, "geometry": { "type": "Point", "coordinates": [ -105.0396539, 39.73347789 ] } },
{ "type": "Feature", "properties": { "ObjectID": 137, "Food Pantry Name": "Sewall Child Development Center", "Full Address": "940 Filmore St  Denver, CO 80206-3852", "Address": "940 Filmore St ", "City": "Denver", "Zip": "80206-3852", "County": "Denver", "Longitude": -104.9526932, "Latitude": 39.73147964, "Type": "Food Pantry", "GlobalID": "3ec94d7b-b7c7-4b3f-ad91-f8584b59efe9", "x": 3153932.559, "y": 1691784.754 }, "geometry": { "type": "Point", "coordinates": [ -104.9526932, 39.73147964 ] } },
{ "type": "Feature", "properties": { "ObjectID": 138, "Food Pantry Name": "Sewall Child Development Center - Dahlia Campus", "Full Address": "3401 Eudora Street Denver, CO 80207-2500", "Address": "3401 Eudora Street", "City": "Denver", "Zip": "80207-2500", "County": "Denver", "Longitude": -104.9312868, "Latitude": 39.76478525, "Type": "Food Pantry", "GlobalID": "c95beb11-05f4-4b89-b571-ccec91c1abd2", "x": 3159877.172, "y": 1703953.736 }, "geometry": { "type": "Point", "coordinates": [ -104.9312868, 39.76478525 ] } },
{ "type": "Feature", "properties": { "ObjectID": 139, "Food Pantry Name": "Sewall Child Development Center - The Zone", "Full Address": "4800 Telluride St  Denver, CO 80249-6803", "Address": "4800 Telluride St ", "City": "Denver", "Zip": "80249-6803", "County": "Denver", "Longitude": -104.7814332, "Latitude": 39.78564759, "Type": "Food Pantry", "GlobalID": "7e577855-258f-4fe8-b267-b9ba62d4bf27", "x": 3201943.271, "y": 1711851.569 }, "geometry": { "type": "Point", "coordinates": [ -104.7814332, 39.78564759 ] } },
{ "type": "Feature", "properties": { "ObjectID": 140, "Food Pantry Name": "Servicios de la Raza Inc", "Full Address": "3131 W 14th Ave Denver, CO 80204-2203", "Address": "3131 W 14th Ave", "City": "Denver", "Zip": "80204-2203", "County": "Denver", "Longitude": -105.0270773, "Latitude": 39.73880597, "Type": "Food Pantry", "GlobalID": "a3955aca-ff14-47fa-b432-46a762404be4", "x": 3132998.002, "y": 1694335.994 }, "geometry": { "type": "Point", "coordinates": [ -105.0270773, 39.73880597 ] } },
{ "type": "Feature", "properties": { "ObjectID": 141, "Food Pantry Name": "Sharing and Caring Ministries", "Full Address": "3739 Downing St Denver, CO 80205-2415", "Address": "3739 Downing St", "City": "Denver", "Zip": "80205-2415", "County": "Denver", "Longitude": -104.9736542, "Latitude": 39.7685546, "Type": "Food Pantry", "GlobalID": "62b10ed3-3b4b-4b54-8e12-037759bc8a97", "x": 3147958.99, "y": 1705255.0 }, "geometry": { "type": "Point", "coordinates": [ -104.9736542, 39.7685546 ] } },
{ "type": "Feature", "properties": { "ObjectID": 142, "Food Pantry Name": "Southwest Food Coalition", "Full Address": "1000 S Lowell Blvd Denver, CO 80219", "Address": "1000 S Lowell Blvd", "City": "Denver", "Zip": "80219", "County": "Denver", "Longitude": -105.0336817, "Latitude": 39.6985179, "Type": "Food Bank", "GlobalID": "02110f49-c6ab-4000-b4eb-058c389730ae", "x": 3131216.011, "y": 1679651.004 }, "geometry": { "type": "Point", "coordinates": [ -105.0336817, 39.6985179 ] } },
{ "type": "Feature", "properties": { "ObjectID": 143, "Food Pantry Name": "Sprout City Farms", "Full Address": "6700 E. Virginia Ave.  Denver, CO 80224", "Address": "6700 E. Virginia Ave. ", "City": "Denver", "Zip": "80224", "County": "Denver", "Longitude": -104.9090149, "Latitude": 39.70662168, "Type": "Food Pantry", "GlobalID": "1a60e675-1f89-476f-977d-898ea65ced54", "x": 3166276.005, "y": 1682806.992 }, "geometry": { "type": "Point", "coordinates": [ -104.9090149, 39.70662168 ] } },
{ "type": "Feature", "properties": { "ObjectID": 144, "Food Pantry Name": "Southwest Improvement Council", "Full Address": "5045 W 1st Ave Denver, CO 80219", "Address": "5045 W 1st Ave", "City": "Denver", "Zip": "80219", "County": "Denver", "Longitude": -105.0515511, "Latitude": 39.71845229, "Type": "Food Pantry", "GlobalID": "804cd63a-96a3-4251-9e62-dbdfdf29a831", "x": 3126151.992, "y": 1686886.998 }, "geometry": { "type": "Point", "coordinates": [ -105.0515511, 39.71845229 ] } },
{ "type": "Feature", "properties": { "ObjectID": 145, "Food Pantry Name": "St Anthonys Food Bank", "Full Address": "3801 W Ohio Ave Denver, CO 80219-3226", "Address": "3801 W Ohio Ave", "City": "Denver", "Zip": "80219-3226", "County": "Denver", "Longitude": -105.0378246, "Latitude": 39.7024408, "Type": "Food Pantry", "GlobalID": "a38ddf61-8f42-4280-8954-ae5b0f0e956e", "x": 3130043.009, "y": 1681073.999 }, "geometry": { "type": "Point", "coordinates": [ -105.0378246, 39.7024408 ] } },
{ "type": "Feature", "properties": { "ObjectID": 146, "Food Pantry Name": "St Martin Plaza", "Full Address": "1300 Bruce Randolph Ave Denver, CO 80205-3964", "Address": "1300 Bruce Randolph Ave", "City": "Denver", "Zip": "80205-3964", "County": "Denver", "Longitude": -104.9717831, "Latitude": 39.76428834, "Type": "Food Pantry", "GlobalID": "638d9ac3-3d69-4fe7-b0b2-79543b605d6e", "x": 3148493.995, "y": 1703703.998 }, "geometry": { "type": "Point", "coordinates": [ -104.9717831, 39.76428834 ] } },
{ "type": "Feature", "properties": { "ObjectID": 147, "Food Pantry Name": "St Mary Magdalene Catholic Church", "Full Address": "2771 Zenobia St Denver, CO 80212-1554", "Address": "2771 Zenobia St", "City": "Denver", "Zip": "80212-1554", "County": "Denver", "Longitude": -105.0528857, "Latitude": 39.75719256, "Type": "Food Pantry", "GlobalID": "4cd3abba-3a6c-4706-a58c-cadbceeffc06", "x": 3125707.12, "y": 1700996.846 }, "geometry": { "type": "Point", "coordinates": [ -105.0528857, 39.75719256 ] } },
{ "type": "Feature", "properties": { "ObjectID": 148, "Food Pantry Name": "St Stephens Missionary Baptist Church", "Full Address": "2050 Uinta St Denver, CO 80238-3789", "Address": "2050 Uinta St", "City": "Denver", "Zip": "80238-3789", "County": "Denver", "Longitude": -104.8925812, "Latitude": 39.7483058, "Type": "Food Pantry", "GlobalID": "807f0e64-19da-41bc-a948-96cafa353e4e", "x": 3170798.109, "y": 1698021.315 }, "geometry": { "type": "Point", "coordinates": [ -104.8925812, 39.7483058 ] } },
{ "type": "Feature", "properties": { "ObjectID": 149, "Food Pantry Name": "St. Catherine of Siena Parish Church", "Full Address": "4200 Federal Blvd Denver, CO 80211", "Address": "4200 Federal Blvd", "City": "Denver", "Zip": "80211", "County": "Denver", "Longitude": -105.0249873, "Latitude": 39.7743773, "Type": "Food Pantry", "GlobalID": "9b3e22b0-67f8-4771-bbe5-9228a77cb6a7", "x": 3133518.015, "y": 1707296.497 }, "geometry": { "type": "Point", "coordinates": [ -105.0249873, 39.7743773 ] } },
{ "type": "Feature", "properties": { "ObjectID": 150, "Food Pantry Name": "St. Anthony of Padua Church", "Full Address": "3801 W. Ohio Ave. Denver, CO 80219", "Address": "3801 W. Ohio Ave.", "City": "Denver", "Zip": "80219", "County": "Denver", "Longitude": -105.0378246, "Latitude": 39.7024408, "Type": "Food Pantry", "GlobalID": "3d785689-5b24-4f8f-825e-29d2c832be17", "x": 3130043.009, "y": 1681073.999 }, "geometry": { "type": "Point", "coordinates": [ -105.0378246, 39.7024408 ] } },
{ "type": "Feature", "properties": { "ObjectID": 151, "Food Pantry Name": "St Margaret of Castello", "Full Address": "3005 W 29th St  Denver, CO 80211-3701", "Address": "3005 W 29th St ", "City": "Denver", "Zip": "80211-3701", "County": "Denver", "Longitude": -105.0256078, "Latitude": 39.75870373, "Type": "Food Pantry", "GlobalID": "ef3ead87-b80c-46ac-90cb-07d3e162ba63", "x": 3133373.413, "y": 1701586.211 }, "geometry": { "type": "Point", "coordinates": [ -105.0256078, 39.75870373 ] } },
{ "type": "Feature", "properties": { "ObjectID": 152, "Food Pantry Name": "St. Mary Magdalene Church", "Full Address": "2771 Zenobia St Denver, CO 80212", "Address": "2771 Zenobia St", "City": "Denver", "Zip": "80212", "County": "Denver", "Longitude": -105.0528857, "Latitude": 39.75719256, "Type": "Food Pantry", "GlobalID": "50e4e10c-32b3-4ccb-9adc-c08b0a5b5a5f", "x": 3125707.12, "y": 1700996.846 }, "geometry": { "type": "Point", "coordinates": [ -105.0528857, 39.75719256 ] } },
{ "type": "Feature", "properties": { "ObjectID": 153, "Food Pantry Name": "St. Vincent de Paul Parish Church", "Full Address": "2375 E. Arizona Ave. Denver, CO 80210", "Address": "2375 E. Arizona Ave.", "City": "Denver", "Zip": "80210", "County": "Denver", "Longitude": -104.9587671, "Latitude": 39.6951881, "Type": "Food Pantry", "GlobalID": "c1ef5cb3-db69-4d31-8302-5de9accb696c", "x": 3152303.011, "y": 1678554.998 }, "geometry": { "type": "Point", "coordinates": [ -104.9587671, 39.6951881 ] } },
{ "type": "Feature", "properties": { "ObjectID": 154, "Food Pantry Name": "Street Fraternity", "Full Address": "8720 E Colfax Denver, CO 80220-2234", "Address": "8720 E Colfax", "City": "Denver", "Zip": "80220-2234", "County": "Denver", "Longitude": -104.8864853, "Latitude": 39.74001174, "Type": "Food Pantry", "GlobalID": "92ab3999-eb46-4380-9691-272f0858cdc1", "x": 3172532.573, "y": 1695011.628 }, "geometry": { "type": "Point", "coordinates": [ -104.8864853, 39.74001174 ] } },
{ "type": "Feature", "properties": { "ObjectID": 155, "Food Pantry Name": "Stedman Elemntary PTA", "Full Address": "2940 Dexter St Denver, CO 80207-0000", "Address": "2940 Dexter St", "City": "Denver", "Zip": "80207-0000", "County": "Denver", "Longitude": -104.9322641, "Latitude": 39.75927, "Type": "Food Pantry", "GlobalID": "8e8766b2-5faa-4097-9678-2a78055c4164", "x": 3159615.008, "y": 1701943.006 }, "geometry": { "type": "Point", "coordinates": [ -104.9322641, 39.75927 ] } },
{ "type": "Feature", "properties": { "ObjectID": 156, "Food Pantry Name": "Sun Valley Community Center", "Full Address": "1260 Decatur St Denver, CO 80204-3362", "Address": "1260 Decatur St", "City": "Denver", "Zip": "80204-3362", "County": "Denver", "Longitude": -105.0216075, "Latitude": 39.73569134, "Type": "Food Pantry", "GlobalID": "38c99f67-d7e7-4892-8059-c9cfc3c9b714", "x": 3134542.202, "y": 1693209.502 }, "geometry": { "type": "Point", "coordinates": [ -105.0216075, 39.73569134 ] } },
{ "type": "Feature", "properties": { "ObjectID": 157, "Food Pantry Name": "Sun Valley Youth Center", "Full Address": "1230 Decatur St Denver, CO 80204-3362", "Address": "1230 Decatur St", "City": "Denver", "Zip": "80204-3362", "County": "Denver", "Longitude": -105.0214151, "Latitude": 39.73533779, "Type": "Food Pantry", "GlobalID": "9f77fd9c-1991-477e-8a3f-646289adb829", "x": 3134597.005, "y": 1693081.002 }, "geometry": { "type": "Point", "coordinates": [ -105.0214151, 39.73533779 ] } },
{ "type": "Feature", "properties": { "ObjectID": 158, "Food Pantry Name": "Teen Challenge of Colorado", "Full Address": "2634 S Broadway St Denver, CO 80210-5705", "Address": "2634 S Broadway St", "City": "Denver", "Zip": "80210-5705", "County": "Denver", "Longitude": -104.9872766, "Latitude": 39.6686917, "Type": "Food Pantry", "GlobalID": "9bb7f810-4fa3-48a3-bd78-ef5055ba1094", "x": 3144335.007, "y": 1668856.997 }, "geometry": { "type": "Point", "coordinates": [ -104.9872766, 39.6686917 ] } },
{ "type": "Feature", "properties": { "ObjectID": 159, "Food Pantry Name": "The Fax Partnership", "Full Address": "6740 E Colfax Ave Denver, CO 80220-0000", "Address": "6740 E Colfax Ave", "City": "Denver", "Zip": "80220-0000", "County": "Denver", "Longitude": -104.9095705, "Latitude": 39.73987005, "Type": "Food Pantry", "GlobalID": "fa926b5c-6f06-4be4-b73e-1c2349f70a64", "x": 3166040.988, "y": 1694916.998 }, "geometry": { "type": "Point", "coordinates": [ -104.9095705, 39.73987005 ] } },
{ "type": "Feature", "properties": { "ObjectID": 160, "Food Pantry Name": "Struggle of Love Foundation", "Full Address": "12005 E 45th Ave Denver, CO 80239-3143", "Address": "12005 E 45th Ave", "City": "Denver", "Zip": "80239-3143", "County": "Denver", "Longitude": -104.8512321, "Latitude": 39.77818615, "Type": "Food Pantry", "GlobalID": "7c04ca54-b64f-43ed-bd95-1b8a0add26df", "x": 3182347.003, "y": 1708986.003 }, "geometry": { "type": "Point", "coordinates": [ -104.8512321, 39.77818615 ] } },
{ "type": "Feature", "properties": { "ObjectID": 161, "Food Pantry Name": "Teller Pantry Friends", "Full Address": "1150 Garfield St Denver, CO 80206-3513", "Address": "1150 Garfield St", "City": "Denver", "Zip": "80206-3513", "County": "Denver", "Longitude": -104.9434278, "Latitude": 39.73437706, "Type": "Food Pantry", "GlobalID": "fe916e99-e85c-4826-a127-d8b46982c55c", "x": 3156532.008, "y": 1692856.004 }, "geometry": { "type": "Point", "coordinates": [ -104.9434278, 39.73437706 ] } },
{ "type": "Feature", "properties": { "ObjectID": 162, "Food Pantry Name": "The Lovve Project", "Full Address": "1650 S Birch St Denver, CO 80222-3817", "Address": "1650 S Birch St", "City": "Denver", "Zip": "80222-3817", "County": "Denver", "Longitude": -104.9358352, "Latitude": 39.68677845, "Type": "Food Pantry", "GlobalID": "415785ff-7c6d-4482-96f5-290b3df4670e", "x": 3158775.01, "y": 1675530.996 }, "geometry": { "type": "Point", "coordinates": [ -104.9358352, 39.68677845 ] } },
{ "type": "Feature", "properties": { "ObjectID": 163, "Food Pantry Name": "The Other Side Academy", "Full Address": "1859 York St Denver, CO 80206-1213", "Address": "1859 York St", "City": "Denver", "Zip": "80206-1213", "County": "Denver", "Longitude": -104.9601223, "Latitude": 39.74584496, "Type": "Food Pantry", "GlobalID": "dc2ba7f2-664f-43ce-aa0c-c41f3ae39376", "x": 3151812.009, "y": 1697004.998 }, "geometry": { "type": "Point", "coordinates": [ -104.9601223, 39.74584496 ] } },
{ "type": "Feature", "properties": { "ObjectID": 164, "Food Pantry Name": "Tribe Recovery Homes", "Full Address": "1178 Mariposa St Denver, CO 80204-3507", "Address": "1178 Mariposa St", "City": "Denver", "Zip": "80204-3507", "County": "Denver", "Longitude": -105.002614, "Latitude": 39.73511559, "Type": "Food Pantry", "GlobalID": "1510759e-c982-4ba5-bdba-ec55675cbbed", "x": 3139885.011, "y": 1693028.465 }, "geometry": { "type": "Point", "coordinates": [ -105.002614, 39.73511559 ] } },
{ "type": "Feature", "properties": { "ObjectID": 165, "Food Pantry Name": "There with Care", "Full Address": "7808 Cherry Creek Drive South Denver, CO 80231-3231", "Address": "7808 Cherry Creek Drive South", "City": "Denver", "Zip": "80231-3231", "County": "Denver", "Longitude": -104.8975048, "Latitude": 39.67923755, "Type": "Food Pantry", "GlobalID": "b9dd6821-fd81-4a3b-bcc3-8f82a5a21cca", "x": 3169580.528, "y": 1672853.462 }, "geometry": { "type": "Point", "coordinates": [ -104.8975048, 39.67923755 ] } },
{ "type": "Feature", "properties": { "ObjectID": 166, "Food Pantry Name": "Twin Parishes", "Full Address": "3663 Humboldt St Denver, CO 80205-3330", "Address": "3663 Humboldt St", "City": "Denver", "Zip": "80205-3330", "County": "Denver", "Longitude": -104.9698098, "Latitude": 39.76804418, "Type": "Food Pantry", "GlobalID": "2f42f76d-09d7-4904-97f8-eb5164a0f62f", "x": 3149040.761, "y": 1705075.355 }, "geometry": { "type": "Point", "coordinates": [ -104.9698098, 39.76804418 ] } },
{ "type": "Feature", "properties": { "ObjectID": 167, "Food Pantry Name": "Una Mano Una Esperanza", "Full Address": "1000 South Lowell Blvd Denver, CO 80219-3339", "Address": "1000 South Lowell Blvd", "City": "Denver", "Zip": "80219-3339", "County": "Denver", "Longitude": -105.0336817, "Latitude": 39.6985179, "Type": "Food Pantry", "GlobalID": "cb36c19f-4e8e-4217-a7ab-99090c479798", "x": 3131216.011, "y": 1679651.004 }, "geometry": { "type": "Point", "coordinates": [ -105.0336817, 39.6985179 ] } },
{ "type": "Feature", "properties": { "ObjectID": 168, "Food Pantry Name": "University of Denver Food Pantry", "Full Address": "2050 E Evans Ave Denver, CO 80120-4701", "Address": "2050 E Evans Ave", "City": "Denver", "Zip": "80120-4701", "County": "Denver", "Longitude": -104.9631883, "Latitude": 39.6779485, "Type": "Food Pantry", "GlobalID": "6e300614-0e0b-4fa0-878d-99ed6f0db8fe", "x": 3151096.006, "y": 1672267.994 }, "geometry": { "type": "Point", "coordinates": [ -104.9631883, 39.6779485 ] } },
{ "type": "Feature", "properties": { "ObjectID": 169, "Food Pantry Name": "University Church of Christ", "Full Address": "2000 S Milwaukee St Denver, CO 80210-3521", "Address": "2000 S Milwaukee St", "City": "Denver", "Zip": "80210-3521", "County": "Denver", "Longitude": -104.952073, "Latitude": 39.67979612, "Type": "Food Pantry", "GlobalID": "a334e7d8-3085-4e24-afcd-f7989d1f13e8", "x": 3154220.531, "y": 1672959.676 }, "geometry": { "type": "Point", "coordinates": [ -104.952073, 39.67979612 ] } },
{ "type": "Feature", "properties": { "ObjectID": 170, "Food Pantry Name": "Urban Servant Corps", "Full Address": "1660 Ogden St Denver, CO 80218-1414", "Address": "1660 Ogden St", "City": "Denver", "Zip": "80218-1414", "County": "Denver", "Longitude": -104.9744483, "Latitude": 39.74281864, "Type": "Food Pantry", "GlobalID": "6051ff2f-df70-4fe8-8a36-bd13a8e71b9f", "x": 3147790.0, "y": 1695878.997 }, "geometry": { "type": "Point", "coordinates": [ -104.9744483, 39.74281864 ] } },
{ "type": "Feature", "properties": { "ObjectID": 171, "Food Pantry Name": "University of Colorado Denver", "Full Address": "1355 12th St  Denver, CO 80204-1894", "Address": "1355 12th St ", "City": "Denver", "Zip": "80204-1894", "County": "Denver", "Longitude": -105.0030597, "Latitude": 39.74683479, "Type": "Food Pantry", "GlobalID": "36da24cf-7d85-4dc9-a53a-bbd73ef8a6a6", "x": 3139736.298, "y": 1697296.658 }, "geometry": { "type": "Point", "coordinates": [ -105.0030597, 39.74683479 ] } },
{ "type": "Feature", "properties": { "ObjectID": 172, "Food Pantry Name": "Vivent Health ", "Full Address": "5250 Leetsdale Dr Denver, CO 80246-1438", "Address": "5250 Leetsdale Dr", "City": "Denver", "Zip": "80246-1438", "County": "Denver", "Longitude": -104.926304, "Latitude": 39.70739324, "Type": "Food Pantry", "GlobalID": "11c0b90e-0a03-4e22-b283-2e81a10e6bdd", "x": 3161409.939, "y": 1683056.857 }, "geometry": { "type": "Point", "coordinates": [ -104.926304, 39.70739324 ] } },
{ "type": "Feature", "properties": { "ObjectID": 173, "Food Pantry Name": "VOA - Meals on Wheels - Denver", "Full Address": "2660 Larimer St Denver, CO 80205", "Address": "2660 Larimer St", "City": "Denver", "Zip": "80205", "County": "Denver", "Longitude": -104.984135, "Latitude": 39.75927541, "Type": "Mobile Pantry", "GlobalID": "185e1568-771f-4774-8dbd-c9a549381e54", "x": 3145031.997, "y": 1701858.003 }, "geometry": { "type": "Point", "coordinates": [ -104.984135, 39.75927541 ] } },
{ "type": "Feature", "properties": { "ObjectID": 174, "Food Pantry Name": "Warren Village at Alameda", "Full Address": "1390 W. Alameda Ave Denver, CO 80223", "Address": "1390 W. Alameda Ave", "City": "Denver", "Zip": "80223", "County": "Denver", "Longitude": -105.0055596, "Latitude": 39.71104985, "Type": "Food Pantry", "GlobalID": "cc7dda39-19d3-4679-a1f6-1b4441129a5a", "x": 3139104.295, "y": 1684257.723 }, "geometry": { "type": "Point", "coordinates": [ -105.0055596, 39.71104985 ] } },
{ "type": "Feature", "properties": { "ObjectID": 175, "Food Pantry Name": "VOA - West Gate Apartments", "Full Address": "55 S Lincoln St Denver, CO 80209", "Address": "55 S Lincoln St", "City": "Denver", "Zip": "80209", "County": "Denver", "Longitude": -104.9866075, "Latitude": 39.71551288, "Type": "Food Pantry", "GlobalID": "843ff2d3-03c5-40d4-b7b9-e9db78365d06", "x": 3144426.99, "y": 1685913.001 }, "geometry": { "type": "Point", "coordinates": [ -104.9866075, 39.71551288 ] } },
{ "type": "Feature", "properties": { "ObjectID": 176, "Food Pantry Name": "ViVe Wellness", "Full Address": "1620 E 36th Ave Denver, CO 80205-3961", "Address": "1620 E 36th Ave", "City": "Denver", "Zip": "80205-3961", "County": "Denver", "Longitude": -104.967997, "Latitude": 39.76687537, "Type": "Food Pantry", "GlobalID": "bb077bdd-59d7-4b80-b1bd-d73809f6f32c", "x": 3149552.85, "y": 1704652.576 }, "geometry": { "type": "Point", "coordinates": [ -104.967997, 39.76687537 ] } },
{ "type": "Feature", "properties": { "ObjectID": 177, "Food Pantry Name": "Wellpower Dahlia Campus Health Well Being DBA ", "Full Address": "3401 Eudora St Denver, CO 80207-2500", "Address": "3401 Eudora St", "City": "Denver", "Zip": "80207-2500", "County": "Denver", "Longitude": -104.9312868, "Latitude": 39.76478525, "Type": "Food Pantry", "GlobalID": "d5580d58-75dc-4e1c-b578-615febf2d131", "x": 3159877.172, "y": 1703953.736 }, "geometry": { "type": "Point", "coordinates": [ -104.9312868, 39.76478525 ] } },
{ "type": "Feature", "properties": { "ObjectID": 178, "Food Pantry Name": "WellPower - Family Resource Center", "Full Address": "1075 Galapago St Denver, CO 80204", "Address": "1075 Galapago St", "City": "Denver", "Zip": "80204", "County": "Denver", "Longitude": -104.9968039, "Latitude": 39.7331432, "Type": "Food Pantry", "GlobalID": "7bb6a16b-aaba-4e40-b512-781db71125c1", "x": 3141523.003, "y": 1692318.996 }, "geometry": { "type": "Point", "coordinates": [ -104.9968039, 39.7331432 ] } },
{ "type": "Feature", "properties": { "ObjectID": 179, "Food Pantry Name": "We Don't Waste", "Full Address": "6090 E 39th Ave Denver, CO 80207-0000", "Address": "6090 E 39th Ave", "City": "Denver", "Zip": "80207-0000", "County": "Denver", "Longitude": -104.9180334, "Latitude": 39.77076075, "Type": "Food Bank", "GlobalID": "a27ceb44-995f-4a82-904b-230ead96cca7", "x": 3163589.005, "y": 1706154.0 }, "geometry": { "type": "Point", "coordinates": [ -104.9180334, 39.77076075 ] } },
{ "type": "Feature", "properties": { "ObjectID": 180, "Food Pantry Name": "Wellshire Presbyterian", "Full Address": "2999 S Colorado Blvd Denver, CO 80222-6607", "Address": "2999 S Colorado Blvd", "City": "Denver", "Zip": "80222-6607", "County": "Denver", "Longitude": -104.9412707, "Latitude": 39.66325213, "Type": "Food Pantry", "GlobalID": "da95d0d5-f334-4e0f-9b1b-5572bb29a11e", "x": 3157298.002, "y": 1666951.993 }, "geometry": { "type": "Point", "coordinates": [ -104.9412707, 39.66325213 ] } },
{ "type": "Feature", "properties": { "ObjectID": 181, "Food Pantry Name": "Woodside Baptist Church", "Full Address": "8500 E Alameda Ave Denver, CO 80207-1105", "Address": "8500 E Alameda Ave", "City": "Denver", "Zip": "80207-1105", "County": "Denver", "Longitude": -104.8900068, "Latitude": 39.70771255, "Type": "Food Pantry", "GlobalID": "7668d269-ee54-47ac-9406-4f925ca8534c", "x": 3171621.274, "y": 1683239.699 }, "geometry": { "type": "Point", "coordinates": [ -104.8900068, 39.70771255 ] } },
{ "type": "Feature", "properties": { "ObjectID": 182, "Food Pantry Name": "Wellpower 10th DBA ", "Full Address": "2929 W 10th Ave Denver, CO 80206-3363", "Address": "2929 W 10th Ave", "City": "Denver", "Zip": "80206-3363", "County": "Denver", "Longitude": -105.0237741, "Latitude": 39.73348523, "Type": "Food Pantry", "GlobalID": "3d30bf53-0e0c-4653-a9c1-5dd2a0dd47eb", "x": 3133937.081, "y": 1692402.696 }, "geometry": { "type": "Point", "coordinates": [ -105.0237741, 39.73348523 ] } },
{ "type": "Feature", "properties": { "ObjectID": 183, "Food Pantry Name": "Zion Baptist Church Family Resource Center", "Full Address": "2368 Emerson St. Denver, CO 80205", "Address": "2368 Emerson St.", "City": "Denver", "Zip": "80205", "County": "Denver", "Longitude": -104.9755369, "Latitude": 39.75179775, "Type": "Food Pantry", "GlobalID": "89307f71-bec0-4710-be69-b740a323aa7f", "x": 3147465.008, "y": 1699147.994 }, "geometry": { "type": "Point", "coordinates": [ -104.9755369, 39.75179775 ] } },
{ "type": "Feature", "properties": { "ObjectID": 184, "Food Pantry Name": "Zion Senior Center", "Full Address": "5151 E 33rd Ave Denver, CO 80207-1934", "Address": "5151 E 33rd Ave", "City": "Denver", "Zip": "80207-1934", "County": "Denver", "Longitude": -104.9279921, "Latitude": 39.76407271, "Type": "Food Pantry", "GlobalID": "4a8ca381-c566-4851-8cf7-32cfcf7bdc25", "x": 3160804.998, "y": 1703699.998 }, "geometry": { "type": "Point", "coordinates": [ -104.9279921, 39.76407271 ] } },
{ "type": "Feature", "properties": { "ObjectID": 185, "Food Pantry Name": "Frontline Farming - Sister Garden", "Full Address": "2861 52 ave Denver, CO 80221", "Address": "2861 52 ave", "City": "Denver", "Zip": "80221", "County": "Denver", "Longitude": -105.0230714, "Latitude": 39.7911585, "Type": "Food Pantry", "GlobalID": "e8a5fcf6-b086-4516-89c9-51d639c3849e", "x": 3134024.425, "y": 1713412.204 }, "geometry": { "type": "Point", "coordinates": [ -105.0230714, 39.7911585 ] } },
{ "type": "Feature", "properties": { "ObjectID": 186, "Food Pantry Name": "Assumption of the Blessed Virgin Mary Church", "Full Address": "2361 E 78th Ave Denver, CO 80229", "Address": "2361 E 78th Ave", "City": "Denver", "Zip": "80229", "County": "Denver", "Longitude": -104.9581588, "Latitude": 39.83831986, "Type": "Food Pantry", "GlobalID": "d451c115-73f1-4028-8995-35c486adf768", "x": 3152163.224, "y": 1730694.09 }, "geometry": { "type": "Point", "coordinates": [ -104.9581588, 39.83831986 ] } },
{ "type": "Feature", "properties": { "ObjectID": 187, "Food Pantry Name": "Families of Peace Church", "Full Address": "3400 W 14th Ave Denver, CO 80204-1635", "Address": "3400 W 14th Ave", "City": "Denver", "Zip": "80204-1635", "County": "Denver", "Longitude": -105.0311993, "Latitude": 39.73842977, "Type": "Food Pantry", "GlobalID": "3f485488-6f17-4838-ad80-7911566d9ebe", "x": 3131839.499, "y": 1694192.95 }, "geometry": { "type": "Point", "coordinates": [ -105.0311993, 39.73842977 ] } },
{ "type": "Feature", "properties": { "ObjectID": 188, "Food Pantry Name": "Breakfree Inc", "Full Address": "7667 E Iliff Ave Unit J Denver, CO 80231", "Address": "7667 E Iliff Ave Unit J", "City": "Denver", "Zip": "80231", "County": "Denver", "Longitude": -104.8984619, "Latitude": 39.67576302, "Type": "Food Pantry", "GlobalID": "e5c0de8e-2139-4ce4-850d-d61d515008f3", "x": 3169319.527, "y": 1671586.071 }, "geometry": { "type": "Point", "coordinates": [ -104.8984619, 39.67576302 ] } },
{ "type": "Feature", "properties": { "ObjectID": 189, "Food Pantry Name": "Lowry Campus - MP", "Full Address": "1070 Alton Way Denver, CO 80230-7104", "Address": "1070 Alton Way", "City": "Denver", "Zip": "80230-7104", "County": "Denver", "Longitude": -104.8828953, "Latitude": 39.73098787, "Type": "Mobile Pantry", "GlobalID": "d33a0631-65a6-4245-8030-866e1c452191", "x": 3173564.481, "y": 1691731.431 }, "geometry": { "type": "Point", "coordinates": [ -104.8828953, 39.73098787 ] } },
{ "type": "Feature", "properties": { "ObjectID": 190, "Food Pantry Name": "Inspire Elementary School PTO", "Full Address": "5677 N Galena St Denver, CO 80238-4106", "Address": "5677 N Galena St", "City": "Denver", "Zip": "80238-4106", "County": "Denver", "Longitude": -104.8685784, "Latitude": 39.79960028, "Type": "Food Pantry", "GlobalID": "f357cd9e-8057-4495-a95e-74a3e4cfba57", "x": 3177417.393, "y": 1716752.11 }, "geometry": { "type": "Point", "coordinates": [ -104.8685784, 39.79960028 ] } },
{ "type": "Feature", "properties": { "ObjectID": 191, "Food Pantry Name": "Open Door Youth Gang Alternative", "Full Address": "3600 Franklin St Denver, CO 80205-3325", "Address": "3600 Franklin St", "City": "Denver", "Zip": "80205-3325", "County": "Denver", "Longitude": -104.9683452, "Latitude": 39.76701619, "Type": "Food Pantry", "GlobalID": "1728eaf5-e3e6-4952-97bd-5710112cfacb", "x": 3149454.659, "y": 1704703.299 }, "geometry": { "type": "Point", "coordinates": [ -104.9683452, 39.76701619 ] } },
{ "type": "Feature", "properties": { "ObjectID": 192, "Food Pantry Name": "Rose of Sharon Food Bank", "Full Address": "5306 N Lincoln St Denver, CO 80216-1933", "Address": "5306 N Lincoln St", "City": "Denver", "Zip": "80216-1933", "County": "Denver", "Longitude": -104.9863072, "Latitude": 39.7918094, "Type": "Food Pantry", "GlobalID": "9e612ec4-54bf-4420-9a66-102ae916ed6a", "x": 3144354.316, "y": 1713705.636 }, "geometry": { "type": "Point", "coordinates": [ -104.9863072, 39.7918094 ] } },
{ "type": "Feature", "properties": { "ObjectID": 193, "Food Pantry Name": "Sun Valley - MP", "Full Address": "Empower Field Lot E Denver, CO 80204", "Address": "Empower Field Lot E", "City": "Denver", "Zip": "80204", "County": "Denver", "Longitude": -105.0186274, "Latitude": 39.7439253, "Type": "Mobile Pantry", "GlobalID": "41f880be-8534-4a69-8e2c-0b169cb18dca", "x": 3135364.422, "y": 1696213.264 }, "geometry": { "type": "Point", "coordinates": [ -105.0186274, 39.7439253 ] } },
{ "type": "Feature", "properties": { "ObjectID": 194, "Food Pantry Name": "St Philip Lutheran Church Sharing with Sheridan", "Full Address": "3325 W Oxford Ave Denver, CO 80236-3107", "Address": "3325 W Oxford Ave", "City": "Denver", "Zip": "80236-3107", "County": "Denver", "Longitude": -105.0301453, "Latitude": 39.64231101, "Type": "Food Pantry", "GlobalID": "3ee6e776-45b2-4fbf-8d2b-75277eccd6fb", "x": 3132316.998, "y": 1659182.483 }, "geometry": { "type": "Point", "coordinates": [ -105.0301453, 39.64231101 ] } },
{ "type": "Feature", "properties": { "ObjectID": 195, "Food Pantry Name": "Rising Star Missionary Baptist Church", "Full Address": "1500 south dayton st Denver, CO 80247", "Address": "1500 south dayton st", "City": "Denver", "Zip": "80247", "County": "Denver", "Longitude": -104.8747491, "Latitude": 39.67037766, "Type": "Food Pantry", "GlobalID": "156e5e08-104a-4fdb-a2c9-61e6332880e5", "x": 3176007.567, "y": 1669669.511 }, "geometry": { "type": "Point", "coordinates": [ -104.8747491, 39.67037766 ] } }
]
}
