{
"type": "FeatureCollection",
"name": "Hospitals",
"crs": { "type": "name", "properties": { "name": "urn:ogc:def:crs:OGC:1.3:CRS84" } },
"features": [
{ "type": "Feature", "properties": { "OBJECTID": 1, "Facility ID": "10420", "Facility Name": "KINDRED HOSPITAL-DENVER", "Facility Type Code": "15", "Facility Type": "Hospital", "Map Symbol": "Hospital", "Facility Type Detail": "LONG TERM", "Facility Type Abbreviation": "HOSP-LT", "Licensed Beds Total": 81, "Telephone": "(303) 320-5871", "County": "DENVER", "Address Full": "1920 N HIGH ST, DENVER, CO 80218", "Latitude": 39.7463, "Longitude": -104.964645, "CDPHE HFEMS Licensed": "Licensed", "Operating Status": "Active", "Date Data Updated": "2025-10-27T07:00:00Z", "Source": "CDPHE Health Facilities and Emergency Medical Services Division", "GlobalID": "ddd3148a-f969-47e3-a7c8-d16eaa909749", "x": 3150542.059, "y": 1697160.877 }, "geometry": { "type": "Point", "coordinates": [ -104.964645, 39.7463 ] } },
{ "type": "Feature", "properties": { "OBJECTID": 2, "Facility ID": "10424", "Facility Name": "ADVENTHEALTH PORTER", "Facility Type Code": "11", "Facility Type": "Hospital", "Map Symbol": "Hospital", "Facility Type Detail": "SHORT TERM", "Facility Type Abbreviation": "HOSP-ACU", "Licensed Beds Total": 368, "Telephone": "(303) 778-1955", "County": "DENVER", "Address Full": "2525 S DOWNING ST, DENVER, CO 80210", "Latitude": 39.670654, "Longitude": -104.973557, "CDPHE HFEMS Licensed": "Licensed", "Operating Status": "Active", "Date Data Updated": "2025-10-27T07:00:00Z", "Source": "CDPHE Health Facilities and Emergency Medical Services Division", "GlobalID": "f73d8f97-f08d-45d3-8579-f016f9e60a63", "x": 3148195.754, "y": 1669591.517 }, "geometry": { "type": "Point", "coordinates": [ -104.973557, 39.670654 ] } },
{ "type": "Feature", "properties": { "OBJECTID": 3, "Facility ID": "10428", "Facility Name": "HCA HEALTHONE ROSE", "Facility Type Code": "11", "Facility Type": "Hospital", "Map Symbol": "Hospital", "Facility Type Detail": "SHORT TERM", "Facility Type Abbreviation": "HOSP-ACU", "Licensed Beds Total": 422, "Telephone": "(303) 320-2121", "County": "DENVER", "Address Full": "4567 E 9TH AVE, DENVER, CO 80220", "Latitude": 39.731113, "Longitude": -104.934334, "CDPHE HFEMS Licensed": "Licensed", "Operating Status": "Active", "Date Data Updated": "2025-10-27T07:00:00Z", "Source": "CDPHE Health Facilities and Emergency Medical Services Division", "GlobalID": "509ca3bf-e4a9-468e-a678-52d292b0e88b", "x": 3159099.706, "y": 1691680.484 }, "geometry": { "type": "Point", "coordinates": [ -104.934334, 39.731113 ] } },
{ "type": "Feature", "properties": { "OBJECTID": 4, "Facility ID": "10430", "Facility Name": "INTERMOUNTAIN HEALTH SAINT JOSEPH HOSPITAL", "Facility Type Code": "11", "Facility Type": "Hospital", "Map Symbol": "Hospital", "Facility Type Detail": "SHORT TERM", "Facility Type Abbreviation": "HOSP-ACU", "Licensed Beds Total": 400, "Telephone": "(303) 812-2000", "County": "DENVER", "Address Full": "1375 E 19TH AVE, DENVER, CO 80218", "Latitude": 39.745815, "Longitude": -104.971222, "CDPHE HFEMS Licensed": "Licensed", "Operating Status": "Active", "Date Data Updated": "2025-10-27T07:00:00Z", "Source": "CDPHE Health Facilities and Emergency Medical Services Division", "GlobalID": "541b192c-43d3-4e18-af42-6673572e7c05", "x": 3148693.687, "y": 1696973.378 }, "geometry": { "type": "Point", "coordinates": [ -104.971222, 39.745815 ] } },
{ "type": "Feature", "properties": { "OBJECTID": 5, "Facility ID": "10431", "Facility Name": "HCA HEALTHONE PRESBYTERIAN ST. LUKE'S", "Facility Type Code": "11", "Facility Type": "Hospital", "Map Symbol": "Hospital", "Facility Type Detail": "SHORT TERM", "Facility Type Abbreviation": "HOSP-ACU", "Licensed Beds Total": 680, "Telephone": "(303) 839-6000", "County": "DENVER", "Address Full": "1719 E 19TH AVE, DENVER, CO 80218-1281", "Latitude": 39.746143, "Longitude": -104.966728, "CDPHE HFEMS Licensed": "Licensed", "Operating Status": "Active", "Date Data Updated": "2025-10-27T07:00:00Z", "Source": "CDPHE Health Facilities and Emergency Medical Services Division", "GlobalID": "1ffaa3b1-5f2b-40b7-8a06-b7ac000a79d7", "x": 3149956.671, "y": 1697100.243 }, "geometry": { "type": "Point", "coordinates": [ -104.966728, 39.746143 ] } },
{ "type": "Feature", "properties": { "OBJECTID": 6, "Facility ID": "10444", "Facility Name": "DENVER HEALTH MEDICAL CENTER", "Facility Type Code": "11", "Facility Type": "Hospital", "Map Symbol": "Hospital", "Facility Type Detail": "SHORT TERM", "Facility Type Abbreviation": "HOSP-ACU", "Licensed Beds Total": 555, "Telephone": "(303) 436-4927", "County": "DENVER", "Address Full": "777 BANNOCK ST, DENVER, CO 80204", "Latitude": 39.728134, "Longitude": -104.990257, "CDPHE HFEMS Licensed": "Licensed", "Operating Status": "Active", "Date Data Updated": "2025-10-27T07:00:00Z", "Source": "CDPHE Health Facilities and Emergency Medical Services Division", "GlobalID": "ecb72aea-8c83-437f-b897-e8c146686f98", "x": 3143377.294, "y": 1690502.252 }, "geometry": { "type": "Point", "coordinates": [ -104.990257, 39.728134 ] } },
{ "type": "Feature", "properties": { "OBJECTID": 7, "Facility ID": "10486", "Facility Name": "PAM SPECIALTY HOSPITAL OF DENVER", "Facility Type Code": "15", "Facility Type": "Hospital", "Map Symbol": "Hospital", "Facility Type Detail": "LONG TERM", "Facility Type Abbreviation": "HOSP-LT", "Licensed Beds Total": 63, "Telephone": "(303) 264-6900", "County": "DENVER", "Address Full": "1690 MEADE ST, DENVER, CO 80204", "Latitude": 39.744026, "Longitude": -105.035728, "CDPHE HFEMS Licensed": "Licensed", "Operating Status": "Active", "Date Data Updated": "2025-10-27T07:00:00Z", "Source": "CDPHE Health Facilities and Emergency Medical Services Division", "GlobalID": "0372a230-728d-416e-84ae-9cc729723de0", "x": 3130558.28, "y": 1696222.568 }, "geometry": { "type": "Point", "coordinates": [ -105.035728, 39.744026 ] } },
{ "type": "Feature", "properties": { "OBJECTID": 8, "Facility ID": "10493", "Facility Name": "COLORADO MENTAL HEALTH HOSPITAL IN FORT LOGAN", "Facility Type Code": "12", "Facility Type": "Hospital", "Map Symbol": "Hospital", "Facility Type Detail": "PSYCHIATRIC", "Facility Type Abbreviation": "HOSP-PSY", "Licensed Beds Total": 138, "Telephone": "(303) 866-7080", "County": "DENVER", "Address Full": "3520 W OXFORD AVE, DENVER, CO 80236", "Latitude": 39.642212, "Longitude": -105.033424, "CDPHE HFEMS Licensed": "Licensed", "Operating Status": "Active", "Date Data Updated": "2025-10-27T07:00:00Z", "Source": "CDPHE Health Facilities and Emergency Medical Services Division", "GlobalID": "e790fe31-714b-4eb0-9472-4eab491f9420", "x": 3131396.645, "y": 1659139.316 }, "geometry": { "type": "Point", "coordinates": [ -105.033424, 39.642212 ] } },
{ "type": "Feature", "properties": { "OBJECTID": 9, "Facility ID": "0104MJ", "Facility Name": "KINDRED HOSPITAL - DENVER SOUTH", "Facility Type Code": "15", "Facility Type": "Hospital", "Map Symbol": "Hospital", "Facility Type Detail": "LONG TERM", "Facility Type Abbreviation": "HOSP-LT", "Licensed Beds Total": 28, "Telephone": "(303) 715-7373", "County": "DENVER", "Address Full": "2525 S DOWNING ST 3RD FLOOR, DENVER, CO 80210", "Latitude": 39.670654, "Longitude": -104.973557, "CDPHE HFEMS Licensed": "Licensed", "Operating Status": "Pending", "Date Data Updated": "2025-10-27T07:00:00Z", "Source": "CDPHE Health Facilities and Emergency Medical Services Division", "GlobalID": "43c34739-59ba-4450-8b18-b5e89c1be04c", "x": 3148195.754, "y": 1669591.517 }, "geometry": { "type": "Point", "coordinates": [ -104.973557, 39.670654 ] } },
{ "type": "Feature", "properties": { "OBJECTID": 10, "Facility ID": "0104MU", "Facility Name": "NATIONAL JEWISH HEALTH", "Facility Type Code": "11", "Facility Type": "Hospital", "Map Symbol": "Hospital", "Facility Type Detail": "SHORT TERM", "Facility Type Abbreviation": "HOSP-ACU", "Licensed Beds Total": 46, "Telephone": "(303) 388-4461", "County": "DENVER", "Address Full": "1400 JACKSON ST, DENVER, CO 80206", "Latitude": 39.73912, "Longitude": -104.942513, "CDPHE HFEMS Licensed": "Licensed", "Operating Status": "Active", "Date Data Updated": "2025-10-27T07:00:00Z", "Source": "CDPHE Health Facilities and Emergency Medical Services Division", "GlobalID": "ac14843b-a2bf-44b6-8498-1762c4a7afa1", "x": 3156781.444, "y": 1694582.905 }, "geometry": { "type": "Point", "coordinates": [ -104.942513, 39.73912 ] } },
{ "type": "Feature", "properties": { "OBJECTID": 11, "Facility ID": "018DRG", "Facility Name": "REUNION REHABILITATION HOSPITAL DENVER", "Facility Type Code": "13", "Facility Type": "Hospital", "Map Symbol": "Hospital", "Facility Type Detail": "REHABILITATION", "Facility Type Abbreviation": "HOSP-RHB", "Licensed Beds Total": 40, "Telephone": "(720) 734-3500", "County": "DENVER", "Address Full": "4650 CENTRAL PARK BLVD, DENVER, CO 80238", "Latitude": 39.779007, "Longitude": -104.882668, "CDPHE HFEMS Licensed": "Licensed", "Operating Status": "Active", "Date Data Updated": "2025-10-27T07:00:00Z", "Source": "CDPHE Health Facilities and Emergency Medical Services Division", "GlobalID": "55582661-e1b7-4840-8b1f-1ba0e8ab6dae", "x": 3173512.306, "y": 1709221.091 }, "geometry": { "type": "Point", "coordinates": [ -104.882668, 39.779007 ] } },
{ "type": "Feature", "properties": { "OBJECTID": 12, "Facility ID": "01C959", "Facility Name": "EATING RECOVERY CENTER     A BEHAVIORAL HOSPITAL", "Facility Type Code": "01C", "Facility Type": "Hospital", "Map Symbol": "Hospital", "Facility Type Detail": "LICENSED PSYCH", "Facility Type Abbreviation": "LICPSY", "Licensed Beds Total": 36, "Telephone": "(720) 258-4031", "County": "DENVER", "Address Full": "1830 N FRANKLIN ST STE 500, DENVER, CO 80218", "Latitude": 39.745224, "Longitude": -104.968376, "CDPHE HFEMS Licensed": "Licensed", "Operating Status": "Active", "Date Data Updated": "2025-10-27T07:00:00Z", "Source": "CDPHE Health Facilities and Emergency Medical Services Division", "GlobalID": "4d6cd636-909a-438d-8dcf-bcfa40ee5217", "x": 3149495.225, "y": 1696762.768 }, "geometry": { "type": "Point", "coordinates": [ -104.968376, 39.745224 ] } },
{ "type": "Feature", "properties": { "OBJECTID": 13, "Facility ID": "01H140", "Facility Name": "EATING RECOVERY CENTER", "Facility Type Code": "01C", "Facility Type": "Hospital", "Map Symbol": "Hospital", "Facility Type Detail": "LICENSED PSYCH", "Facility Type Abbreviation": "LICPSY", "Licensed Beds Total": 72, "Telephone": "(303) 825-8584", "County": "DENVER", "Address Full": "8199 E 1ST AVE, DENVER, CO 80230", "Latitude": 39.722897, "Longitude": -104.891685, "CDPHE HFEMS Licensed": "Licensed", "Operating Status": "Active", "Date Data Updated": "2025-10-27T07:00:00Z", "Source": "CDPHE Health Facilities and Emergency Medical Services Division", "GlobalID": "8d8915c7-ce43-4b62-bfe7-947b58ff5108", "x": 3171114.856, "y": 1688765.237 }, "geometry": { "type": "Point", "coordinates": [ -104.891685, 39.722897 ] } },
{ "type": "Feature", "properties": { "OBJECTID": 429, "Facility ID": "13L197", "Facility Name": "HCA HEALTHONE PRESBYTERIAN ST. LUKE'S REHABILITATION, A PART OF SPALDING REHABILITATION", "Facility Type Code": "S51", "Facility Type": "Hospital", "Map Symbol": "Hospital", "Facility Type Detail": "HOSPITAL UNIT", "Facility Type Abbreviation": "H-UNIT", "Licensed Beds Total": 22, "Telephone": "(303) 839-6293", "County": "DENVER", "Address Full": "1719 E 19TH AVE #6B, DENVER, CO 80218", "Latitude": 39.746143, "Longitude": -104.966728, "CDPHE HFEMS Licensed": "Licensed", "Operating Status": "Active", "Date Data Updated": "2025-10-27T07:00:00Z", "Source": "CDPHE Health Facilities and Emergency Medical Services Division", "GlobalID": "bc149d0f-9ff7-4c95-acfe-2a139a8ee26f", "x": 3149956.671, "y": 1697100.243 }, "geometry": { "type": "Point", "coordinates": [ -104.966728, 39.746143 ] } },
{ "type": "Feature", "properties": { "OBJECTID": 537, "Facility ID": "TC0004", "Facility Name": "PRESBYTERIAN ST LUKE'S MEDICAL CENTER", "Facility Type Code": "01T", "Facility Type": "Hospital", "Map Symbol": "Hospital", "Facility Type Detail": "TRANSPLANT HOSPITAL", "Facility Type Abbreviation": "TH", "Licensed Beds Total": 0, "Telephone": "(303) 839-6100", "County": "DENVER", "Address Full": "1719 EAST 19TH AVENUE, DENVER, CO 80218", "Latitude": 39.746143, "Longitude": -104.966728, "CDPHE HFEMS Licensed": "HCPF Certified", "Operating Status": "Active", "Date Data Updated": "2025-10-27T07:00:00Z", "Source": "CDPHE Health Facilities and Emergency Medical Services Division", "GlobalID": "c53bcd95-b600-4fc6-9552-5f1febc38862", "x": 3149956.671, "y": 1697100.243 }, "geometry": { "type": "Point", "coordinates": [ -104.966728, 39.746143 ] } },
{ "type": "Feature", "properties": { "OBJECTID": 538, "Facility ID": "TC0005", "Facility Name": "CENTURA HEALTH-PORTER ADVENTIST HOSPITAL", "Facility Type Code": "01T", "Facility Type": "Hospital", "Map Symbol": "Hospital", "Facility Type Detail": "TRANSPLANT HOSPITAL", "Facility Type Abbreviation": "TH", "Licensed Beds Total": 0, "Telephone": "Phone Number Not Avaliable", "County": "DENVER", "Address Full": "2535 S DOWNING ST #380, DENVER, CO 80210", "Latitude": 39.670555, "Longitude": -104.973557, "CDPHE HFEMS Licensed": "HCPF Certified", "Operating Status": "Active", "Date Data Updated": "2025-10-27T07:00:00Z", "Source": "CDPHE Health Facilities and Emergency Medical Services Division", "GlobalID": "dbcacc57-b7dd-4ef7-981b-5cf05e26c978", "x": 3148195.963, "y": 1669555.456 }, "geometry": { "type": "Point", "coordinates": [ -104.973557, 39.670555 ] } }
]
}
