{
"type": "FeatureCollection",
"name": "Libraries",
"crs": { "type": "name", "properties": { "name": "urn:ogc:def:crs:OGC:1.3:CRS84" } },
"features": [
{ "type": "Feature", "properties": { "LIBRARY_NA": "John \"Thunderbird Man\" Emhoolah, Jr.", "BRANCH_COD": "BYR", "GLOBALID": "69aea419-f052-4fea-ac7e-51ef2849a655", "ADDRESS_ID": 69509.0, "ADDRESS_LI": "675 N Santa Fe Dr", "ADDRESS__1": null, "CITY": "Denver", "STATE": "CO", "ZIP": "80204", "DOOR_COUNT": 32049, "CIRCULATIO": 18912, "TOTAL_BLDG": 3999.0, "STATUS": null }, "geometry": { "type": "Point", "coordinates": [ -104.998604261494421, 39.726916261016711 ] } },
{ "type": "Feature", "properties": { "LIBRARY_NA": "Ross-Barnum", "BRANCH_COD": "BAR", "GLOBALID": "6b091457-f83e-48c9-a164-557c44c3df59", "ADDRESS_ID": 77271.0, "ADDRESS_LI": "3570 W 1ST Ave", "ADDRESS__1": null, "CITY": "Denver", "STATE": "CO", "ZIP": "80219", "DOOR_COUNT": 33864, "CIRCULATIO": 52057, "TOTAL_BLDG": 10500.0, "STATUS": null }, "geometry": { "type": "Point", "coordinates": [ -105.034576169778887, 39.718160786873909 ] } },
{ "type": "Feature", "properties": { "LIBRARY_NA": "Smiley", "BRANCH_COD": "SMI", "GLOBALID": "ab46096b-9e74-4650-b06e-e9555fd3c74c", "ADDRESS_ID": 27605.0, "ADDRESS_LI": "4501 W 46TH Ave", "ADDRESS__1": null, "CITY": "Denver", "STATE": "CO", "ZIP": "80212", "DOOR_COUNT": 66293, "CIRCULATIO": 122717, "TOTAL_BLDG": 4726.0, "STATUS": null }, "geometry": { "type": "Point", "coordinates": [ -105.045137644745353, 39.780249876416711 ] } },
{ "type": "Feature", "properties": { "LIBRARY_NA": "Woodbury", "BRANCH_COD": "WDB", "GLOBALID": "280eeb21-7adc-49e5-8aee-7b58921e093f", "ADDRESS_ID": 46116.0, "ADDRESS_LI": "3265 N Federal Blvd", "ADDRESS__1": null, "CITY": "Denver", "STATE": "CO", "ZIP": "80211", "DOOR_COUNT": 64330, "CIRCULATIO": 172060, "TOTAL_BLDG": 10023.0, "STATUS": null }, "geometry": { "type": "Point", "coordinates": [ -105.025253676129566, 39.762798540237739 ] } },
{ "type": "Feature", "properties": { "LIBRARY_NA": "Athmar Park", "BRANCH_COD": "ATH", "GLOBALID": "62271658-2367-4a00-b2bf-dcbff40c09a1", "ADDRESS_ID": 92427.0, "ADDRESS_LI": "1055 S Tejon St", "ADDRESS__1": null, "CITY": "Denver", "STATE": "CO", "ZIP": "80223", "DOOR_COUNT": 39933, "CIRCULATIO": 46305, "TOTAL_BLDG": 6478.0, "STATUS": null }, "geometry": { "type": "Point", "coordinates": [ -105.012748245679916, 39.697467925881718 ] } },
{ "type": "Feature", "properties": { "LIBRARY_NA": "Bear Valley", "BRANCH_COD": "BVL", "GLOBALID": "7046309b-e817-4ea3-a9e5-04d832a9aeef", "ADDRESS_ID": 121573.0, "ADDRESS_LI": "5171 W Dartmouth Ave", "ADDRESS__1": null, "CITY": "Denver", "STATE": "CO", "ZIP": "80236", "DOOR_COUNT": 86013, "CIRCULATIO": 172341, "TOTAL_BLDG": 11410.0, "STATUS": null }, "geometry": { "type": "Point", "coordinates": [ -105.05165166026751, 39.656171444165437 ] } },
{ "type": "Feature", "properties": { "LIBRARY_NA": "Hadley", "BRANCH_COD": "HAD", "GLOBALID": "cdfd4e12-ebeb-4187-9477-334bf3ffda14", "ADDRESS_ID": 101460.0, "ADDRESS_LI": "1890 S Grove St", "ADDRESS__1": null, "CITY": "Denver", "STATE": "CO", "ZIP": "80219", "DOOR_COUNT": 58760, "CIRCULATIO": 58705, "TOTAL_BLDG": 12962.0, "STATUS": null }, "geometry": { "type": "Point", "coordinates": [ -105.026223571135745, 39.682436816373524 ] } },
{ "type": "Feature", "properties": { "LIBRARY_NA": "Westwood", "BRANCH_COD": "WES", "GLOBALID": "d5f89625-9fb9-47bb-bbd0-c9e0709f6cd7", "ADDRESS_ID": 94263.0, "ADDRESS_LI": "1000 S Lowell Blvd", "ADDRESS__1": null, "CITY": "Denver", "STATE": "CO", "ZIP": "80219", "DOOR_COUNT": 19212, "CIRCULATIO": 18239, "TOTAL_BLDG": 1073.0, "STATUS": null }, "geometry": { "type": "Point", "coordinates": [ -105.034453175936747, 39.698526660746765 ] } },
{ "type": "Feature", "properties": { "LIBRARY_NA": "Blair-Caldwell", "BRANCH_COD": "BCL", "GLOBALID": "a1990cdc-d7c0-4ba9-b3ca-8ad27b07b1f3", "ADDRESS_ID": 54793.0, "ADDRESS_LI": "2401 Welton St", "ADDRESS__1": null, "CITY": "Denver", "STATE": "CO", "ZIP": "80205", "DOOR_COUNT": 19995, "CIRCULATIO": 21624, "TOTAL_BLDG": 34957.0, "STATUS": "The Blair-Caldwell African American Research Library is temporarily cl" }, "geometry": { "type": "Point", "coordinates": [ -104.981659038188084, 39.752024493922896 ] } },
{ "type": "Feature", "properties": { "LIBRARY_NA": "Ford-Warren", "BRANCH_COD": "FOR", "GLOBALID": "fbe067b6-c908-45ad-99af-158349696ea8", "ADDRESS_ID": 41520.0, "ADDRESS_LI": "2825 N High St", "ADDRESS__1": null, "CITY": "Denver", "STATE": "CO", "ZIP": "80205", "DOOR_COUNT": 57639, "CIRCULATIO": 119114, "TOTAL_BLDG": 10573.0, "STATUS": null }, "geometry": { "type": "Point", "coordinates": [ -104.964732981400971, 39.757305757113876 ] } },
{ "type": "Feature", "properties": { "LIBRARY_NA": "Montbello", "BRANCH_COD": "MLO", "GLOBALID": "d0de5c73-4313-47ef-a66c-3807bb2f98a2", "ADDRESS_ID": 12074.0, "ADDRESS_LI": "12955 Albrook Dr", "ADDRESS__1": null, "CITY": "Denver", "STATE": "CO", "ZIP": "80239", "DOOR_COUNT": 64679, "CIRCULATIO": 36266, "TOTAL_BLDG": 11443.0, "STATUS": null }, "geometry": { "type": "Point", "coordinates": [ -104.840630772464138, 39.779872777610322 ] } },
{ "type": "Feature", "properties": { "LIBRARY_NA": "Park Hill", "BRANCH_COD": "PKH", "GLOBALID": "805864b1-462c-4272-9ae5-5a429925de7b", "ADDRESS_ID": 179230.0, "ADDRESS_LI": "4705 E Montview Blvd", "ADDRESS__1": null, "CITY": "Denver", "STATE": "CO", "ZIP": "80207", "DOOR_COUNT": 105874, "CIRCULATIO": 308240, "TOTAL_BLDG": 10260.0, "STATUS": null }, "geometry": { "type": "Point", "coordinates": [ -104.932779146738469, 39.747409383072316 ] } },
{ "type": "Feature", "properties": { "LIBRARY_NA": "Pauline Robinson", "BRANCH_COD": "ROB", "GLOBALID": "6410914d-b097-4b92-a3ca-cfc2c7c56ff7", "ADDRESS_ID": 14970.0, "ADDRESS_LI": "5575 E 33RD Ave", "ADDRESS__1": null, "CITY": "Denver", "STATE": "CO", "ZIP": "80207", "DOOR_COUNT": 28687, "CIRCULATIO": 39909, "TOTAL_BLDG": 5285.0, "STATUS": null }, "geometry": { "type": "Point", "coordinates": [ -104.92274234801927, 39.763811572717913 ] } },
{ "type": "Feature", "properties": { "LIBRARY_NA": "Ross-Cherry Creek", "BRANCH_COD": "CRK", "GLOBALID": "babbca12-38ee-4591-a624-5b828cbf2993", "ADDRESS_ID": 84797.0, "ADDRESS_LI": "305 N Milwaukee St", "ADDRESS__1": null, "CITY": "Denver", "STATE": "CO", "ZIP": "80206", "DOOR_COUNT": 3291, "CIRCULATIO": 11917, "TOTAL_BLDG": 17808.0, "STATUS": "The Ross-Cherry Creek Branch Library is temporarily closed until furth" }, "geometry": { "type": "Point", "coordinates": [ -104.95221587834952, 39.721067847634316 ] } },
{ "type": "Feature", "properties": { "LIBRARY_NA": "Schlessman Family", "BRANCH_COD": "SCH", "GLOBALID": "8a25b935-cba9-4df9-b7ba-427077a729b7", "ADDRESS_ID": 162724.0, "ADDRESS_LI": "100 N Poplar St", "ADDRESS__1": null, "CITY": "Denver", "STATE": "CO", "ZIP": "80220", "DOOR_COUNT": 131211, "CIRCULATIO": 413231, "TOTAL_BLDG": 14884.0, "STATUS": null }, "geometry": { "type": "Point", "coordinates": [ -104.904965822688979, 39.718378547155133 ] } },
{ "type": "Feature", "properties": { "LIBRARY_NA": "Valdez-Perry", "BRANCH_COD": "VAL", "GLOBALID": "082e4c45-1a1b-419e-bfad-0d1d3adcc7bb", "ADDRESS_ID": 179029.0, "ADDRESS_LI": "4690 N Vine St", "ADDRESS__1": null, "CITY": "Denver", "STATE": "CO", "ZIP": "80216", "DOOR_COUNT": 29007, "CIRCULATIO": 17525, "TOTAL_BLDG": 4883.0, "STATUS": null }, "geometry": { "type": "Point", "coordinates": [ -104.962415474413646, 39.781805744856733 ] } },
{ "type": "Feature", "properties": { "LIBRARY_NA": "Decker", "BRANCH_COD": "DKR", "GLOBALID": "415de62a-0b2e-413e-9849-c21346da57c8", "ADDRESS_ID": 105064.0, "ADDRESS_LI": "1501 S Logan St", "ADDRESS__1": null, "CITY": "Denver", "STATE": "CO", "ZIP": "80210", "DOOR_COUNT": 56866, "CIRCULATIO": 114925, "TOTAL_BLDG": 4932.0, "STATUS": null }, "geometry": { "type": "Point", "coordinates": [ -104.982801984070278, 39.689404702877873 ] } },
{ "type": "Feature", "properties": { "LIBRARY_NA": "Eugene Field", "BRANCH_COD": "FIE", "GLOBALID": "13912b85-b762-45ed-a8c7-094d9d38471e", "ADDRESS_ID": 85982.0, "ADDRESS_LI": "810 S University Blvd", "ADDRESS__1": null, "CITY": "Denver", "STATE": "CO", "ZIP": "80209", "DOOR_COUNT": 76312, "CIRCULATIO": 288863, "TOTAL_BLDG": 10500.0, "STATUS": null }, "geometry": { "type": "Point", "coordinates": [ -104.959342607253859, 39.701832920374677 ] } },
{ "type": "Feature", "properties": { "LIBRARY_NA": "Hampden", "BRANCH_COD": "HMP", "GLOBALID": "3981597c-75a2-4c34-984a-c9c9544d4f3d", "ADDRESS_ID": 179231.0, "ADDRESS_LI": "9755 E Girard Ave", "ADDRESS__1": null, "CITY": "Denver", "STATE": "CO", "ZIP": "80231", "DOOR_COUNT": 77840, "CIRCULATIO": 203382, "TOTAL_BLDG": 11560.0, "STATUS": null }, "geometry": { "type": "Point", "coordinates": [ -104.875044224595953, 39.654335848794176 ] } },
{ "type": "Feature", "properties": { "LIBRARY_NA": "Ross-Broadway", "BRANCH_COD": "BDY", "GLOBALID": "c4857326-76bc-4e7f-8e80-ef50661cd447", "ADDRESS_ID": 80946.0, "ADDRESS_LI": "33 E Bayaud Ave", "ADDRESS__1": null, "CITY": "Denver", "STATE": "CO", "ZIP": "80209", "DOOR_COUNT": 51031, "CIRCULATIO": 117747, "TOTAL_BLDG": 4500.0, "STATUS": null }, "geometry": { "type": "Point", "coordinates": [ -104.987127601294461, 39.714779977395743 ] } },
{ "type": "Feature", "properties": { "LIBRARY_NA": "Ross-University Hills", "BRANCH_COD": "UNH", "GLOBALID": "26e14b0e-b96d-4033-a713-9ed6eef9d460", "ADDRESS_ID": 143542.0, "ADDRESS_LI": "4310 E Amherst Ave", "ADDRESS__1": null, "CITY": "Denver", "STATE": "CO", "ZIP": "80222", "DOOR_COUNT": 105668, "CIRCULATIO": 430152, "TOTAL_BLDG": 21143.0, "STATUS": null }, "geometry": { "type": "Point", "coordinates": [ -104.937782284632888, 39.665425493983641 ] } },
{ "type": "Feature", "properties": { "LIBRARY_NA": "Virginia Village", "BRANCH_COD": "VVI", "GLOBALID": "42440ab9-428c-4805-abb9-af62f6ba321d", "ADDRESS_ID": 138200.0, "ADDRESS_LI": "1500 S Dahlia St", "ADDRESS__1": null, "CITY": "Denver", "STATE": "CO", "ZIP": "80222", "DOOR_COUNT": 66829, "CIRCULATIO": 244300, "TOTAL_BLDG": 11524.0, "STATUS": null }, "geometry": { "type": "Point", "coordinates": [ -104.931707247473526, 39.689329119089386 ] } },
{ "type": "Feature", "properties": { "LIBRARY_NA": "Central", "BRANCH_COD": "CEN", "GLOBALID": "113d3fa8-ce88-43b2-8876-c94622c2773f", "ADDRESS_ID": 179022.0, "ADDRESS_LI": "10 W 14TH Ave", "ADDRESS__1": null, "CITY": "Denver", "STATE": "CO", "ZIP": "80204", "DOOR_COUNT": 124768, "CIRCULATIO": 255269, "TOTAL_BLDG": 540315.0, "STATUS": "Due to Elevate Denver Bond Program construction, Central Library is op" }, "geometry": { "type": "Point", "coordinates": [ -104.987299509318291, 39.738439561435968 ] } },
{ "type": "Feature", "properties": { "LIBRARY_NA": "Sam Gary", "BRANCH_COD": "SGB", "GLOBALID": "b3042da0-fae5-4481-9463-eabfcc080d61", "ADDRESS_ID": 372322.0, "ADDRESS_LI": "2961 Roslyn St", "ADDRESS__1": null, "CITY": "Denver", "STATE": "CO", "ZIP": "80238", "DOOR_COUNT": 147673, "CIRCULATIO": 480299, "TOTAL_BLDG": 28490.0, "STATUS": null }, "geometry": { "type": "Point", "coordinates": [ -104.901005367791356, 39.759049661802614 ] } },
{ "type": "Feature", "properties": { "LIBRARY_NA": "Green Valley Ranch", "BRANCH_COD": "GVR", "GLOBALID": "99665f5f-464b-4287-a235-8fac039302b2", "ADDRESS_ID": 356186.0, "ADDRESS_LI": "4856 N Andes Ct", "ADDRESS__1": null, "CITY": "Denver", "STATE": "CO", "ZIP": "80249", "DOOR_COUNT": 104422, "CIRCULATIO": 166756, "TOTAL_BLDG": 25602.0, "STATUS": null }, "geometry": { "type": "Point", "coordinates": [ -104.766853196787096, 39.784931198408678 ] } },
{ "type": "Feature", "properties": { "LIBRARY_NA": "Rodolfo \"Corky\" Gonzalez Branch", "BRANCH_COD": "GON", "GLOBALID": "294c99fe-e4c9-4c03-847b-cb7bcd178205", "ADDRESS_ID": 381139.0, "ADDRESS_LI": "1498 Irving St", "ADDRESS__1": null, "CITY": "Denver", "STATE": "CO", "ZIP": "80204", "DOOR_COUNT": 81205, "CIRCULATIO": 137201, "TOTAL_BLDG": 26973.0, "STATUS": null }, "geometry": { "type": "Point", "coordinates": [ -105.02939885565678, 39.739925297018836 ] } },
{ "type": "Feature", "properties": { "LIBRARY_NA": "Bob Ragland", "BRANCH_COD": "RGL", "GLOBALID": "5051f95a-33f4-4b57-a56d-6ec4db758327", "ADDRESS_ID": 0.0, "ADDRESS_LI": "1900 35th Street", "ADDRESS__1": "Suite A", "CITY": "Denver", "STATE": "CO", "ZIP": "80216", "DOOR_COUNT": 18646, "CIRCULATIO": 10036, "TOTAL_BLDG": 7000.0, "STATUS": null }, "geometry": { "type": "Point", "coordinates": [ -104.980040104740183, 39.771008696691105 ] } }
]
}
