{
"type": "FeatureCollection",
"name": "Medicaid_Medicare_Dual",
"crs": { "type": "name", "properties": { "name": "urn:ogc:def:crs:OGC:1.3:CRS84" } },
"features": [
{ "type": "Feature", "properties": { "OBJECTID": 38, "Facility ID": "40439", "Facility Name": "BAYADA HOME HEALTH CARE INC", "Facility Type Code": 51, "Facility Type": "Home Health Agency", "Map Symbol": "Home Health", "Facility Type Detail": "MEDICARE/MEDICAID", "Facility Type Abbreviation": "HHA-1819", "Licensed Beds Total": false, "Telephone": "(303) 782-0900", "County": "DENVER", "Address Full": "1325 S COLORADO BLVD  BLDG B STE 507, DENVER, CO 80222", "Latitude": 39.692509, "Longitude": -104.940804, "CDPHE HFEMS Licensed": "Licensed", "Operating Status": "Active", "Date Data Updated": "2025-10-27T07:00:00Z", "Source": "CDPHE Health Facilities and Emergency Medical Services Division", "GlobalID": "13090987-e19b-4615-8a4e-dc9f6c4d4227", "x": 3157366.561, "y": 1677607.388 }, "geometry": { "type": "Point", "coordinates": [ -104.940804, 39.692509 ] } },
{ "type": "Feature", "properties": { "OBJECTID": 39, "Facility ID": "04049Y", "Facility Name": "MAHDI HOME HEALTH CARE INC", "Facility Type Code": 51, "Facility Type": "Home Health Agency", "Map Symbol": "Home Health", "Facility Type Detail": "MEDICARE/MEDICAID", "Facility Type Abbreviation": "HHA-1819", "Licensed Beds Total": false, "Telephone": "(303) 388-4555", "County": "DENVER", "Address Full": "6850 E EVANS AVE STE 101, DENVER, CO 80224", "Latitude": 39.678394, "Longitude": -104.909103, "CDPHE HFEMS Licensed": "Licensed", "Operating Status": "Active", "Date Data Updated": "2025-10-27T07:00:00Z", "Source": "CDPHE Health Facilities and Emergency Medical Services Division", "GlobalID": "b866195f-6036-4766-920e-9a371e183b81", "x": 3166320.883, "y": 1672522.41 }, "geometry": { "type": "Point", "coordinates": [ -104.909103, 39.678394 ] } },
{ "type": "Feature", "properties": { "OBJECTID": 40, "Facility ID": "0404MV", "Facility Name": "AMI - WELLNESS", "Facility Type Code": 51, "Facility Type": "Home Health Agency", "Map Symbol": "Home Health", "Facility Type Detail": "MEDICARE/MEDICAID", "Facility Type Abbreviation": "HHA-1819", "Licensed Beds Total": false, "Telephone": "(303) 722-2208", "County": "DENVER", "Address Full": "1385 S COLORADO BLVD  STE A306, DENVER, CO 80222", "Latitude": 39.69152, "Longitude": -104.941188, "CDPHE HFEMS Licensed": "Licensed", "Operating Status": "Active", "Date Data Updated": "2025-10-27T07:00:00Z", "Source": "CDPHE Health Facilities and Emergency Medical Services Division", "GlobalID": "746ce9ae-f822-4dd1-a83f-bedd5e260a9a", "x": 3157260.717, "y": 1677246.474 }, "geometry": { "type": "Point", "coordinates": [ -104.941188, 39.69152 ] } },
{ "type": "Feature", "properties": { "OBJECTID": 41, "Facility ID": "0404PS", "Facility Name": "INTERMOUNTAIN HEALTH HOMECARE - DENVER", "Facility Type Code": 51, "Facility Type": "Home Health Agency", "Map Symbol": "Home Health", "Facility Type Detail": "MEDICARE/MEDICAID", "Facility Type Abbreviation": "HHA-1819", "Licensed Beds Total": false, "Telephone": "(303) 403-6000", "County": "DENVER", "Address Full": "1960 N OGDEN ST STE 280, DENVER, CO 80033", "Latitude": 39.747013, "Longitude": -104.97467, "CDPHE HFEMS Licensed": "Licensed", "Operating Status": "Active", "Date Data Updated": "2025-10-27T07:00:00Z", "Source": "CDPHE Health Facilities and Emergency Medical Services Division", "GlobalID": "8b3e0684-f5ec-4a14-b7d6-c63c53f4238b", "x": 3147721.606, "y": 1697404.14 }, "geometry": { "type": "Point", "coordinates": [ -104.97467, 39.747013 ] } },
{ "type": "Feature", "properties": { "OBJECTID": 43, "Facility ID": "040JZX", "Facility Name": "FIRST COLORADO HOME HEALTH CARE INC", "Facility Type Code": 51, "Facility Type": "Home Health Agency", "Map Symbol": "Home Health", "Facility Type Detail": "MEDICARE/MEDICAID", "Facility Type Abbreviation": "HHA-1819", "Licensed Beds Total": false, "Telephone": "(720) 505-5517", "County": "DENVER", "Address Full": "2121 S ONEIDA ST STE 332, DENVER, CO 80224", "Latitude": 39.678001, "Longitude": -104.908287, "CDPHE HFEMS Licensed": "Licensed", "Operating Status": "Active", "Date Data Updated": "2025-10-27T07:00:00Z", "Source": "CDPHE Health Facilities and Emergency Medical Services Division", "GlobalID": "9c8c7a76-4d2e-4f2c-89ae-1485a28810d6", "x": 3166551.49, "y": 1672380.754 }, "geometry": { "type": "Point", "coordinates": [ -104.908287, 39.678001 ] } },
{ "type": "Feature", "properties": { "OBJECTID": 57, "Facility ID": "044OHZ", "Facility Name": "PRIME CARE HOME HEALTH INC", "Facility Type Code": 51, "Facility Type": "Home Health Agency", "Map Symbol": "Home Health", "Facility Type Detail": "MEDICARE/MEDICAID", "Facility Type Abbreviation": "HHA-1819", "Licensed Beds Total": false, "Telephone": "(720) 975-8448", "County": "DENVER", "Address Full": "2121 S ONEIDA ST STE 100, DENVER, CO 80224", "Latitude": 39.678001, "Longitude": -104.908287, "CDPHE HFEMS Licensed": "Licensed", "Operating Status": "Active", "Date Data Updated": "2025-10-27T07:00:00Z", "Source": "CDPHE Health Facilities and Emergency Medical Services Division", "GlobalID": "4f2df464-1f9c-4f69-80a0-461f43c3c02c", "x": 3166551.49, "y": 1672380.754 }, "geometry": { "type": "Point", "coordinates": [ -104.908287, 39.678001 ] } },
{ "type": "Feature", "properties": { "OBJECTID": 73, "Facility ID": "049KVQ", "Facility Name": "UC HOME HEALTH CARE INC", "Facility Type Code": 51, "Facility Type": "Home Health Agency", "Map Symbol": "Home Health", "Facility Type Detail": "MEDICARE/MEDICAID", "Facility Type Abbreviation": "HHA-1819", "Licensed Beds Total": false, "Telephone": "(303) 815-6285", "County": "DENVER", "Address Full": "10890 E DARTMOUTH AVE UNIT H/I, DENVER, CO 80014", "Latitude": 39.660164, "Longitude": -104.860229, "CDPHE HFEMS Licensed": "Licensed", "Operating Status": "Active", "Date Data Updated": "2025-10-27T07:00:00Z", "Source": "CDPHE Health Facilities and Emergency Medical Services Division", "GlobalID": "06937291-711e-46de-9cb1-b9fe0869ead0", "x": 3180123.853, "y": 1665975.296 }, "geometry": { "type": "Point", "coordinates": [ -104.860229, 39.660164 ] } },
{ "type": "Feature", "properties": { "OBJECTID": 75, "Facility ID": "04A409", "Facility Name": "MAXIM HEALTHCARE SERVICES INC", "Facility Type Code": 51, "Facility Type": "Home Health Agency", "Map Symbol": "Home Health", "Facility Type Detail": "MEDICARE/MEDICAID", "Facility Type Abbreviation": "HHA-1819", "Licensed Beds Total": false, "Telephone": "(303) 487-7143", "County": "DENVER", "Address Full": "455 SHERMAN ST STE 510, DENVER, CO 80202", "Latitude": 39.723427, "Longitude": -104.9851, "CDPHE HFEMS Licensed": "Licensed", "Operating Status": "Active", "Date Data Updated": "2025-10-27T07:00:00Z", "Source": "CDPHE Health Facilities and Emergency Medical Services Division", "GlobalID": "13b9ec96-3500-44f8-9df9-ff7c1deac351", "x": 3144837.497, "y": 1688795.854 }, "geometry": { "type": "Point", "coordinates": [ -104.9851, 39.723427 ] } },
{ "type": "Feature", "properties": { "OBJECTID": 85, "Facility ID": "04B438", "Facility Name": "SPARK HOME HEALTH LLC", "Facility Type Code": 51, "Facility Type": "Home Health Agency", "Map Symbol": "Home Health", "Facility Type Detail": "MEDICARE/MEDICAID", "Facility Type Abbreviation": "HHA-1819", "Licensed Beds Total": false, "Telephone": "(720) 951-0258", "County": "DENVER", "Address Full": "1325 S COLORADO BLVD  STE B312, DENVER, CO 80222", "Latitude": 39.691996, "Longitude": -104.94256, "CDPHE HFEMS Licensed": "Licensed", "Operating Status": "Active", "Date Data Updated": "2025-10-27T07:00:00Z", "Source": "CDPHE Health Facilities and Emergency Medical Services Division", "GlobalID": "b872b83e-3def-4446-a8de-fe7389004af9", "x": 3156873.556, "y": 1677417.488 }, "geometry": { "type": "Point", "coordinates": [ -104.94256, 39.691996 ] } },
{ "type": "Feature", "properties": { "OBJECTID": 93, "Facility ID": "04C0O0", "Facility Name": "ATMANS COLORADO HEALTH CARE LLC", "Facility Type Code": 51, "Facility Type": "Home Health Agency", "Map Symbol": "Home Health", "Facility Type Detail": "MEDICARE/MEDICAID", "Facility Type Abbreviation": "HHA-1819", "Licensed Beds Total": false, "Telephone": "(303) 656-9966", "County": "DENVER", "Address Full": "1776 S JACKSON ST STE 480, DENVER, CO 80210", "Latitude": 39.684837, "Longitude": -104.942947, "CDPHE HFEMS Licensed": "Licensed", "Operating Status": "Active", "Date Data Updated": "2025-10-27T07:00:00Z", "Source": "CDPHE Health Facilities and Emergency Medical Services Division", "GlobalID": "e64059c0-b3f7-486a-8913-9ffffc057765", "x": 3156780.642, "y": 1674809.116 }, "geometry": { "type": "Point", "coordinates": [ -104.942947, 39.684837 ] } },
{ "type": "Feature", "properties": { "OBJECTID": 103, "Facility ID": "04D978", "Facility Name": "UNIVERSAL HOME HEALTH CARE INC", "Facility Type Code": 51, "Facility Type": "Home Health Agency", "Map Symbol": "Home Health", "Facility Type Detail": "MEDICARE/MEDICAID", "Facility Type Abbreviation": "HHA-1819", "Licensed Beds Total": false, "Telephone": "(720) 420-9774", "County": "DENVER", "Address Full": "2121 S ONEIDA ST STE 470, DENVER, CO 80224", "Latitude": 39.678001, "Longitude": -104.908287, "CDPHE HFEMS Licensed": "Licensed", "Operating Status": "Active", "Date Data Updated": "2025-10-27T07:00:00Z", "Source": "CDPHE Health Facilities and Emergency Medical Services Division", "GlobalID": "0658fc1b-8daf-4c25-be7d-41502e03f871", "x": 3166551.49, "y": 1672380.754 }, "geometry": { "type": "Point", "coordinates": [ -104.908287, 39.678001 ] } },
{ "type": "Feature", "properties": { "OBJECTID": 109, "Facility ID": "04E913", "Facility Name": "PAM HEALTH AT HOME", "Facility Type Code": 51, "Facility Type": "Home Health Agency", "Map Symbol": "Home Health", "Facility Type Detail": "MEDICARE/MEDICAID", "Facility Type Abbreviation": "HHA-1819", "Licensed Beds Total": false, "Telephone": "(512) 761-2279", "County": "DENVER", "Address Full": "9025 E KENYON UNIT 100, DENVER, CO 80237", "Latitude": 39.649635, "Longitude": -104.883247, "CDPHE HFEMS Licensed": "Licensed", "Operating Status": "Active", "Date Data Updated": "2025-10-27T07:00:00Z", "Source": "CDPHE Health Facilities and Emergency Medical Services Division", "GlobalID": "88cc64c8-218d-4607-b968-5edd61f5a8f6", "x": 3173669.507, "y": 1662095.295 }, "geometry": { "type": "Point", "coordinates": [ -104.883247, 39.649635 ] } },
{ "type": "Feature", "properties": { "OBJECTID": 110, "Facility ID": "04E993", "Facility Name": "ABBY CARE CO", "Facility Type Code": 51, "Facility Type": "Home Health Agency", "Map Symbol": "Home Health", "Facility Type Detail": "MEDICARE/MEDICAID", "Facility Type Abbreviation": "HHA-1819", "Licensed Beds Total": false, "Telephone": "(720) 505-9942", "County": "DENVER", "Address Full": "950 S CHERRY ST STE 714, DENVER, CO 80246", "Latitude": 39.699303, "Longitude": -104.934029, "CDPHE HFEMS Licensed": "Licensed", "Operating Status": "Active", "Date Data Updated": "2025-10-27T07:00:00Z", "Source": "CDPHE Health Facilities and Emergency Medical Services Division", "GlobalID": "9ec31bd0-64b3-443f-9a32-c738a9c705eb", "x": 3159257.676, "y": 1680093.951 }, "geometry": { "type": "Point", "coordinates": [ -104.934029, 39.699303 ] } },
{ "type": "Feature", "properties": { "OBJECTID": 113, "Facility ID": "04EK7U", "Facility Name": "ARISE SUPPORT SERVICES LLC", "Facility Type Code": 51, "Facility Type": "Home Health Agency", "Map Symbol": "Home Health", "Facility Type Detail": "MEDICARE/MEDICAID", "Facility Type Abbreviation": "HHA-1819", "Licensed Beds Total": false, "Telephone": "(720) 400-2706", "County": "DENVER", "Address Full": "19557 E 39TH AVE, DENVER, CO 80249", "Latitude": 39.769855, "Longitude": -104.758644, "CDPHE HFEMS Licensed": "Licensed", "Operating Status": "Active", "Date Data Updated": "2025-10-27T07:00:00Z", "Source": "CDPHE Health Facilities and Emergency Medical Services Division", "GlobalID": "6dc99309-5d7b-4901-9e12-cbfd053f24c5", "x": 3208397.425, "y": 1706148.041 }, "geometry": { "type": "Point", "coordinates": [ -104.758644, 39.769855 ] } },
{ "type": "Feature", "properties": { "OBJECTID": 129, "Facility ID": "04H521", "Facility Name": "GATEWAY HOME HEALTH - DENVER", "Facility Type Code": 51, "Facility Type": "Home Health Agency", "Map Symbol": "Home Health", "Facility Type Detail": "MEDICARE/MEDICAID", "Facility Type Abbreviation": "HHA-1819", "Licensed Beds Total": false, "Telephone": "(303) 495-2578", "County": "DENVER", "Address Full": "2696 S COLORADO BLVD  STE 420, DENVER, CO 80222", "Latitude": 39.668644, "Longitude": -104.940544, "CDPHE HFEMS Licensed": "Licensed", "Operating Status": "Active", "Date Data Updated": "2025-10-27T07:00:00Z", "Source": "CDPHE Health Facilities and Emergency Medical Services Division", "GlobalID": "74afd122-2402-4097-90a2-4126ee604719", "x": 3157493.261, "y": 1668914.909 }, "geometry": { "type": "Point", "coordinates": [ -104.940544, 39.668644 ] } },
{ "type": "Feature", "properties": { "OBJECTID": 146, "Facility ID": "04I966", "Facility Name": "KIDSCARE THERAPY OF COLORADO LLC", "Facility Type Code": 51, "Facility Type": "Home Health Agency", "Map Symbol": "Home Health", "Facility Type Detail": "MEDICARE/MEDICAID", "Facility Type Abbreviation": "HHA-1819", "Licensed Beds Total": false, "Telephone": "(214) 751-7468", "County": "DENVER", "Address Full": "3801 E FLORIDA AVE #917, DENVER, CO 80210", "Latitude": 39.689373, "Longitude": -104.942131, "CDPHE HFEMS Licensed": "Licensed", "Operating Status": "Active", "Date Data Updated": "2025-10-27T07:00:00Z", "Source": "CDPHE Health Facilities and Emergency Medical Services Division", "GlobalID": "c61ca206-075e-4c5f-ae96-9570f14ae70d", "x": 3157000.148, "y": 1676462.787 }, "geometry": { "type": "Point", "coordinates": [ -104.942131, 39.689373 ] } },
{ "type": "Feature", "properties": { "OBJECTID": 158, "Facility ID": "04K558", "Facility Name": "ACCENTCARE HOME HEALTH OF MOUNTAIN VALLEY LLC", "Facility Type Code": 51, "Facility Type": "Home Health Agency", "Map Symbol": "Home Health", "Facility Type Detail": "MEDICARE/MEDICAID", "Facility Type Abbreviation": "HHA-1819", "Licensed Beds Total": false, "Telephone": "(303) 620-5402", "County": "DENVER", "Address Full": "455 SHERMAN ST STE 465, DENVER, CO 80203", "Latitude": 39.723427, "Longitude": -104.9851, "CDPHE HFEMS Licensed": "Licensed", "Operating Status": "Active", "Date Data Updated": "2025-10-27T07:00:00Z", "Source": "CDPHE Health Facilities and Emergency Medical Services Division", "GlobalID": "08171fe5-91fb-4d7a-8078-cf863687039b", "x": 3144837.497, "y": 1688795.854 }, "geometry": { "type": "Point", "coordinates": [ -104.9851, 39.723427 ] } },
{ "type": "Feature", "properties": { "OBJECTID": 160, "Facility ID": "04K996", "Facility Name": "SUPER HEALTH CARE INCORPORATED", "Facility Type Code": 51, "Facility Type": "Home Health Agency", "Map Symbol": "Home Health", "Facility Type Detail": "MEDICARE/MEDICAID", "Facility Type Abbreviation": "HHA-1819", "Licensed Beds Total": false, "Telephone": "(303) 991-1009", "County": "DENVER", "Address Full": "6795 E TENNESSEE AVE  STE 225, DENVER, CO 80224", "Latitude": 39.698505, "Longitude": -104.910103, "CDPHE HFEMS Licensed": "Licensed", "Operating Status": "Active", "Date Data Updated": "2025-10-27T07:00:00Z", "Source": "CDPHE Health Facilities and Emergency Medical Services Division", "GlobalID": "95c62217-99ed-4ae9-ab50-14bd39d3068a", "x": 3165991.852, "y": 1679846.104 }, "geometry": { "type": "Point", "coordinates": [ -104.910103, 39.698505 ] } },
{ "type": "Feature", "properties": { "OBJECTID": 162, "Facility ID": "04L189", "Facility Name": "HOME CARE RN INC", "Facility Type Code": 51, "Facility Type": "Home Health Agency", "Map Symbol": "Home Health", "Facility Type Detail": "MEDICARE/MEDICAID", "Facility Type Abbreviation": "HHA-1819", "Licensed Beds Total": false, "Telephone": "(720) 535-8652", "County": "DENVER", "Address Full": "1325 S COLORADO BLVD #B-101, DENVER, CO 80222", "Latitude": 39.692509, "Longitude": -104.940804, "CDPHE HFEMS Licensed": "Licensed", "Operating Status": "Active", "Date Data Updated": "2025-10-27T07:00:00Z", "Source": "CDPHE Health Facilities and Emergency Medical Services Division", "GlobalID": "32bbc5df-aaec-448a-b09e-aa6849afdba4", "x": 3157366.561, "y": 1677607.388 }, "geometry": { "type": "Point", "coordinates": [ -104.940804, 39.692509 ] } },
{ "type": "Feature", "properties": { "OBJECTID": 163, "Facility ID": "04L580", "Facility Name": "PROGRESSIVE HOME HEALTH SERVICES LLC", "Facility Type Code": 51, "Facility Type": "Home Health Agency", "Map Symbol": "Home Health", "Facility Type Detail": "MEDICARE/MEDICAID", "Facility Type Abbreviation": "HHA-1819", "Licensed Beds Total": false, "Telephone": "(720) 339-2129", "County": "DENVER", "Address Full": "6000 E EVANS AVE  BLDG 1 STE 010, DENVER, CO 80222", "Latitude": 39.678413, "Longitude": -104.91803, "CDPHE HFEMS Licensed": "Licensed", "Operating Status": "Active", "Date Data Updated": "2025-10-27T07:00:00Z", "Source": "CDPHE Health Facilities and Emergency Medical Services Division", "GlobalID": "97c82770-890d-4737-acea-c93a93711224", "x": 3163808.216, "y": 1672513.111 }, "geometry": { "type": "Point", "coordinates": [ -104.91803, 39.678413 ] } },
{ "type": "Feature", "properties": { "OBJECTID": 180, "Facility ID": "04O234", "Facility Name": "ALL FOR KIDS HOME HEALTH", "Facility Type Code": 51, "Facility Type": "Home Health Agency", "Map Symbol": "Home Health", "Facility Type Detail": "MEDICARE/MEDICAID", "Facility Type Abbreviation": "HHA-1819", "Licensed Beds Total": false, "Telephone": "(720) 456-8054", "County": "DENVER", "Address Full": "4155 E JEWEWLL AVE STE 900, DENVER, CO 80222", "Latitude": 39.682148, "Longitude": -104.937157, "CDPHE HFEMS Licensed": "Licensed", "Operating Status": "Active", "Date Data Updated": "2025-10-27T07:00:00Z", "Source": "CDPHE Health Facilities and Emergency Medical Services Division", "GlobalID": "b3764b14-3106-4b3d-aa05-66e935044b41", "x": 3158416.236, "y": 1673839.679 }, "geometry": { "type": "Point", "coordinates": [ -104.937157, 39.682148 ] } },
{ "type": "Feature", "properties": { "OBJECTID": 187, "Facility ID": "04P69Z", "Facility Name": "OMEGA HOME HEALTH INC", "Facility Type Code": 51, "Facility Type": "Home Health Agency", "Map Symbol": "Home Health", "Facility Type Detail": "MEDICARE/MEDICAID", "Facility Type Abbreviation": "HHA-1819", "Licensed Beds Total": false, "Telephone": "(720) 677-9091", "County": "DENVER", "Address Full": "2186 S HOLLY ST STE 205, DENVER, CO 80222", "Latitude": 39.677296, "Longitude": -104.922195, "CDPHE HFEMS Licensed": "Licensed", "Operating Status": "Active", "Date Data Updated": "2025-10-27T07:00:00Z", "Source": "CDPHE Health Facilities and Emergency Medical Services Division", "GlobalID": "71436d54-a6b7-445e-bf30-2f1cded152fa", "x": 3162638.509, "y": 1672098.757 }, "geometry": { "type": "Point", "coordinates": [ -104.922195, 39.677296 ] } },
{ "type": "Feature", "properties": { "OBJECTID": 198, "Facility ID": "04R282", "Facility Name": "HUMAN TOUCH HOME HEALTH CARE AGENCY DENVER INC", "Facility Type Code": 51, "Facility Type": "Home Health Agency", "Map Symbol": "Home Health", "Facility Type Detail": "MEDICARE/MEDICAID", "Facility Type Abbreviation": "HHA-1819", "Licensed Beds Total": false, "Telephone": "(303) 973-1513", "County": "DENVER", "Address Full": "8973 E KENYON AVE, DENVER, CO 80237", "Latitude": 39.649635, "Longitude": -104.883568, "CDPHE HFEMS Licensed": "Licensed", "Operating Status": "Active", "Date Data Updated": "2025-10-27T07:00:00Z", "Source": "CDPHE Health Facilities and Emergency Medical Services Division", "GlobalID": "02f59b44-74dd-4c40-a683-d92dcefe3162", "x": 3173579.12, "y": 1662094.682 }, "geometry": { "type": "Point", "coordinates": [ -104.883568, 39.649635 ] } },
{ "type": "Feature", "properties": { "OBJECTID": 214, "Facility ID": "04U706", "Facility Name": "OPTIMAL HOME CARE INC", "Facility Type Code": 51, "Facility Type": "Home Health Agency", "Map Symbol": "Home Health", "Facility Type Detail": "MEDICARE/MEDICAID", "Facility Type Abbreviation": "HHA-1819", "Licensed Beds Total": false, "Telephone": "(303) 488-9999", "County": "DENVER", "Address Full": "4380 S SYRACUSE ST STE 600, DENVER, CO 80237", "Latitude": 39.636253, "Longitude": -104.899216, "CDPHE HFEMS Licensed": "Licensed", "Operating Status": "Active", "Date Data Updated": "2025-10-27T07:00:00Z", "Source": "CDPHE Health Facilities and Emergency Medical Services Division", "GlobalID": "68130a77-1f35-44d2-9795-bb235a2212b2", "x": 3169205.222, "y": 1657190.789 }, "geometry": { "type": "Point", "coordinates": [ -104.899216, 39.636253 ] } },
{ "type": "Feature", "properties": { "OBJECTID": 220, "Facility ID": "04V603", "Facility Name": "ACE HOME HEALTHCARE LLC", "Facility Type Code": 51, "Facility Type": "Home Health Agency", "Map Symbol": "Home Health", "Facility Type Detail": "MEDICARE/MEDICAID", "Facility Type Abbreviation": "HHA-1819", "Licensed Beds Total": false, "Telephone": "(720) 909-8180", "County": "DENVER", "Address Full": "4582 S ULSTER ST  STE 206, DENVER, CO 80237", "Latitude": 39.632633, "Longitude": -104.899086, "CDPHE HFEMS Licensed": "Licensed", "Operating Status": "Active", "Date Data Updated": "2025-10-27T07:00:00Z", "Source": "CDPHE Health Facilities and Emergency Medical Services Division", "GlobalID": "d72fb3a7-3ee5-40e3-9453-198db6eefd88", "x": 3169250.556, "y": 1655872.455 }, "geometry": { "type": "Point", "coordinates": [ -104.899086, 39.632633 ] } },
{ "type": "Feature", "properties": { "OBJECTID": 228, "Facility ID": "04W276", "Facility Name": "OPTA HOME HEALTH CARE OF COLORADO INC", "Facility Type Code": 51, "Facility Type": "Home Health Agency", "Map Symbol": "Home Health", "Facility Type Detail": "MEDICARE/MEDICAID", "Facility Type Abbreviation": "HHA-1819", "Licensed Beds Total": false, "Telephone": "(303) 484-9323", "County": "DENVER", "Address Full": "6795 E TENNESSEE AVE  STE 345, DENVER, CO 80224", "Latitude": 39.698505, "Longitude": -104.910103, "CDPHE HFEMS Licensed": "Licensed", "Operating Status": "Active", "Date Data Updated": "2025-10-27T07:00:00Z", "Source": "CDPHE Health Facilities and Emergency Medical Services Division", "GlobalID": "1ee2cefa-2d86-4b23-9767-c9e6fe4dcf20", "x": 3165991.852, "y": 1679846.104 }, "geometry": { "type": "Point", "coordinates": [ -104.910103, 39.698505 ] } },
{ "type": "Feature", "properties": { "OBJECTID": 232, "Facility ID": "04W739", "Facility Name": "ESTRELLA HOME HEALTH CARE INC", "Facility Type Code": 51, "Facility Type": "Home Health Agency", "Map Symbol": "Home Health", "Facility Type Detail": "MEDICARE/MEDICAID", "Facility Type Abbreviation": "HHA-1819", "Licensed Beds Total": false, "Telephone": "(303) 756-6756", "County": "DENVER", "Address Full": "4155 E JEWELL AVE STE 809, DENVER, CO 80222", "Latitude": 39.682148, "Longitude": -104.937157, "CDPHE HFEMS Licensed": "Licensed", "Operating Status": "Active", "Date Data Updated": "2025-10-27T07:00:00Z", "Source": "CDPHE Health Facilities and Emergency Medical Services Division", "GlobalID": "a1927c2f-b5d5-499c-a1a0-b6f8061dcac6", "x": 3158416.236, "y": 1673839.679 }, "geometry": { "type": "Point", "coordinates": [ -104.937157, 39.682148 ] } },
{ "type": "Feature", "properties": { "OBJECTID": 239, "Facility ID": "04X376", "Facility Name": "ABSOLUTE HOME CARE LLC", "Facility Type Code": 51, "Facility Type": "Home Health Agency", "Map Symbol": "Home Health", "Facility Type Detail": "MEDICARE/MEDICAID", "Facility Type Abbreviation": "HHA-1819", "Licensed Beds Total": false, "Telephone": "(720) 999-7774", "County": "DENVER", "Address Full": "9725 E HAMPDEN AVE  STE 102-F, DENVER, CO 80231", "Latitude": 39.653118, "Longitude": -104.875374, "CDPHE HFEMS Licensed": "Licensed", "Operating Status": "Active", "Date Data Updated": "2025-10-27T07:00:00Z", "Source": "CDPHE Health Facilities and Emergency Medical Services Division", "GlobalID": "51aeef34-67b8-4808-b22f-5ef852405025", "x": 3175877.646, "y": 1663379.121 }, "geometry": { "type": "Point", "coordinates": [ -104.875374, 39.653118 ] } },
{ "type": "Feature", "properties": { "OBJECTID": 252, "Facility ID": "04Z782", "Facility Name": "ANOVA CARE", "Facility Type Code": 51, "Facility Type": "Home Health Agency", "Map Symbol": "Home Health", "Facility Type Detail": "MEDICARE/MEDICAID", "Facility Type Abbreviation": "HHA-1819", "Licensed Beds Total": false, "Telephone": "(888) 929-2050", "County": "DENVER", "Address Full": "4900 E CHERRY CREEK DR S STE E, DENVER, CO 80246", "Latitude": 39.702724, "Longitude": -104.930031, "CDPHE HFEMS Licensed": "Licensed", "Operating Status": "Active", "Date Data Updated": "2025-10-27T07:00:00Z", "Source": "CDPHE Health Facilities and Emergency Medical Services Division", "GlobalID": "1217f4de-6f92-4c30-bbab-49c52bb4b32a", "x": 3160374.815, "y": 1681347.107 }, "geometry": { "type": "Point", "coordinates": [ -104.930031, 39.702724 ] } }
]
}
