{
"type": "FeatureCollection",
"name": "Medicare_Certified_or_Dual",
"crs": { "type": "name", "properties": { "name": "urn:ogc:def:crs:OGC:1.3:CRS84" } },
"features": [
{ "type": "Feature", "properties": { "OBJECTID": 38, "Facility ID": "40439", "Facility Name": "BAYADA HOME HEALTH CARE INC", "Facility Type Code": 51, "Facility Type": "Home Health Agency", "Map Symbol": "Home Health", "Facility Type Detail": "MEDICARE/MEDICAID", "Facility Type Abbreviation": "HHA-1819", "Licensed Beds Total": 0, "Telephone": "(303) 782-0900", "County": "DENVER", "Address Full": "1325 S COLORADO BLVD  BLDG B STE 507, DENVER, CO 80222", "Latitude": 39.692509, "Longitude": -104.940804, "CDPHE HFEMS Licensed": "Licensed", "Operating Status": "Active", "Date Data Updated": "2025-10-27T07:00:00Z", "Source": "CDPHE Health Facilities and Emergency Medical Services Division", "GlobalID": "13090987-e19b-4615-8a4e-dc9f6c4d4227", "x": 3157366.561, "y": 1677607.388 }, "geometry": { "type": "Point", "coordinates": [ -104.940804, 39.692509 ] } },
{ "type": "Feature", "properties": { "OBJECTID": 39, "Facility ID": "04049Y", "Facility Name": "MAHDI HOME HEALTH CARE INC", "Facility Type Code": 51, "Facility Type": "Home Health Agency", "Map Symbol": "Home Health", "Facility Type Detail": "MEDICARE/MEDICAID", "Facility Type Abbreviation": "HHA-1819", "Licensed Beds Total": 0, "Telephone": "(303) 388-4555", "County": "DENVER", "Address Full": "6850 E EVANS AVE STE 101, DENVER, CO 80224", "Latitude": 39.678394, "Longitude": -104.909103, "CDPHE HFEMS Licensed": "Licensed", "Operating Status": "Active", "Date Data Updated": "2025-10-27T07:00:00Z", "Source": "CDPHE Health Facilities and Emergency Medical Services Division", "GlobalID": "b866195f-6036-4766-920e-9a371e183b81", "x": 3166320.883, "y": 1672522.41 }, "geometry": { "type": "Point", "coordinates": [ -104.909103, 39.678394 ] } },
{ "type": "Feature", "properties": { "OBJECTID": 40, "Facility ID": "0404MV", "Facility Name": "AMI - WELLNESS", "Facility Type Code": 51, "Facility Type": "Home Health Agency", "Map Symbol": "Home Health", "Facility Type Detail": "MEDICARE/MEDICAID", "Facility Type Abbreviation": "HHA-1819", "Licensed Beds Total": 0, "Telephone": "(303) 722-2208", "County": "DENVER", "Address Full": "1385 S COLORADO BLVD  STE A306, DENVER, CO 80222", "Latitude": 39.69152, "Longitude": -104.941188, "CDPHE HFEMS Licensed": "Licensed", "Operating Status": "Active", "Date Data Updated": "2025-10-27T07:00:00Z", "Source": "CDPHE Health Facilities and Emergency Medical Services Division", "GlobalID": "746ce9ae-f822-4dd1-a83f-bedd5e260a9a", "x": 3157260.717, "y": 1677246.474 }, "geometry": { "type": "Point", "coordinates": [ -104.941188, 39.69152 ] } },
{ "type": "Feature", "properties": { "OBJECTID": 41, "Facility ID": "0404PS", "Facility Name": "INTERMOUNTAIN HEALTH HOMECARE - DENVER", "Facility Type Code": 51, "Facility Type": "Home Health Agency", "Map Symbol": "Home Health", "Facility Type Detail": "MEDICARE/MEDICAID", "Facility Type Abbreviation": "HHA-1819", "Licensed Beds Total": 0, "Telephone": "(303) 403-6000", "County": "DENVER", "Address Full": "1960 N OGDEN ST STE 280, DENVER, CO 80033", "Latitude": 39.747013, "Longitude": -104.97467, "CDPHE HFEMS Licensed": "Licensed", "Operating Status": "Active", "Date Data Updated": "2025-10-27T07:00:00Z", "Source": "CDPHE Health Facilities and Emergency Medical Services Division", "GlobalID": "8b3e0684-f5ec-4a14-b7d6-c63c53f4238b", "x": 3147721.606, "y": 1697404.14 }, "geometry": { "type": "Point", "coordinates": [ -104.97467, 39.747013 ] } },
{ "type": "Feature", "properties": { "OBJECTID": 43, "Facility ID": "040JZX", "Facility Name": "FIRST COLORADO HOME HEALTH CARE INC", "Facility Type Code": 51, "Facility Type": "Home Health Agency", "Map Symbol": "Home Health", "Facility Type Detail": "MEDICARE/MEDICAID", "Facility Type Abbreviation": "HHA-1819", "Licensed Beds Total": 0, "Telephone": "(720) 505-5517", "County": "DENVER", "Address Full": "2121 S ONEIDA ST STE 332, DENVER, CO 80224", "Latitude": 39.678001, "Longitude": -104.908287, "CDPHE HFEMS Licensed": "Licensed", "Operating Status": "Active", "Date Data Updated": "2025-10-27T07:00:00Z", "Source": "CDPHE Health Facilities and Emergency Medical Services Division", "GlobalID": "9c8c7a76-4d2e-4f2c-89ae-1485a28810d6", "x": 3166551.49, "y": 1672380.754 }, "geometry": { "type": "Point", "coordinates": [ -104.908287, 39.678001 ] } },
{ "type": "Feature", "properties": { "OBJECTID": 57, "Facility ID": "044OHZ", "Facility Name": "PRIME CARE HOME HEALTH INC", "Facility Type Code": 51, "Facility Type": "Home Health Agency", "Map Symbol": "Home Health", "Facility Type Detail": "MEDICARE/MEDICAID", "Facility Type Abbreviation": "HHA-1819", "Licensed Beds Total": 0, "Telephone": "(720) 975-8448", "County": "DENVER", "Address Full": "2121 S ONEIDA ST STE 100, DENVER, CO 80224", "Latitude": 39.678001, "Longitude": -104.908287, "CDPHE HFEMS Licensed": "Licensed", "Operating Status": "Active", "Date Data Updated": "2025-10-27T07:00:00Z", "Source": "CDPHE Health Facilities and Emergency Medical Services Division", "GlobalID": "4f2df464-1f9c-4f69-80a0-461f43c3c02c", "x": 3166551.49, "y": 1672380.754 }, "geometry": { "type": "Point", "coordinates": [ -104.908287, 39.678001 ] } },
{ "type": "Feature", "properties": { "OBJECTID": 73, "Facility ID": "049KVQ", "Facility Name": "UC HOME HEALTH CARE INC", "Facility Type Code": 51, "Facility Type": "Home Health Agency", "Map Symbol": "Home Health", "Facility Type Detail": "MEDICARE/MEDICAID", "Facility Type Abbreviation": "HHA-1819", "Licensed Beds Total": 0, "Telephone": "(303) 815-6285", "County": "DENVER", "Address Full": "10890 E DARTMOUTH AVE UNIT H/I, DENVER, CO 80014", "Latitude": 39.660164, "Longitude": -104.860229, "CDPHE HFEMS Licensed": "Licensed", "Operating Status": "Active", "Date Data Updated": "2025-10-27T07:00:00Z", "Source": "CDPHE Health Facilities and Emergency Medical Services Division", "GlobalID": "06937291-711e-46de-9cb1-b9fe0869ead0", "x": 3180123.853, "y": 1665975.296 }, "geometry": { "type": "Point", "coordinates": [ -104.860229, 39.660164 ] } },
{ "type": "Feature", "properties": { "OBJECTID": 75, "Facility ID": "04A409", "Facility Name": "MAXIM HEALTHCARE SERVICES INC", "Facility Type Code": 51, "Facility Type": "Home Health Agency", "Map Symbol": "Home Health", "Facility Type Detail": "MEDICARE/MEDICAID", "Facility Type Abbreviation": "HHA-1819", "Licensed Beds Total": 0, "Telephone": "(303) 487-7143", "County": "DENVER", "Address Full": "455 SHERMAN ST STE 510, DENVER, CO 80202", "Latitude": 39.723427, "Longitude": -104.9851, "CDPHE HFEMS Licensed": "Licensed", "Operating Status": "Active", "Date Data Updated": "2025-10-27T07:00:00Z", "Source": "CDPHE Health Facilities and Emergency Medical Services Division", "GlobalID": "13b9ec96-3500-44f8-9df9-ff7c1deac351", "x": 3144837.497, "y": 1688795.854 }, "geometry": { "type": "Point", "coordinates": [ -104.9851, 39.723427 ] } },
{ "type": "Feature", "properties": { "OBJECTID": 85, "Facility ID": "04B438", "Facility Name": "SPARK HOME HEALTH LLC", "Facility Type Code": 51, "Facility Type": "Home Health Agency", "Map Symbol": "Home Health", "Facility Type Detail": "MEDICARE/MEDICAID", "Facility Type Abbreviation": "HHA-1819", "Licensed Beds Total": 0, "Telephone": "(720) 951-0258", "County": "DENVER", "Address Full": "1325 S COLORADO BLVD  STE B312, DENVER, CO 80222", "Latitude": 39.691996, "Longitude": -104.94256, "CDPHE HFEMS Licensed": "Licensed", "Operating Status": "Active", "Date Data Updated": "2025-10-27T07:00:00Z", "Source": "CDPHE Health Facilities and Emergency Medical Services Division", "GlobalID": "b872b83e-3def-4446-a8de-fe7389004af9", "x": 3156873.556, "y": 1677417.488 }, "geometry": { "type": "Point", "coordinates": [ -104.94256, 39.691996 ] } },
{ "type": "Feature", "properties": { "OBJECTID": 93, "Facility ID": "04C0O0", "Facility Name": "ATMANS COLORADO HEALTH CARE LLC", "Facility Type Code": 51, "Facility Type": "Home Health Agency", "Map Symbol": "Home Health", "Facility Type Detail": "MEDICARE/MEDICAID", "Facility Type Abbreviation": "HHA-1819", "Licensed Beds Total": 0, "Telephone": "(303) 656-9966", "County": "DENVER", "Address Full": "1776 S JACKSON ST STE 480, DENVER, CO 80210", "Latitude": 39.684837, "Longitude": -104.942947, "CDPHE HFEMS Licensed": "Licensed", "Operating Status": "Active", "Date Data Updated": "2025-10-27T07:00:00Z", "Source": "CDPHE Health Facilities and Emergency Medical Services Division", "GlobalID": "e64059c0-b3f7-486a-8913-9ffffc057765", "x": 3156780.642, "y": 1674809.116 }, "geometry": { "type": "Point", "coordinates": [ -104.942947, 39.684837 ] } },
{ "type": "Feature", "properties": { "OBJECTID": 103, "Facility ID": "04D978", "Facility Name": "UNIVERSAL HOME HEALTH CARE INC", "Facility Type Code": 51, "Facility Type": "Home Health Agency", "Map Symbol": "Home Health", "Facility Type Detail": "MEDICARE/MEDICAID", "Facility Type Abbreviation": "HHA-1819", "Licensed Beds Total": 0, "Telephone": "(720) 420-9774", "County": "DENVER", "Address Full": "2121 S ONEIDA ST STE 470, DENVER, CO 80224", "Latitude": 39.678001, "Longitude": -104.908287, "CDPHE HFEMS Licensed": "Licensed", "Operating Status": "Active", "Date Data Updated": "2025-10-27T07:00:00Z", "Source": "CDPHE Health Facilities and Emergency Medical Services Division", "GlobalID": "0658fc1b-8daf-4c25-be7d-41502e03f871", "x": 3166551.49, "y": 1672380.754 }, "geometry": { "type": "Point", "coordinates": [ -104.908287, 39.678001 ] } },
{ "type": "Feature", "properties": { "OBJECTID": 109, "Facility ID": "04E913", "Facility Name": "PAM HEALTH AT HOME", "Facility Type Code": 51, "Facility Type": "Home Health Agency", "Map Symbol": "Home Health", "Facility Type Detail": "MEDICARE/MEDICAID", "Facility Type Abbreviation": "HHA-1819", "Licensed Beds Total": 0, "Telephone": "(512) 761-2279", "County": "DENVER", "Address Full": "9025 E KENYON UNIT 100, DENVER, CO 80237", "Latitude": 39.649635, "Longitude": -104.883247, "CDPHE HFEMS Licensed": "Licensed", "Operating Status": "Active", "Date Data Updated": "2025-10-27T07:00:00Z", "Source": "CDPHE Health Facilities and Emergency Medical Services Division", "GlobalID": "88cc64c8-218d-4607-b968-5edd61f5a8f6", "x": 3173669.507, "y": 1662095.295 }, "geometry": { "type": "Point", "coordinates": [ -104.883247, 39.649635 ] } },
{ "type": "Feature", "properties": { "OBJECTID": 110, "Facility ID": "04E993", "Facility Name": "ABBY CARE CO", "Facility Type Code": 51, "Facility Type": "Home Health Agency", "Map Symbol": "Home Health", "Facility Type Detail": "MEDICARE/MEDICAID", "Facility Type Abbreviation": "HHA-1819", "Licensed Beds Total": 0, "Telephone": "(720) 505-9942", "County": "DENVER", "Address Full": "950 S CHERRY ST STE 714, DENVER, CO 80246", "Latitude": 39.699303, "Longitude": -104.934029, "CDPHE HFEMS Licensed": "Licensed", "Operating Status": "Active", "Date Data Updated": "2025-10-27T07:00:00Z", "Source": "CDPHE Health Facilities and Emergency Medical Services Division", "GlobalID": "9ec31bd0-64b3-443f-9a32-c738a9c705eb", "x": 3159257.676, "y": 1680093.951 }, "geometry": { "type": "Point", "coordinates": [ -104.934029, 39.699303 ] } },
{ "type": "Feature", "properties": { "OBJECTID": 113, "Facility ID": "04EK7U", "Facility Name": "ARISE SUPPORT SERVICES LLC", "Facility Type Code": 51, "Facility Type": "Home Health Agency", "Map Symbol": "Home Health", "Facility Type Detail": "MEDICARE/MEDICAID", "Facility Type Abbreviation": "HHA-1819", "Licensed Beds Total": 0, "Telephone": "(720) 400-2706", "County": "DENVER", "Address Full": "19557 E 39TH AVE, DENVER, CO 80249", "Latitude": 39.769855, "Longitude": -104.758644, "CDPHE HFEMS Licensed": "Licensed", "Operating Status": "Active", "Date Data Updated": "2025-10-27T07:00:00Z", "Source": "CDPHE Health Facilities and Emergency Medical Services Division", "GlobalID": "6dc99309-5d7b-4901-9e12-cbfd053f24c5", "x": 3208397.425, "y": 1706148.041 }, "geometry": { "type": "Point", "coordinates": [ -104.758644, 39.769855 ] } },
{ "type": "Feature", "properties": { "OBJECTID": 129, "Facility ID": "04H521", "Facility Name": "GATEWAY HOME HEALTH - DENVER", "Facility Type Code": 51, "Facility Type": "Home Health Agency", "Map Symbol": "Home Health", "Facility Type Detail": "MEDICARE/MEDICAID", "Facility Type Abbreviation": "HHA-1819", "Licensed Beds Total": 0, "Telephone": "(303) 495-2578", "County": "DENVER", "Address Full": "2696 S COLORADO BLVD  STE 420, DENVER, CO 80222", "Latitude": 39.668644, "Longitude": -104.940544, "CDPHE HFEMS Licensed": "Licensed", "Operating Status": "Active", "Date Data Updated": "2025-10-27T07:00:00Z", "Source": "CDPHE Health Facilities and Emergency Medical Services Division", "GlobalID": "74afd122-2402-4097-90a2-4126ee604719", "x": 3157493.261, "y": 1668914.909 }, "geometry": { "type": "Point", "coordinates": [ -104.940544, 39.668644 ] } },
{ "type": "Feature", "properties": { "OBJECTID": 146, "Facility ID": "04I966", "Facility Name": "KIDSCARE THERAPY OF COLORADO LLC", "Facility Type Code": 51, "Facility Type": "Home Health Agency", "Map Symbol": "Home Health", "Facility Type Detail": "MEDICARE/MEDICAID", "Facility Type Abbreviation": "HHA-1819", "Licensed Beds Total": 0, "Telephone": "(214) 751-7468", "County": "DENVER", "Address Full": "3801 E FLORIDA AVE #917, DENVER, CO 80210", "Latitude": 39.689373, "Longitude": -104.942131, "CDPHE HFEMS Licensed": "Licensed", "Operating Status": "Active", "Date Data Updated": "2025-10-27T07:00:00Z", "Source": "CDPHE Health Facilities and Emergency Medical Services Division", "GlobalID": "c61ca206-075e-4c5f-ae96-9570f14ae70d", "x": 3157000.148, "y": 1676462.787 }, "geometry": { "type": "Point", "coordinates": [ -104.942131, 39.689373 ] } },
{ "type": "Feature", "properties": { "OBJECTID": 158, "Facility ID": "04K558", "Facility Name": "ACCENTCARE HOME HEALTH OF MOUNTAIN VALLEY LLC", "Facility Type Code": 51, "Facility Type": "Home Health Agency", "Map Symbol": "Home Health", "Facility Type Detail": "MEDICARE/MEDICAID", "Facility Type Abbreviation": "HHA-1819", "Licensed Beds Total": 0, "Telephone": "(303) 620-5402", "County": "DENVER", "Address Full": "455 SHERMAN ST STE 465, DENVER, CO 80203", "Latitude": 39.723427, "Longitude": -104.9851, "CDPHE HFEMS Licensed": "Licensed", "Operating Status": "Active", "Date Data Updated": "2025-10-27T07:00:00Z", "Source": "CDPHE Health Facilities and Emergency Medical Services Division", "GlobalID": "08171fe5-91fb-4d7a-8078-cf863687039b", "x": 3144837.497, "y": 1688795.854 }, "geometry": { "type": "Point", "coordinates": [ -104.9851, 39.723427 ] } },
{ "type": "Feature", "properties": { "OBJECTID": 160, "Facility ID": "04K996", "Facility Name": "SUPER HEALTH CARE INCORPORATED", "Facility Type Code": 51, "Facility Type": "Home Health Agency", "Map Symbol": "Home Health", "Facility Type Detail": "MEDICARE/MEDICAID", "Facility Type Abbreviation": "HHA-1819", "Licensed Beds Total": 0, "Telephone": "(303) 991-1009", "County": "DENVER", "Address Full": "6795 E TENNESSEE AVE  STE 225, DENVER, CO 80224", "Latitude": 39.698505, "Longitude": -104.910103, "CDPHE HFEMS Licensed": "Licensed", "Operating Status": "Active", "Date Data Updated": "2025-10-27T07:00:00Z", "Source": "CDPHE Health Facilities and Emergency Medical Services Division", "GlobalID": "95c62217-99ed-4ae9-ab50-14bd39d3068a", "x": 3165991.852, "y": 1679846.104 }, "geometry": { "type": "Point", "coordinates": [ -104.910103, 39.698505 ] } },
{ "type": "Feature", "properties": { "OBJECTID": 162, "Facility ID": "04L189", "Facility Name": "HOME CARE RN INC", "Facility Type Code": 51, "Facility Type": "Home Health Agency", "Map Symbol": "Home Health", "Facility Type Detail": "MEDICARE/MEDICAID", "Facility Type Abbreviation": "HHA-1819", "Licensed Beds Total": 0, "Telephone": "(720) 535-8652", "County": "DENVER", "Address Full": "1325 S COLORADO BLVD #B-101, DENVER, CO 80222", "Latitude": 39.692509, "Longitude": -104.940804, "CDPHE HFEMS Licensed": "Licensed", "Operating Status": "Active", "Date Data Updated": "2025-10-27T07:00:00Z", "Source": "CDPHE Health Facilities and Emergency Medical Services Division", "GlobalID": "32bbc5df-aaec-448a-b09e-aa6849afdba4", "x": 3157366.561, "y": 1677607.388 }, "geometry": { "type": "Point", "coordinates": [ -104.940804, 39.692509 ] } },
{ "type": "Feature", "properties": { "OBJECTID": 163, "Facility ID": "04L580", "Facility Name": "PROGRESSIVE HOME HEALTH SERVICES LLC", "Facility Type Code": 51, "Facility Type": "Home Health Agency", "Map Symbol": "Home Health", "Facility Type Detail": "MEDICARE/MEDICAID", "Facility Type Abbreviation": "HHA-1819", "Licensed Beds Total": 0, "Telephone": "(720) 339-2129", "County": "DENVER", "Address Full": "6000 E EVANS AVE  BLDG 1 STE 010, DENVER, CO 80222", "Latitude": 39.678413, "Longitude": -104.91803, "CDPHE HFEMS Licensed": "Licensed", "Operating Status": "Active", "Date Data Updated": "2025-10-27T07:00:00Z", "Source": "CDPHE Health Facilities and Emergency Medical Services Division", "GlobalID": "97c82770-890d-4737-acea-c93a93711224", "x": 3163808.216, "y": 1672513.111 }, "geometry": { "type": "Point", "coordinates": [ -104.91803, 39.678413 ] } },
{ "type": "Feature", "properties": { "OBJECTID": 180, "Facility ID": "04O234", "Facility Name": "ALL FOR KIDS HOME HEALTH", "Facility Type Code": 51, "Facility Type": "Home Health Agency", "Map Symbol": "Home Health", "Facility Type Detail": "MEDICARE/MEDICAID", "Facility Type Abbreviation": "HHA-1819", "Licensed Beds Total": 0, "Telephone": "(720) 456-8054", "County": "DENVER", "Address Full": "4155 E JEWEWLL AVE STE 900, DENVER, CO 80222", "Latitude": 39.682148, "Longitude": -104.937157, "CDPHE HFEMS Licensed": "Licensed", "Operating Status": "Active", "Date Data Updated": "2025-10-27T07:00:00Z", "Source": "CDPHE Health Facilities and Emergency Medical Services Division", "GlobalID": "b3764b14-3106-4b3d-aa05-66e935044b41", "x": 3158416.236, "y": 1673839.679 }, "geometry": { "type": "Point", "coordinates": [ -104.937157, 39.682148 ] } },
{ "type": "Feature", "properties": { "OBJECTID": 187, "Facility ID": "04P69Z", "Facility Name": "OMEGA HOME HEALTH INC", "Facility Type Code": 51, "Facility Type": "Home Health Agency", "Map Symbol": "Home Health", "Facility Type Detail": "MEDICARE/MEDICAID", "Facility Type Abbreviation": "HHA-1819", "Licensed Beds Total": 0, "Telephone": "(720) 677-9091", "County": "DENVER", "Address Full": "2186 S HOLLY ST STE 205, DENVER, CO 80222", "Latitude": 39.677296, "Longitude": -104.922195, "CDPHE HFEMS Licensed": "Licensed", "Operating Status": "Active", "Date Data Updated": "2025-10-27T07:00:00Z", "Source": "CDPHE Health Facilities and Emergency Medical Services Division", "GlobalID": "71436d54-a6b7-445e-bf30-2f1cded152fa", "x": 3162638.509, "y": 1672098.757 }, "geometry": { "type": "Point", "coordinates": [ -104.922195, 39.677296 ] } },
{ "type": "Feature", "properties": { "OBJECTID": 198, "Facility ID": "04R282", "Facility Name": "HUMAN TOUCH HOME HEALTH CARE AGENCY DENVER INC", "Facility Type Code": 51, "Facility Type": "Home Health Agency", "Map Symbol": "Home Health", "Facility Type Detail": "MEDICARE/MEDICAID", "Facility Type Abbreviation": "HHA-1819", "Licensed Beds Total": 0, "Telephone": "(303) 973-1513", "County": "DENVER", "Address Full": "8973 E KENYON AVE, DENVER, CO 80237", "Latitude": 39.649635, "Longitude": -104.883568, "CDPHE HFEMS Licensed": "Licensed", "Operating Status": "Active", "Date Data Updated": "2025-10-27T07:00:00Z", "Source": "CDPHE Health Facilities and Emergency Medical Services Division", "GlobalID": "02f59b44-74dd-4c40-a683-d92dcefe3162", "x": 3173579.12, "y": 1662094.682 }, "geometry": { "type": "Point", "coordinates": [ -104.883568, 39.649635 ] } },
{ "type": "Feature", "properties": { "OBJECTID": 214, "Facility ID": "04U706", "Facility Name": "OPTIMAL HOME CARE INC", "Facility Type Code": 51, "Facility Type": "Home Health Agency", "Map Symbol": "Home Health", "Facility Type Detail": "MEDICARE/MEDICAID", "Facility Type Abbreviation": "HHA-1819", "Licensed Beds Total": 0, "Telephone": "(303) 488-9999", "County": "DENVER", "Address Full": "4380 S SYRACUSE ST STE 600, DENVER, CO 80237", "Latitude": 39.636253, "Longitude": -104.899216, "CDPHE HFEMS Licensed": "Licensed", "Operating Status": "Active", "Date Data Updated": "2025-10-27T07:00:00Z", "Source": "CDPHE Health Facilities and Emergency Medical Services Division", "GlobalID": "68130a77-1f35-44d2-9795-bb235a2212b2", "x": 3169205.222, "y": 1657190.789 }, "geometry": { "type": "Point", "coordinates": [ -104.899216, 39.636253 ] } },
{ "type": "Feature", "properties": { "OBJECTID": 220, "Facility ID": "04V603", "Facility Name": "ACE HOME HEALTHCARE LLC", "Facility Type Code": 51, "Facility Type": "Home Health Agency", "Map Symbol": "Home Health", "Facility Type Detail": "MEDICARE/MEDICAID", "Facility Type Abbreviation": "HHA-1819", "Licensed Beds Total": 0, "Telephone": "(720) 909-8180", "County": "DENVER", "Address Full": "4582 S ULSTER ST  STE 206, DENVER, CO 80237", "Latitude": 39.632633, "Longitude": -104.899086, "CDPHE HFEMS Licensed": "Licensed", "Operating Status": "Active", "Date Data Updated": "2025-10-27T07:00:00Z", "Source": "CDPHE Health Facilities and Emergency Medical Services Division", "GlobalID": "d72fb3a7-3ee5-40e3-9453-198db6eefd88", "x": 3169250.556, "y": 1655872.455 }, "geometry": { "type": "Point", "coordinates": [ -104.899086, 39.632633 ] } },
{ "type": "Feature", "properties": { "OBJECTID": 228, "Facility ID": "04W276", "Facility Name": "OPTA HOME HEALTH CARE OF COLORADO INC", "Facility Type Code": 51, "Facility Type": "Home Health Agency", "Map Symbol": "Home Health", "Facility Type Detail": "MEDICARE/MEDICAID", "Facility Type Abbreviation": "HHA-1819", "Licensed Beds Total": 0, "Telephone": "(303) 484-9323", "County": "DENVER", "Address Full": "6795 E TENNESSEE AVE  STE 345, DENVER, CO 80224", "Latitude": 39.698505, "Longitude": -104.910103, "CDPHE HFEMS Licensed": "Licensed", "Operating Status": "Active", "Date Data Updated": "2025-10-27T07:00:00Z", "Source": "CDPHE Health Facilities and Emergency Medical Services Division", "GlobalID": "1ee2cefa-2d86-4b23-9767-c9e6fe4dcf20", "x": 3165991.852, "y": 1679846.104 }, "geometry": { "type": "Point", "coordinates": [ -104.910103, 39.698505 ] } },
{ "type": "Feature", "properties": { "OBJECTID": 232, "Facility ID": "04W739", "Facility Name": "ESTRELLA HOME HEALTH CARE INC", "Facility Type Code": 51, "Facility Type": "Home Health Agency", "Map Symbol": "Home Health", "Facility Type Detail": "MEDICARE/MEDICAID", "Facility Type Abbreviation": "HHA-1819", "Licensed Beds Total": 0, "Telephone": "(303) 756-6756", "County": "DENVER", "Address Full": "4155 E JEWELL AVE STE 809, DENVER, CO 80222", "Latitude": 39.682148, "Longitude": -104.937157, "CDPHE HFEMS Licensed": "Licensed", "Operating Status": "Active", "Date Data Updated": "2025-10-27T07:00:00Z", "Source": "CDPHE Health Facilities and Emergency Medical Services Division", "GlobalID": "a1927c2f-b5d5-499c-a1a0-b6f8061dcac6", "x": 3158416.236, "y": 1673839.679 }, "geometry": { "type": "Point", "coordinates": [ -104.937157, 39.682148 ] } },
{ "type": "Feature", "properties": { "OBJECTID": 239, "Facility ID": "04X376", "Facility Name": "ABSOLUTE HOME CARE LLC", "Facility Type Code": 51, "Facility Type": "Home Health Agency", "Map Symbol": "Home Health", "Facility Type Detail": "MEDICARE/MEDICAID", "Facility Type Abbreviation": "HHA-1819", "Licensed Beds Total": 0, "Telephone": "(720) 999-7774", "County": "DENVER", "Address Full": "9725 E HAMPDEN AVE  STE 102-F, DENVER, CO 80231", "Latitude": 39.653118, "Longitude": -104.875374, "CDPHE HFEMS Licensed": "Licensed", "Operating Status": "Active", "Date Data Updated": "2025-10-27T07:00:00Z", "Source": "CDPHE Health Facilities and Emergency Medical Services Division", "GlobalID": "51aeef34-67b8-4808-b22f-5ef852405025", "x": 3175877.646, "y": 1663379.121 }, "geometry": { "type": "Point", "coordinates": [ -104.875374, 39.653118 ] } },
{ "type": "Feature", "properties": { "OBJECTID": 252, "Facility ID": "04Z782", "Facility Name": "ANOVA CARE", "Facility Type Code": 51, "Facility Type": "Home Health Agency", "Map Symbol": "Home Health", "Facility Type Detail": "MEDICARE/MEDICAID", "Facility Type Abbreviation": "HHA-1819", "Licensed Beds Total": 0, "Telephone": "(888) 929-2050", "County": "DENVER", "Address Full": "4900 E CHERRY CREEK DR S STE E, DENVER, CO 80246", "Latitude": 39.702724, "Longitude": -104.930031, "CDPHE HFEMS Licensed": "Licensed", "Operating Status": "Active", "Date Data Updated": "2025-10-27T07:00:00Z", "Source": "CDPHE Health Facilities and Emergency Medical Services Division", "GlobalID": "1217f4de-6f92-4c30-bbab-49c52bb4b32a", "x": 3160374.815, "y": 1681347.107 }, "geometry": { "type": "Point", "coordinates": [ -104.930031, 39.702724 ] } },
{ "type": "Feature", "properties": { "OBJECTID": 417, "Facility ID": "120404", "Facility Name": "SOUTH DENVER DIALYSIS CENTER", "Facility Type Code": 91, "Facility Type": "All Other Factypes", "Map Symbol": "End Stage Renal Disease", "Facility Type Detail": "MEDICARE", "Facility Type Abbreviation": "ESRD", "Licensed Beds Total": 17, "Telephone": "(303) 744-0559", "County": "DENVER", "Address Full": "850 E HARVARD AVE STE 60, DENVER, CO 80210", "Latitude": 39.671234, "Longitude": -104.978462, "CDPHE HFEMS Licensed": "Licensed", "Operating Status": "Pending", "Date Data Updated": "2025-10-27T07:00:00Z", "Source": "CDPHE Health Facilities and Emergency Medical Services Division", "GlobalID": "09694ce6-9556-4cd8-aeca-5d48be7f4912", "x": 3146813.806, "y": 1669794.82 }, "geometry": { "type": "Point", "coordinates": [ -104.978462, 39.671234 ] } },
{ "type": "Feature", "properties": { "OBJECTID": 418, "Facility ID": "12047E", "Facility Name": "LOWRY DIALYSIS CENTER", "Facility Type Code": 91, "Facility Type": "All Other Factypes", "Map Symbol": "End Stage Renal Disease", "Facility Type Detail": "MEDICARE", "Facility Type Abbreviation": "ESRD", "Licensed Beds Total": 0, "Telephone": "(303) 367-0946", "County": "DENVER", "Address Full": "7465 E 1ST AVE STE A, DENVER, CO 80230", "Latitude": 39.719135, "Longitude": -104.900223, "CDPHE HFEMS Licensed": "Licensed", "Operating Status": "Active", "Date Data Updated": "2025-10-27T07:00:00Z", "Source": "CDPHE Health Facilities and Emergency Medical Services Division", "GlobalID": "061f60bc-11b0-45bb-9f8b-7da1bd184afa", "x": 3168722.297, "y": 1687378.928 }, "geometry": { "type": "Point", "coordinates": [ -104.900223, 39.719135 ] } },
{ "type": "Feature", "properties": { "OBJECTID": 419, "Facility ID": "12C966", "Facility Name": "FRESENIUS MEDICAL CARE PAVILION DIALYSIS", "Facility Type Code": 91, "Facility Type": "All Other Factypes", "Map Symbol": "End Stage Renal Disease", "Facility Type Detail": "MEDICARE", "Facility Type Abbreviation": "ESRD", "Licensed Beds Total": 0, "Telephone": "(303) 623-2107", "County": "DENVER", "Address Full": "723 DELAWARE STREET  M105, DENVER, CO 80204", "Latitude": 39.727802, "Longitude": -104.992928, "CDPHE HFEMS Licensed": "Licensed", "Operating Status": "Active", "Date Data Updated": "2025-10-27T07:00:00Z", "Source": "CDPHE Health Facilities and Emergency Medical Services Division", "GlobalID": "3fbce4a0-b018-41f5-b49f-0c9d2237d2e8", "x": 3142626.71, "y": 1690377.112 }, "geometry": { "type": "Point", "coordinates": [ -104.992928, 39.727802 ] } },
{ "type": "Feature", "properties": { "OBJECTID": 420, "Facility ID": "12G118", "Facility Name": "FRESENIUS MEDICAL CARE STAPLETON DIALYSIS", "Facility Type Code": 91, "Facility Type": "All Other Factypes", "Map Symbol": "End Stage Renal Disease", "Facility Type Detail": "MEDICARE", "Facility Type Abbreviation": "ESRD", "Licensed Beds Total": 0, "Telephone": "(303) 322-1513", "County": "DENVER", "Address Full": "7606 E 36TH AVE, DENVER, CO 80238", "Latitude": 39.767242, "Longitude": -104.899223, "CDPHE HFEMS Licensed": "Licensed", "Operating Status": "Active", "Date Data Updated": "2025-10-27T07:00:00Z", "Source": "CDPHE Health Facilities and Emergency Medical Services Division", "GlobalID": "f3b10bab-90ca-4cd6-b65a-44bfe3fc11e9", "x": 3168887.71, "y": 1704904.312 }, "geometry": { "type": "Point", "coordinates": [ -104.899223, 39.767242 ] } },
{ "type": "Feature", "properties": { "OBJECTID": 421, "Facility ID": "12G4KJ", "Facility Name": "FRESENIUS KIDNEY CARE LOWRY", "Facility Type Code": 91, "Facility Type": "All Other Factypes", "Map Symbol": "End Stage Renal Disease", "Facility Type Detail": "MEDICARE", "Facility Type Abbreviation": "ESRD", "Licensed Beds Total": 0, "Telephone": "(303) 343-0736", "County": "DENVER", "Address Full": "9050 E LOWRY BLVD STE 130, DENVER, CO 80230", "Latitude": 39.724377, "Longitude": -104.882538, "CDPHE HFEMS Licensed": "Licensed", "Operating Status": "Active", "Date Data Updated": "2025-10-27T07:00:00Z", "Source": "CDPHE Health Facilities and Emergency Medical Services Division", "GlobalID": "45ab18a3-a3fb-4aab-ba61-746aefdcc4ca", "x": 3173684.1, "y": 1689321.698 }, "geometry": { "type": "Point", "coordinates": [ -104.882538, 39.724377 ] } },
{ "type": "Feature", "properties": { "OBJECTID": 422, "Facility ID": "12H132", "Facility Name": "SOUTHWEST DENVER DIALYSIS", "Facility Type Code": 91, "Facility Type": "All Other Factypes", "Map Symbol": "End Stage Renal Disease", "Facility Type Detail": "MEDICARE", "Facility Type Abbreviation": "ESRD", "Licensed Beds Total": 0, "Telephone": "(303) 933-2367", "County": "DENVER", "Address Full": "8601 W CROSS DR  UNIT C2, LITTLETON, CO 80123", "Latitude": 39.614628, "Longitude": -105.094772, "CDPHE HFEMS Licensed": "Licensed", "Operating Status": "Active", "Date Data Updated": "2025-10-27T07:00:00Z", "Source": "CDPHE Health Facilities and Emergency Medical Services Division", "GlobalID": "893b1fa1-5b44-4ba2-be0d-9cbc4ddfbe0e", "x": 3114165.195, "y": 1649008.917 }, "geometry": { "type": "Point", "coordinates": [ -105.094772, 39.614628 ] } },
{ "type": "Feature", "properties": { "OBJECTID": 423, "Facility ID": "12J597", "Facility Name": "DENVER DIALYSIS CENTER", "Facility Type Code": 91, "Facility Type": "All Other Factypes", "Map Symbol": "End Stage Renal Disease", "Facility Type Detail": "MEDICARE", "Facility Type Abbreviation": "ESRD", "Licensed Beds Total": 0, "Telephone": "(303) 292-0303", "County": "DENVER", "Address Full": "2900 N DOWNING ST STE C, DENVER, CO 80205", "Latitude": 39.758312, "Longitude": -104.973282, "CDPHE HFEMS Licensed": "Licensed", "Operating Status": "Active", "Date Data Updated": "2025-10-27T07:00:00Z", "Source": "CDPHE Health Facilities and Emergency Medical Services Division", "GlobalID": "74eb4274-4129-4224-a5c1-96e41849e942", "x": 3148088.034, "y": 1701522.226 }, "geometry": { "type": "Point", "coordinates": [ -104.973282, 39.758312 ] } },
{ "type": "Feature", "properties": { "OBJECTID": 425, "Facility ID": "12M598", "Facility Name": "MONTBELLO DIALYSIS", "Facility Type Code": 91, "Facility Type": "All Other Factypes", "Map Symbol": "End Stage Renal Disease", "Facility Type Detail": "MEDICARE", "Facility Type Abbreviation": "ESRD", "Licensed Beds Total": 0, "Telephone": "(303) 371-1502", "County": "DENVER", "Address Full": "4834 CHAMBERS RD, DENVER, CO 80239", "Latitude": 39.784969, "Longitude": -104.809547, "CDPHE HFEMS Licensed": "Licensed", "Operating Status": "Active", "Date Data Updated": "2025-10-27T07:00:00Z", "Source": "CDPHE Health Facilities and Emergency Medical Services Division", "GlobalID": "14246d15-9419-4d46-837e-863c557e4b76", "x": 3194047.071, "y": 1711540.761 }, "geometry": { "type": "Point", "coordinates": [ -104.809547, 39.784969 ] } },
{ "type": "Feature", "properties": { "OBJECTID": 426, "Facility ID": "12OIAF", "Facility Name": "FRESENIUS KIDNEY CARE SLOANS LAKE DIALYSIS", "Facility Type Code": 91, "Facility Type": "All Other Factypes", "Map Symbol": "End Stage Renal Disease", "Facility Type Detail": "MEDICARE", "Facility Type Abbreviation": "ESRD", "Licensed Beds Total": 0, "Telephone": "(720) 472-5525", "County": "DENVER", "Address Full": "4097 W COLFAX AVE, DENVER, CO 80204", "Latitude": 39.740398, "Longitude": -105.040405, "CDPHE HFEMS Licensed": "Licensed", "Operating Status": "Active", "Date Data Updated": "2025-10-27T07:00:00Z", "Source": "CDPHE Health Facilities and Emergency Medical Services Division", "GlobalID": "7388d80d-483f-4a2e-9090-fe62e39730db", "x": 3129249.783, "y": 1694894.329 }, "geometry": { "type": "Point", "coordinates": [ -105.040405, 39.740398 ] } },
{ "type": "Feature", "properties": { "OBJECTID": 427, "Facility ID": "12V337", "Facility Name": "FRESENIUS MEDICAL CARE SOUTH DENVER DIALYSIS", "Facility Type Code": 91, "Facility Type": "All Other Factypes", "Map Symbol": "End Stage Renal Disease", "Facility Type Detail": "MEDICARE", "Facility Type Abbreviation": "ESRD", "Licensed Beds Total": 0, "Telephone": "(303) 671-2419", "County": "DENVER", "Address Full": "3410 S GALENA ST STE 100, DENVER, CO 80231", "Latitude": 39.654758, "Longitude": -104.870064, "CDPHE HFEMS Licensed": "Licensed", "Operating Status": "Active", "Date Data Updated": "2025-10-27T07:00:00Z", "Source": "CDPHE Health Facilities and Emergency Medical Services Division", "GlobalID": "d35a215b-60c0-451a-976c-f8b8d2492112", "x": 3177368.608, "y": 1663986.813 }, "geometry": { "type": "Point", "coordinates": [ -104.870064, 39.654758 ] } },
{ "type": "Feature", "properties": { "OBJECTID": 430, "Facility ID": "1604OR", "Facility Name": "MADISON STREET SURGERY CENTER, LLC", "Facility Type Code": 151, "Facility Type": "All Other Factypes", "Map Symbol": "Surgery or Transplant", "Facility Type Detail": "MEDICARE", "Facility Type Abbreviation": "ASC", "Licensed Beds Total": 0, "Telephone": "(303) 388-0599", "County": "DENVER", "Address Full": "55 MADISON ST STE 200, DENVER, CO 80206", "Latitude": 39.717087, "Longitude": -104.946243, "CDPHE HFEMS Licensed": "Licensed", "Operating Status": "Active", "Date Data Updated": "2025-10-27T07:00:00Z", "Source": "CDPHE Health Facilities and Emergency Medical Services Division", "GlobalID": "396a728b-fc57-478b-afab-01f6727195b9", "x": 3155781.415, "y": 1686550.735 }, "geometry": { "type": "Point", "coordinates": [ -104.946243, 39.717087 ] } },
{ "type": "Feature", "properties": { "OBJECTID": 431, "Facility ID": "1604Y4", "Facility Name": "MIDTOWN SURGICAL CENTER", "Facility Type Code": 151, "Facility Type": "All Other Factypes", "Map Symbol": "Surgery or Transplant", "Facility Type Detail": "MEDICARE", "Facility Type Abbreviation": "ASC", "Licensed Beds Total": 0, "Telephone": "(303) 322-3993", "County": "DENVER", "Address Full": "1919 E 18TH AVE, DENVER, CO 80206", "Latitude": 39.744862, "Longitude": -104.963905, "CDPHE HFEMS Licensed": "Licensed", "Operating Status": "Active", "Date Data Updated": "2025-10-27T07:00:00Z", "Source": "CDPHE Health Facilities and Emergency Medical Services Division", "GlobalID": "bfedc383-3843-4ff2-8f57-7cad77b19d9f", "x": 3150753.232, "y": 1696638.294 }, "geometry": { "type": "Point", "coordinates": [ -104.963905, 39.744862 ] } },
{ "type": "Feature", "properties": { "OBJECTID": 432, "Facility ID": "1604ZJ", "Facility Name": "KAISER PERMANENTE AMBULATORY SURGERY CENTER", "Facility Type Code": 151, "Facility Type": "All Other Factypes", "Map Symbol": "Surgery or Transplant", "Facility Type Detail": "MEDICARE", "Facility Type Abbreviation": "ASC", "Licensed Beds Total": 7, "Telephone": "(303) 764-4442", "County": "DENVER", "Address Full": "2045 FRANKLIN ST, DENVER, CO 80205", "Latitude": 39.747433, "Longitude": -104.968506, "CDPHE HFEMS Licensed": "Licensed", "Operating Status": "Active", "Date Data Updated": "2025-10-27T07:00:00Z", "Source": "CDPHE Health Facilities and Emergency Medical Services Division", "GlobalID": "19ce0a17-4cc7-40ec-9343-fa6b31daffda", "x": 3149453.962, "y": 1697567.213 }, "geometry": { "type": "Point", "coordinates": [ -104.968506, 39.747433 ] } },
{ "type": "Feature", "properties": { "OBJECTID": 433, "Facility ID": "16F488", "Facility Name": "LOWRY SURGERY CENTER", "Facility Type Code": 151, "Facility Type": "All Other Factypes", "Map Symbol": "Surgery or Transplant", "Facility Type Detail": "MEDICARE", "Facility Type Abbreviation": "ASC", "Licensed Beds Total": 0, "Telephone": "(303) 366-5656", "County": "DENVER", "Address Full": "8101 EAST LOWRY BOULEVARD, SUITE 100, DENVER, CO 80230", "Latitude": 39.717793, "Longitude": -104.894531, "CDPHE HFEMS Licensed": "Licensed", "Operating Status": "Pending", "Date Data Updated": "2025-10-27T07:00:00Z", "Source": "CDPHE Health Facilities and Emergency Medical Services Division", "GlobalID": "33685d31-e674-4e09-9223-075502ff7035", "x": 3170326.712, "y": 1686900.715 }, "geometry": { "type": "Point", "coordinates": [ -104.894531, 39.717793 ] } },
{ "type": "Feature", "properties": { "OBJECTID": 434, "Facility ID": "16H067", "Facility Name": "DOWNTOWN DENVER ENDOSCOPY CENTER LLC", "Facility Type Code": 151, "Facility Type": "All Other Factypes", "Map Symbol": "Surgery or Transplant", "Facility Type Detail": "MEDICARE", "Facility Type Abbreviation": "ASC", "Licensed Beds Total": 0, "Telephone": "(303) 604-5000", "County": "DENVER", "Address Full": "1830 N FRANKLIN ST STE 210, DENVER, CO 80218", "Latitude": 39.745224, "Longitude": -104.968376, "CDPHE HFEMS Licensed": "Licensed", "Operating Status": "Active", "Date Data Updated": "2025-10-27T07:00:00Z", "Source": "CDPHE Health Facilities and Emergency Medical Services Division", "GlobalID": "99bafcff-cafd-4186-ab56-dc3101a7501c", "x": 3149495.225, "y": 1696762.768 }, "geometry": { "type": "Point", "coordinates": [ -104.968376, 39.745224 ] } },
{ "type": "Feature", "properties": { "OBJECTID": 435, "Facility ID": "16H513", "Facility Name": "DENVER ENDOSCOPY CENTER", "Facility Type Code": 151, "Facility Type": "All Other Factypes", "Map Symbol": "Surgery or Transplant", "Facility Type Detail": "MEDICARE", "Facility Type Abbreviation": "ASC", "Licensed Beds Total": 0, "Telephone": "(303) 344-4844", "County": "DENVER", "Address Full": "8155 E 1ST AVE, DENVER, CO 80230", "Latitude": 39.722881, "Longitude": -104.891884, "CDPHE HFEMS Licensed": "Licensed", "Operating Status": "Active", "Date Data Updated": "2025-10-27T07:00:00Z", "Source": "CDPHE Health Facilities and Emergency Medical Services Division", "GlobalID": "68c2a895-b8a3-46e7-ac03-159b6e93474b", "x": 3171058.92, "y": 1688759.034 }, "geometry": { "type": "Point", "coordinates": [ -104.891884, 39.722881 ] } },
{ "type": "Feature", "properties": { "OBJECTID": 436, "Facility ID": "16J159", "Facility Name": "HARVARD PARK SURGERY CENTER", "Facility Type Code": 151, "Facility Type": "All Other Factypes", "Map Symbol": "Surgery or Transplant", "Facility Type Detail": "MEDICARE", "Facility Type Abbreviation": "ASC", "Licensed Beds Total": 0, "Telephone": "(720) 738-3910", "County": "DENVER", "Address Full": "1000 E HARVARD AVE, DENVER, CO 80210", "Latitude": 39.671246, "Longitude": -104.975693, "CDPHE HFEMS Licensed": "Licensed", "Operating Status": "Active", "Date Data Updated": "2025-10-27T07:00:00Z", "Source": "CDPHE Health Facilities and Emergency Medical Services Division", "GlobalID": "e3e7d198-3893-4cc3-b584-0c9a81fd579c", "x": 3147593.235, "y": 1669803.678 }, "geometry": { "type": "Point", "coordinates": [ -104.975693, 39.671246 ] } },
{ "type": "Feature", "properties": { "OBJECTID": 437, "Facility ID": "16K183", "Facility Name": "DENVER SURGERY CENTER", "Facility Type Code": 151, "Facility Type": "All Other Factypes", "Map Symbol": "Surgery or Transplant", "Facility Type Detail": "MEDICARE", "Facility Type Abbreviation": "ASC", "Licensed Beds Total": 0, "Telephone": "(720) 996-4500", "County": "DENVER", "Address Full": "1830 N FRANKLIN ST STE 200, DENVER, CO 80218", "Latitude": 39.745224, "Longitude": -104.968376, "CDPHE HFEMS Licensed": "Licensed", "Operating Status": "Active", "Date Data Updated": "2025-10-27T07:00:00Z", "Source": "CDPHE Health Facilities and Emergency Medical Services Division", "GlobalID": "768d4fae-ce13-47ce-b34c-a07c5b49ee3f", "x": 3149495.225, "y": 1696762.768 }, "geometry": { "type": "Point", "coordinates": [ -104.968376, 39.745224 ] } },
{ "type": "Feature", "properties": { "OBJECTID": 438, "Facility ID": "16LCS9", "Facility Name": "UCHEALTH CHERRY CREEK NORTH SURGERY CENTER", "Facility Type Code": 151, "Facility Type": "All Other Factypes", "Map Symbol": "Surgery or Transplant", "Facility Type Detail": "MEDICARE", "Facility Type Abbreviation": "ASC", "Licensed Beds Total": 0, "Telephone": "(720) 516-9373", "County": "DENVER", "Address Full": "100 COOK ST STE 500, DENVER, CO 80206", "Latitude": 39.718166, "Longitude": -104.946854, "CDPHE HFEMS Licensed": "Licensed", "Operating Status": "Active", "Date Data Updated": "2025-10-27T07:00:00Z", "Source": "CDPHE Health Facilities and Emergency Medical Services Division", "GlobalID": "f33052ea-abad-4200-8215-fe09eda92534", "x": 3155607.142, "y": 1686942.724 }, "geometry": { "type": "Point", "coordinates": [ -104.946854, 39.718166 ] } },
{ "type": "Feature", "properties": { "OBJECTID": 439, "Facility ID": "16LLCP", "Facility Name": "VASCULAR LABS OF THE ROCKIES ASC LLC", "Facility Type Code": 151, "Facility Type": "All Other Factypes", "Map Symbol": "Surgery or Transplant", "Facility Type Detail": "MEDICARE", "Facility Type Abbreviation": "ASC", "Licensed Beds Total": 0, "Telephone": "(303) 539-0736", "County": "DENVER", "Address Full": "4105 E FLORIDA AVE STE 100, DENVER, CO 80222", "Latitude": 39.689377, "Longitude": -104.939095, "CDPHE HFEMS Licensed": "Licensed", "Operating Status": "Active", "Date Data Updated": "2025-10-27T07:00:00Z", "Source": "CDPHE Health Facilities and Emergency Medical Services Division", "GlobalID": "6ccfc5a4-c761-44d4-8556-cdcd49225419", "x": 3157854.53, "y": 1676469.504 }, "geometry": { "type": "Point", "coordinates": [ -104.939095, 39.689377 ] } },
{ "type": "Feature", "properties": { "OBJECTID": 440, "Facility ID": "16O234", "Facility Name": "ROSE SURGICAL CENTER", "Facility Type Code": 151, "Facility Type": "All Other Factypes", "Map Symbol": "Surgery or Transplant", "Facility Type Detail": "MEDICARE", "Facility Type Abbreviation": "ASC", "Licensed Beds Total": 0, "Telephone": "(303) 758-1175", "County": "DENVER", "Address Full": "4700 E HALE PKWY   STE 200, DENVER, CO 80220", "Latitude": 39.733055, "Longitude": -104.93248, "CDPHE HFEMS Licensed": "Licensed", "Operating Status": "Active", "Date Data Updated": "2025-10-27T07:00:00Z", "Source": "CDPHE Health Facilities and Emergency Medical Services Division", "GlobalID": "af950004-d02c-45f0-9b1d-71eab1fc51c5", "x": 3159616.728, "y": 1692391.13 }, "geometry": { "type": "Point", "coordinates": [ -104.93248, 39.733055 ] } },
{ "type": "Feature", "properties": { "OBJECTID": 441, "Facility ID": "16P249", "Facility Name": "PARK AVENUE SURGERY CENTER, LLC", "Facility Type Code": 151, "Facility Type": "All Other Factypes", "Map Symbol": "Surgery or Transplant", "Facility Type Detail": "MEDICARE", "Facility Type Abbreviation": "ASC", "Licensed Beds Total": 0, "Telephone": "(303) 468-8844", "County": "DENVER", "Address Full": "1800 N EMERSON ST STE 220, DENVER, CO 80218", "Latitude": 39.744923, "Longitude": -104.976082, "CDPHE HFEMS Licensed": "Licensed", "Operating Status": "Active", "Date Data Updated": "2025-10-27T07:00:00Z", "Source": "CDPHE Health Facilities and Emergency Medical Services Division", "GlobalID": "6c712a6a-cff2-439f-8a80-152d9ab7ed40", "x": 3147328.958, "y": 1696640.536 }, "geometry": { "type": "Point", "coordinates": [ -104.976082, 39.744923 ] } },
{ "type": "Feature", "properties": { "OBJECTID": 442, "Facility ID": "16QDI0", "Facility Name": "MOUNTAIN VIEW SURGICAL SPECIALISTS", "Facility Type Code": 151, "Facility Type": "All Other Factypes", "Map Symbol": "Surgery or Transplant", "Facility Type Detail": "MEDICARE", "Facility Type Abbreviation": "ASC", "Licensed Beds Total": 0, "Telephone": "(303) 606-7115", "County": "DENVER", "Address Full": "5060 S SYRACUSE ST, DENVER, CO 80237", "Latitude": 39.625042, "Longitude": -104.899193, "CDPHE HFEMS Licensed": "Licensed", "Operating Status": "Active", "Date Data Updated": "2025-10-27T07:00:00Z", "Source": "CDPHE Health Facilities and Emergency Medical Services Division", "GlobalID": "4e42c209-8b44-48ef-84ba-3312cb12a8b5", "x": 3169238.707, "y": 1653107.259 }, "geometry": { "type": "Point", "coordinates": [ -104.899193, 39.625042 ] } },
{ "type": "Feature", "properties": { "OBJECTID": 443, "Facility ID": "16QTYP", "Facility Name": "FRESENIUS VASCULAR CARE DENVER ASC LLC", "Facility Type Code": 151, "Facility Type": "All Other Factypes", "Map Symbol": "Surgery or Transplant", "Facility Type Detail": "MEDICARE", "Facility Type Abbreviation": "ASC", "Licensed Beds Total": 0, "Telephone": "(303) 632-2120", "County": "DENVER", "Address Full": "9050 E LOWRY BLVD STE 160, DENVER, CO 80230", "Latitude": 39.724377, "Longitude": -104.882538, "CDPHE HFEMS Licensed": "Licensed", "Operating Status": "Active", "Date Data Updated": "2025-10-27T07:00:00Z", "Source": "CDPHE Health Facilities and Emergency Medical Services Division", "GlobalID": "ffaa9b61-3191-4b97-a630-8b985005629b", "x": 3173684.1, "y": 1689321.698 }, "geometry": { "type": "Point", "coordinates": [ -104.882538, 39.724377 ] } },
{ "type": "Feature", "properties": { "OBJECTID": 444, "Facility ID": "170474", "Facility Name": "DENVER HOSPICE THE", "Facility Type Code": 161, "Facility Type": "All Other Factypes", "Map Symbol": "Hospice", "Facility Type Detail": "MEDICARE", "Facility Type Abbreviation": "HOSPICE", "Licensed Beds Total": 0, "Telephone": "(303) 321-2828", "County": "DENVER", "Address Full": "8289 E LOWRY BLVD, DENVER, CO 80230", "Latitude": 39.71925, "Longitude": -104.892059, "CDPHE HFEMS Licensed": "Licensed", "Operating Status": "Active", "Date Data Updated": "2025-10-27T07:00:00Z", "Source": "CDPHE Health Facilities and Emergency Medical Services Division", "GlobalID": "5beda204-a0a3-40b6-9238-72b57776c91c", "x": 3171018.546, "y": 1687436.083 }, "geometry": { "type": "Point", "coordinates": [ -104.892059, 39.71925 ] } },
{ "type": "Feature", "properties": { "OBJECTID": 445, "Facility ID": "172CKP", "Facility Name": "EVERMORE HOSPICE INC", "Facility Type Code": 161, "Facility Type": "All Other Factypes", "Map Symbol": "Hospice", "Facility Type Detail": "MEDICARE", "Facility Type Abbreviation": "HOSPICE", "Licensed Beds Total": 0, "Telephone": "(888) 815-6222", "County": "DENVER", "Address Full": "7535 E HAMPDEN AVE STE 400 OFFICE 431, DENVER, CO 80231", "Latitude": 39.653275, "Longitude": -104.902466, "CDPHE HFEMS Licensed": "Licensed", "Operating Status": "Active", "Date Data Updated": "2025-10-27T07:00:00Z", "Source": "CDPHE Health Facilities and Emergency Medical Services Division", "GlobalID": "209f9518-9b74-4c5c-adc8-135efc6ba55c", "x": 3168249.136, "y": 1663384.997 }, "geometry": { "type": "Point", "coordinates": [ -104.902466, 39.653275 ] } },
{ "type": "Feature", "properties": { "OBJECTID": 446, "Facility ID": "1757M9", "Facility Name": "PRO CARE HOSPICE INC", "Facility Type Code": 161, "Facility Type": "All Other Factypes", "Map Symbol": "Hospice", "Facility Type Detail": "MEDICARE", "Facility Type Abbreviation": "HOSPICE", "Licensed Beds Total": 0, "Telephone": "(303) 879-1700", "County": "DENVER", "Address Full": "3401 QUEBEC ST STE 8400, DENVER, CO 80207", "Latitude": 39.764992, "Longitude": -104.903511, "CDPHE HFEMS Licensed": "Licensed", "Operating Status": "Active", "Date Data Updated": "2025-10-27T07:00:00Z", "Source": "CDPHE Health Facilities and Emergency Medical Services Division", "GlobalID": "d0e83002-c2d0-4c1d-ad8f-5f201e7c91d3", "x": 3167687.705, "y": 1704076.774 }, "geometry": { "type": "Point", "coordinates": [ -104.903511, 39.764992 ] } },
{ "type": "Feature", "properties": { "OBJECTID": 447, "Facility ID": "175LM9", "Facility Name": "EMMAUS CATHOLIC HOSPICE", "Facility Type Code": 161, "Facility Type": "All Other Factypes", "Map Symbol": "Hospice", "Facility Type Detail": "MEDICARE", "Facility Type Abbreviation": "HOSPICE", "Licensed Beds Total": 0, "Telephone": "(303) 322-1413", "County": "DENVER", "Address Full": "5290 E YALE CIR STE 100, DENVER, CO 80222", "Latitude": 39.66824, "Longitude": -104.927521, "CDPHE HFEMS Licensed": "Licensed", "Operating Status": "Active", "Date Data Updated": "2025-10-27T07:00:00Z", "Source": "CDPHE Health Facilities and Emergency Medical Services Division", "GlobalID": "59b55a66-7c3b-4f67-876c-150bae555f8f", "x": 3161160.199, "y": 1668790.591 }, "geometry": { "type": "Point", "coordinates": [ -104.927521, 39.66824 ] } },
{ "type": "Feature", "properties": { "OBJECTID": 450, "Facility ID": "17E0SV", "Facility Name": "GATEWAY HOSPICE", "Facility Type Code": 161, "Facility Type": "All Other Factypes", "Map Symbol": "Hospice", "Facility Type Detail": "MEDICARE", "Facility Type Abbreviation": "HOSPICE", "Licensed Beds Total": 0, "Telephone": "(303) 747-6377", "County": "DENVER", "Address Full": "2696 S COLORADO BLVD STE 570, DENVER, CO 80222", "Latitude": 39.668644, "Longitude": -104.940544, "CDPHE HFEMS Licensed": "Licensed", "Operating Status": "Active", "Date Data Updated": "2025-10-27T07:00:00Z", "Source": "CDPHE Health Facilities and Emergency Medical Services Division", "GlobalID": "d2f440ac-d27c-4b39-b2d2-353b49649627", "x": 3157493.261, "y": 1668914.909 }, "geometry": { "type": "Point", "coordinates": [ -104.940544, 39.668644 ] } },
{ "type": "Feature", "properties": { "OBJECTID": 453, "Facility ID": "17M591", "Facility Name": "OPTIMAL HOSPICE CARE", "Facility Type Code": 161, "Facility Type": "All Other Factypes", "Map Symbol": "Hospice", "Facility Type Detail": "MEDICARE", "Facility Type Abbreviation": "HOSPICE", "Licensed Beds Total": 0, "Telephone": "(303) 488-9998", "County": "DENVER", "Address Full": "4380 S SYRACUSE ST STE 455, DENVER, CO 80237", "Latitude": 39.636253, "Longitude": -104.899216, "CDPHE HFEMS Licensed": "Licensed", "Operating Status": "Active", "Date Data Updated": "2025-10-27T07:00:00Z", "Source": "CDPHE Health Facilities and Emergency Medical Services Division", "GlobalID": "46a773f7-78fa-49fd-b9ec-d66ffcbe6cad", "x": 3169205.222, "y": 1657190.789 }, "geometry": { "type": "Point", "coordinates": [ -104.899216, 39.636253 ] } },
{ "type": "Feature", "properties": { "OBJECTID": 454, "Facility ID": "17N143", "Facility Name": "BRIGHTON HOSPICE COLORADO, LLC", "Facility Type Code": 161, "Facility Type": "All Other Factypes", "Map Symbol": "Hospice", "Facility Type Detail": "MEDICARE", "Facility Type Abbreviation": "HOSPICE", "Licensed Beds Total": 0, "Telephone": "(720) 536-5060", "County": "DENVER", "Address Full": "8055 E TUFTS AVE STE 700, DENVER, CO 80237", "Latitude": 39.632996, "Longitude": -104.89566, "CDPHE HFEMS Licensed": "Licensed", "Operating Status": "Active", "Date Data Updated": "2025-10-27T07:00:00Z", "Source": "CDPHE Health Facilities and Emergency Medical Services Division", "GlobalID": "73bc4831-4cea-454f-b3de-f0b1351d8983", "x": 3170214.597, "y": 1656011.078 }, "geometry": { "type": "Point", "coordinates": [ -104.89566, 39.632996 ] } },
{ "type": "Feature", "properties": { "OBJECTID": 455, "Facility ID": "17T618", "Facility Name": "AVIANT HOSPICE", "Facility Type Code": 161, "Facility Type": "All Other Factypes", "Map Symbol": "Hospice", "Facility Type Detail": "MEDICARE", "Facility Type Abbreviation": "HOSPICE", "Licensed Beds Total": 0, "Telephone": "(303) 488-9998", "County": "DENVER", "Address Full": "4380 S SYRACUSE ST STE 620, DENVER, CO 80237", "Latitude": 39.636253, "Longitude": -104.899216, "CDPHE HFEMS Licensed": "Licensed", "Operating Status": "Active", "Date Data Updated": "2025-10-27T07:00:00Z", "Source": "CDPHE Health Facilities and Emergency Medical Services Division", "GlobalID": "4c6cbea4-beac-4fe2-9e0b-6843d9a1b017", "x": 3169205.222, "y": 1657190.789 }, "geometry": { "type": "Point", "coordinates": [ -104.899216, 39.636253 ] } },
{ "type": "Feature", "properties": { "OBJECTID": 456, "Facility ID": "17Y386", "Facility Name": "CANYON HOME CARE & HOSPICE", "Facility Type Code": 161, "Facility Type": "All Other Factypes", "Map Symbol": "Hospice", "Facility Type Detail": "MEDICARE", "Facility Type Abbreviation": "HOSPICE", "Licensed Beds Total": 0, "Telephone": "(303) 940-2495", "County": "DENVER", "Address Full": "8055 E TUFTS AVE STE 425, DENVER, CO 80237", "Latitude": 39.632996, "Longitude": -104.89566, "CDPHE HFEMS Licensed": "Licensed", "Operating Status": "Active", "Date Data Updated": "2025-10-27T07:00:00Z", "Source": "CDPHE Health Facilities and Emergency Medical Services Division", "GlobalID": "8f065bdf-ab67-44b1-8a3f-e8815bbeafb7", "x": 3170214.597, "y": 1656011.078 }, "geometry": { "type": "Point", "coordinates": [ -104.89566, 39.632996 ] } }
]
}
