{
"type": "FeatureCollection",
"name": "Mental_Health_and_Wellness",
"crs": { "type": "name", "properties": { "name": "urn:ogc:def:crs:OGC:1.3:CRS84" } },
"features": [
{ "type": "Feature", "properties": { "Global_Site_ID": 124198, "Activity_Category": "Mental Health & Wellness", "Site_Name": "Ashley Elementary School", "Address": "1914 Syracuse St.", "City": "Denver", "State": "CO", "Zip": 80220, "Latitude": 39.74599524, "Longitude": -104.8983496, "Site_IDs": 149778, "Org_IDs": 36964, "Organization": "Maria Droste Counseling Center", "Location_Type": "School (Denver Public Schools)", "DPS_School_Num": 206.0, "Programs": "Children First at Ashley; Children First at Colfax; Children First at DC21; Children First at Dora Moore; Children First at Doull; Children First at HANE; Children First at MMMS", "Program_Count": 7, "Program_Description": "Mental health counselors meet weekly with students during the school day for 30-40 minute therapy sessions. Please contact the school mental health team and/or administrators to get connected with services.; Mental health counselors meet weekly with students during the school day for 30-50 minute therapy sessions. Please contact school mental health team and/or administrators to get connected with services.; Mental health counselors meet weekly with students during the school day for 30-50 minut", "Cost": "Free", "Scholarship_Available": false, "Open_Enrollment": true, "Registration_Process": null, "Registration_URL": null, "Food_Provided": "No", "Transport_Available": false, "Time_Availability": "School Day", "Focus_Areas": "Family Support", "Phone": "720-205-4536", "Email": "heather_rera@mariadroste.org", "Website": "https://mariadroste.org/" }, "geometry": { "type": "Point", "coordinates": [ -104.8983496, 39.74599524 ] } },
{ "type": "Feature", "properties": { "Global_Site_ID": 124293, "Activity_Category": "Mental Health & Wellness", "Site_Name": "DC21 at Wyman High School", "Address": "1690 Williams St.", "City": "Denver", "State": "CO", "Zip": 80218, "Latitude": 39.74287695, "Longitude": -104.9655203, "Site_IDs": 133833, "Org_IDs": 36964, "Organization": "Maria Droste Counseling Center", "Location_Type": "School (Denver Public Schools)", "DPS_School_Num": 610.0, "Programs": "Children First at Ashley; Children First at Colfax; Children First at DC21; Children First at Dora Moore; Children First at Doull; Children First at HANE; Children First at MMMS", "Program_Count": 7, "Program_Description": "Mental health counselors meet weekly with students during the school day for 30-40 minute therapy sessions. Please contact the school mental health team and/or administrators to get connected with services.; Mental health counselors meet weekly with students during the school day for 30-50 minute therapy sessions. Please contact school mental health team and/or administrators to get connected with services.; Mental health counselors meet weekly with students during the school day for 30-50 minut", "Cost": "Free", "Scholarship_Available": false, "Open_Enrollment": true, "Registration_Process": null, "Registration_URL": null, "Food_Provided": "No", "Transport_Available": false, "Time_Availability": "School Day", "Focus_Areas": "Family Support", "Phone": "720-205-4536", "Email": "heather_rera@mariadroste.org", "Website": "https://mariadroste.org/" }, "geometry": { "type": "Point", "coordinates": [ -104.9655203, 39.74287695 ] } },
{ "type": "Feature", "properties": { "Global_Site_ID": 124345, "Activity_Category": "Mental Health & Wellness", "Site_Name": "Doull Elementary School", "Address": "2520 South Utica St.", "City": "Denver", "State": "CO", "Zip": 80219, "Latitude": 39.6731287, "Longitude": -105.0445033, "Site_IDs": 133820, "Org_IDs": 36964, "Organization": "Maria Droste Counseling Center", "Location_Type": "School (Denver Public Schools)", "DPS_School_Num": 227.0, "Programs": "Children First at Ashley; Children First at Colfax; Children First at DC21; Children First at Dora Moore; Children First at Doull; Children First at HANE; Children First at MMMS", "Program_Count": 7, "Program_Description": "Mental health counselors meet weekly with students during the school day for 30-40 minute therapy sessions. Please contact the school mental health team and/or administrators to get connected with services.; Mental health counselors meet weekly with students during the school day for 30-50 minute therapy sessions. Please contact school mental health team and/or administrators to get connected with services.; Mental health counselors meet weekly with students during the school day for 30-50 minut", "Cost": "Free", "Scholarship_Available": false, "Open_Enrollment": true, "Registration_Process": null, "Registration_URL": null, "Food_Provided": "No", "Transport_Available": false, "Time_Availability": "School Day", "Focus_Areas": "Family Support", "Phone": "720-205-4536", "Email": "heather_rera@mariadroste.org", "Website": "https://mariadroste.org/" }, "geometry": { "type": "Point", "coordinates": [ -105.0445033, 39.6731287 ] } },
{ "type": "Feature", "properties": { "Global_Site_ID": 124502, "Activity_Category": "Mental Health & Wellness", "Site_Name": "McAuliffe Manual Middle School", "Address": "2540 Holly St.", "City": "Denver", "State": "CO", "Zip": 80207, "Latitude": 39.75380697, "Longitude": -104.9216281, "Site_IDs": 133825, "Org_IDs": 36964, "Organization": "Maria Droste Counseling Center", "Location_Type": "School (Denver Public Schools)", "DPS_School_Num": 385.0, "Programs": "Children First at Ashley; Children First at Colfax; Children First at DC21; Children First at Dora Moore; Children First at Doull; Children First at HANE; Children First at MMMS", "Program_Count": 7, "Program_Description": "Mental health counselors meet weekly with students during the school day for 30-40 minute therapy sessions. Please contact the school mental health team and/or administrators to get connected with services.; Mental health counselors meet weekly with students during the school day for 30-50 minute therapy sessions. Please contact school mental health team and/or administrators to get connected with services.; Mental health counselors meet weekly with students during the school day for 30-50 minut", "Cost": "Free", "Scholarship_Available": false, "Open_Enrollment": true, "Registration_Process": null, "Registration_URL": null, "Food_Provided": "No", "Transport_Available": false, "Time_Availability": "School Day", "Focus_Areas": "Family Support", "Phone": "720-205-4536", "Email": "heather_rera@mariadroste.org", "Website": "https://mariadroste.org/" }, "geometry": { "type": "Point", "coordinates": [ -104.9216281, 39.75380697 ] } },
{ "type": "Feature", "properties": { "Global_Site_ID": 138530, "Activity_Category": "Mental Health & Wellness", "Site_Name": "All DPS High Schools-Colorado Youth For a Change", "Address": "2490 W 26th Ave", "City": "Denver", "State": "CO", "Zip": 80211, "Latitude": 39.7543103, "Longitude": -105.017391, "Site_IDs": 133557, "Org_IDs": 40042, "Organization": "Move Through Yoga INC", "Location_Type": "Other", "DPS_School_Num": null, "Programs": "Move Through Yoga's  Adaptive Yoga Programming", "Program_Count": 1, "Program_Description": "Accommodating yoga sequences and postures for all intellectual developmental and physical disabilities during and after the school day.", "Cost": "Free", "Scholarship_Available": false, "Open_Enrollment": true, "Registration_Process": "Once a school decides to move forward with Move Through Yoga, and a set calendar has been agreed, we will provide all students who sign up for the program a registration and waiver form to complete online. ", "Registration_URL": null, "Food_Provided": "No", "Transport_Available": false, "Time_Availability": "After School; Before School; By Request; School Day; Summer", "Focus_Areas": "Family Support; Sports & Health", "Phone": "7205048378", "Email": "info@movethroughyoga.org", "Website": "http://www.movethroughyoga.org" }, "geometry": { "type": "Point", "coordinates": [ -105.017391, 39.7543103 ] } },
{ "type": "Feature", "properties": { "Global_Site_ID": 138565, "Activity_Category": "Mental Health & Wellness", "Site_Name": "SOAR Co-Op Office", "Address": "4155 E Jewell Ave", "City": "Denver", "State": "CO", "Zip": 80222, "Latitude": 39.68347771, "Longitude": -104.938523, "Site_IDs": 133008, "Org_IDs": 39057, "Organization": "SOAR - Seeing Our Adolescents Rise", "Location_Type": "Other", "DPS_School_Num": null, "Programs": "AT Group Therapy; Community Mentorship", "Program_Count": 2, "Program_Description": "Adventure Therapy group focuses on building youth's ability to manage challenges in their life and developing resilience through engagment in outdoor activities.; Community mentorship involves connecting SOAR’s youth with a team members to provide positive insight encouragement and inspiration.", "Cost": "Free", "Scholarship_Available": false, "Open_Enrollment": true, "Registration_Process": "All youth are referral based through various entities", "Registration_URL": null, "Food_Provided": "Dinner; Lunch; Yes - Snacks", "Transport_Available": true, "Time_Availability": "After School; Holiday; School Day; Summer", "Focus_Areas": "Academic; Arts; College & Career; Family Support; Outdoor; Service Learning", "Phone": "7206757761", "Email": "info@soarcolorado.org", "Website": "https://www.soarcolorado.org" }, "geometry": { "type": "Point", "coordinates": [ -104.938523, 39.68347771 ] } },
{ "type": "Feature", "properties": { "Global_Site_ID": 139372, "Activity_Category": "Mental Health & Wellness", "Site_Name": "Second Wind Fund", "Address": "303 E. 17th Avenue", "City": "Denver", "State": "CO", "Zip": 80203, "Latitude": 39.74428166, "Longitude": -104.9830561, "Site_IDs": 133452, "Org_IDs": 39671, "Organization": "Second Wind Fund", "Location_Type": "Community", "DPS_School_Num": null, "Programs": "Second Wind Fund", "Program_Count": 1, "Program_Description": "Second Wind Fund pays for 12-20 sessions of therapy for youth 19 years of age and younger at-risk for suicide.", "Cost": "Free", "Scholarship_Available": true, "Open_Enrollment": true, "Registration_Process": "Please submit an online referral form and you will receive a response within 24-48 hours.", "Registration_URL": "https://forms.zohopublic.com/secondwindfund/form/ClientDetails/formperma/Z0_WfyqGuAo-RaKArz5kkf03nENuC6ghMCpd5zMj5pY", "Food_Provided": "No", "Transport_Available": false, "Time_Availability": "By Request", "Focus_Areas": "Family Support", "Phone": "720-962-0706", "Email": "program@thesecondwindfund.org", "Website": "http://.thesecondwindfund.org" }, "geometry": { "type": "Point", "coordinates": [ -104.9830561, 39.74428166 ] } },
{ "type": "Feature", "properties": { "Global_Site_ID": 147895, "Activity_Category": "Mental Health & Wellness", "Site_Name": "Judi's House", "Address": "10125 E 25th Ave,", "City": "Aurora", "State": "CO", "Zip": 80010, "Latitude": 39.75292076, "Longitude": -104.8702697, "Site_IDs": 133905, "Org_IDs": 40188, "Organization": "Judi's House", "Location_Type": "Community", "DPS_School_Num": null, "Programs": "Grief Counseling", "Program_Count": 1, "Program_Description": "Judi's House offers free counseling to grieving children ages 3 to 25 and their adult caregivers.  An initial assessment helps determine the needs of each family member. We offer grief groups as well as individual family couples and play therapy.", "Cost": "Free", "Scholarship_Available": false, "Open_Enrollment": true, "Registration_Process": "Judi’s House provides support to children and families grieving a death. Services are provided in English and Spanish, to youth ages 3 to 25, and their families at no charge. To inquire about services please call 720.941.0331.", "Registration_URL": "https://judishouse.org/contact-us/", "Food_Provided": "Dinner; Yes - Snacks", "Transport_Available": false, "Time_Availability": "After School; By Request; Holiday; School Day; Summer", "Focus_Areas": "Family Support", "Phone": "720.941.0331", "Email": "services@judishouse.org", "Website": "https://judishouse.org/" }, "geometry": { "type": "Point", "coordinates": [ -104.8702697, 39.75292076 ] } },
{ "type": "Feature", "properties": { "Global_Site_ID": 148752, "Activity_Category": "Mental Health & Wellness", "Site_Name": "Premier Lofts", "Address": "2200 Market St", "City": "Denver", "State": "CO", "Zip": 80205, "Latitude": 39.75567126, "Longitude": -104.9905815, "Site_IDs": 134071, "Org_IDs": 40644, "Organization": "MBSB", "Location_Type": "Other", "DPS_School_Num": null, "Programs": "MBSB(Mind Body Spirit Is Your Business)", "Program_Count": 1, "Program_Description": "Mind Body Spirit is Your Business (MBSB) offers training in Basketball Music Acting Teaching and Coaching. We identify professionals who share their personal stories with you inspire you and move you to train and grow with them.", "Cost": "Free and fee-based programs available", "Scholarship_Available": true, "Open_Enrollment": true, "Registration_Process": "After the parent click on the link \"\"https://mbsbnow.com/session-registration/\"\" then they will fill out the form. After they fill out the form they will click the submit button then be directed to pay their fee through PayPal. Then they can checkout as a guest by using their PayPal account. If the Parent check out as guest, they still have to enter their email address. Once the parent pay the fee they and me will receive a confirmation email.", "Registration_URL": "https://mbsbnow.com/session-registration/", "Food_Provided": "Yes - Snacks", "Transport_Available": false, "Time_Availability": "After School; By Request; School Day; Summer", "Focus_Areas": "Academic; Arts; College & Career; Family Support; Leadership; Outdoor; Service Learning; Sports & Health", "Phone": "720-422-7641", "Email": "mbsbcoaching@gmail.com", "Website": "https://mbsbnow.com/" }, "geometry": { "type": "Point", "coordinates": [ -104.9905815, 39.75567126 ] } },
{ "type": "Feature", "properties": { "Global_Site_ID": 154346, "Activity_Category": "Mental Health & Wellness", "Site_Name": "Empowered Living Collective", "Address": "8354 Northfield Blvd Ste 3700", "City": "Denver", "State": "CO", "Zip": 80238, "Latitude": 39.782703, "Longitude": -104.8914591, "Site_IDs": 134351, "Org_IDs": 41636, "Organization": "Empowered Living Collective PLLC", "Location_Type": "Other", "DPS_School_Num": null, "Programs": "Individual Therapy", "Program_Count": 1, "Program_Description": "Offering individual therapy for children teens and adults struggling with a range of issues such as depression anxiety suicidal ideation neurodiversity (Autism and ADHD) family struggles peer relationships self-esteem.", "Cost": "Free and fee-based programs available", "Scholarship_Available": true, "Open_Enrollment": true, "Registration_Process": null, "Registration_URL": null, "Food_Provided": "No", "Transport_Available": false, "Time_Availability": "After School; Before School; By Request; Holiday; School Day; Summer", "Focus_Areas": "Family Support", "Phone": "7202488633", "Email": "admin@empoweredlivingcollective.com", "Website": "https://www.empoweredlivingcollective.com" }, "geometry": { "type": "Point", "coordinates": [ -104.8914591, 39.782703 ] } },
{ "type": "Feature", "properties": { "Global_Site_ID": 157845, "Activity_Category": "Mental Health & Wellness", "Site_Name": "Adoption Options", "Address": "1355 S Colorado Blvd. Suite 501", "City": "Denver", "State": "CO", "Zip": 80222, "Latitude": 39.70875079, "Longitude": -104.962544, "Site_IDs": 149913, "Org_IDs": 42248, "Organization": "Fostering Healthy Futures (University of Colorado)", "Location_Type": "Other", "DPS_School_Num": null, "Programs": "Fostering Healthy Futures  (FHF) for Preteens; Fostering Healthy Futures (FHF) for Teens", "Program_Count": 2, "Program_Description": "FHF for Preteens is a positive youth development program that uses mentoring and skills training to empower youth to foster their own healthy futures.; FHF for Teens is a positive youth development program that uses mentoring and skills training to empower youth to foster their own healthy futures.", "Cost": "Free", "Scholarship_Available": false, "Open_Enrollment": true, "Registration_Process": "Please email: referrals@fhfreferrals.org", "Registration_URL": null, "Food_Provided": "Dinner; Yes - Snacks", "Transport_Available": true, "Time_Availability": "After School", "Focus_Areas": "Leadership", "Phone": "303-695-1601", "Email": "referrals@fhfreferrals.org", "Website": "https://www.fosteringhealthyfutures.org" }, "geometry": { "type": "Point", "coordinates": [ -104.962544, 39.70875079 ] } }
]
}
