{
"type": "FeatureCollection",
"name": "Other_Courts_and_Recreation",
"crs": { "type": "name", "properties": { "name": "urn:ogc:def:crs:OGC:1.3:CRS84" } },
"features": [
{ "type": "Feature", "properties": { "OBJECTID": 161, "FEATURE": "Sand Volleyball Court", "LOCATION": "Thomas", "LOC_CODE": "L16", "COURT_NUM": null, "LIGHTS": "No", "SURFACE_TYPE": "Sand", "YEAR_BUILT": "2011", "YEAR_RESURF": "Use Year Built Field for Latest Rehab", "GLOBALID": "d4c387ce-59e6-4533-9fec-ae6da77db43b", "ASSET_CLASS": "COURT", "CLASS_CATEGORY": "CT-SV", "GIS_ASSET_ID": 20324, "INFOR_ASSET_ID": "112385" }, "geometry": { "type": "Point", "coordinates": [ -104.902376523312711, 39.754317144820746 ] } },
{ "type": "Feature", "properties": { "OBJECTID": 167, "FEATURE": "Futsol Court", "LOCATION": "Garfield Lake Park", "LOC_CODE": "807", "COURT_NUM": "2", "LIGHTS": null, "SURFACE_TYPE": "Plastic Tiles", "YEAR_BUILT": "2012", "YEAR_RESURF": "Use Year Built Field for Latest Rehab", "GLOBALID": "ae1e004f-8b9a-4071-97b1-f77e68208524", "ASSET_CLASS": "COURT", "CLASS_CATEGORY": "CT-FUTSOL", "GIS_ASSET_ID": 20113, "INFOR_ASSET_ID": "111641" }, "geometry": { "type": "Point", "coordinates": [ -105.035474135535296, 39.6948268691648 ] } },
{ "type": "Feature", "properties": { "OBJECTID": 303, "FEATURE": "Handball Court", "LOCATION": "City Park", "LOC_CODE": "201", "COURT_NUM": null, "LIGHTS": null, "SURFACE_TYPE": "Natural Surface", "YEAR_BUILT": null, "YEAR_RESURF": "Use Year Built Field for Latest Rehab", "GLOBALID": "40b60a31-9595-44ed-8396-026961aa53da", "ASSET_CLASS": "COURT", "CLASS_CATEGORY": "CT-HAND", "GIS_ASSET_ID": 20032, "INFOR_ASSET_ID": "111769" }, "geometry": { "type": "Point", "coordinates": [ -104.956355253664597, 39.749744035446277 ] } },
{ "type": "Feature", "properties": { "OBJECTID": 304, "FEATURE": "Handball Court", "LOCATION": "City Park", "LOC_CODE": "201", "COURT_NUM": null, "LIGHTS": null, "SURFACE_TYPE": "Natural Surface", "YEAR_BUILT": null, "YEAR_RESURF": "Use Year Built Field for Latest Rehab", "GLOBALID": "049c79c3-9c7f-4d32-a974-738a9f07b323", "ASSET_CLASS": "COURT", "CLASS_CATEGORY": "CT-HAND", "GIS_ASSET_ID": 20210, "INFOR_ASSET_ID": "111862" }, "geometry": { "type": "Point", "coordinates": [ -104.956239555157694, 39.749745503224503 ] } },
{ "type": "Feature", "properties": { "OBJECTID": 305, "FEATURE": "Handball Court", "LOCATION": "City Park", "LOC_CODE": "201", "COURT_NUM": null, "LIGHTS": null, "SURFACE_TYPE": "Natural Surface", "YEAR_BUILT": null, "YEAR_RESURF": "Use Year Built Field for Latest Rehab", "GLOBALID": "81eae16a-9d44-47cd-81a6-b59575e479e4", "ASSET_CLASS": "COURT", "CLASS_CATEGORY": "CT-HAND", "GIS_ASSET_ID": 20246, "INFOR_ASSET_ID": "111874" }, "geometry": { "type": "Point", "coordinates": [ -104.956352437054605, 39.749635289060876 ] } },
{ "type": "Feature", "properties": { "OBJECTID": 306, "FEATURE": "Handball Court", "LOCATION": "City Park", "LOC_CODE": "201", "COURT_NUM": null, "LIGHTS": null, "SURFACE_TYPE": "Natural Surface", "YEAR_BUILT": null, "YEAR_RESURF": "Use Year Built Field for Latest Rehab", "GLOBALID": "d5d7b817-465b-4578-80d7-ba97c27620c4", "ASSET_CLASS": "COURT", "CLASS_CATEGORY": "CT-HAND", "GIS_ASSET_ID": 20126, "INFOR_ASSET_ID": "111816" }, "geometry": { "type": "Point", "coordinates": [ -104.95623625007228, 39.749636406567049 ] } },
{ "type": "Feature", "properties": { "OBJECTID": 307, "FEATURE": "Lawn Bowling", "LOCATION": "Washington Park", "LOC_CODE": "711", "COURT_NUM": null, "LIGHTS": null, "SURFACE_TYPE": "Turf", "YEAR_BUILT": null, "YEAR_RESURF": "Use Year Built Field for Latest Rehab", "GLOBALID": "f47d766e-320f-4834-aa48-22b3c1a4b5bb", "ASSET_CLASS": "COURT", "CLASS_CATEGORY": "CT-BOWL", "GIS_ASSET_ID": 20359, "INFOR_ASSET_ID": null }, "geometry": { "type": "Point", "coordinates": [ -104.970359494771429, 39.696677212499047 ] } },
{ "type": "Feature", "properties": { "OBJECTID": 308, "FEATURE": "Bocce Ball Court", "LOCATION": "City of Potenza park", "LOC_CODE": "762", "COURT_NUM": null, "LIGHTS": null, "SURFACE_TYPE": "Crusher Fines", "YEAR_BUILT": null, "YEAR_RESURF": "Use Year Built Field for Latest Rehab", "GLOBALID": "b6b0fa20-b68e-425b-ad7f-c75837245796", "ASSET_CLASS": "COURT", "CLASS_CATEGORY": "CT-BOCCE", "GIS_ASSET_ID": 20127, "INFOR_ASSET_ID": "111817" }, "geometry": { "type": "Point", "coordinates": [ -104.923735268960186, 39.695791497237153 ] } },
{ "type": "Feature", "properties": { "OBJECTID": 309, "FEATURE": "Bocce Ball Court", "LOCATION": "City of Potenza park", "LOC_CODE": "762", "COURT_NUM": null, "LIGHTS": null, "SURFACE_TYPE": "Crusher Fines", "YEAR_BUILT": null, "YEAR_RESURF": "Use Year Built Field for Latest Rehab", "GLOBALID": "5c548dc0-0bd7-4987-bfa9-56b98a878b13", "ASSET_CLASS": "COURT", "CLASS_CATEGORY": "CT-BOCCE", "GIS_ASSET_ID": 20033, "INFOR_ASSET_ID": "111770" }, "geometry": { "type": "Point", "coordinates": [ -104.923719156091707, 39.695821817426001 ] } },
{ "type": "Feature", "properties": { "OBJECTID": 310, "FEATURE": "Horseshoe Pit", "LOCATION": "Bate & Hobart", "LOC_CODE": "142", "COURT_NUM": null, "LIGHTS": null, "SURFACE_TYPE": "Natural Surface", "YEAR_BUILT": null, "YEAR_RESURF": "Use Year Built Field for Latest Rehab", "GLOBALID": "5c9f95b1-a478-49be-98b4-7b62eed0b212", "ASSET_CLASS": "COURT", "CLASS_CATEGORY": "CT-HORSE", "GIS_ASSET_ID": 20034, "INFOR_ASSET_ID": "111771" }, "geometry": { "type": "Point", "coordinates": [ -105.061212526290745, 39.661732107676769 ] } },
{ "type": "Feature", "properties": { "OBJECTID": 311, "FEATURE": "Horseshoe Pit", "LOCATION": "Bate & Hobart", "LOC_CODE": "142", "COURT_NUM": null, "LIGHTS": null, "SURFACE_TYPE": "Natural Surface", "YEAR_BUILT": null, "YEAR_RESURF": "Use Year Built Field for Latest Rehab", "GLOBALID": "5768a11b-eda1-461b-bcd0-130474020844", "ASSET_CLASS": "COURT", "CLASS_CATEGORY": "CT-HORSE", "GIS_ASSET_ID": 20035, "INFOR_ASSET_ID": "111772" }, "geometry": { "type": "Point", "coordinates": [ -105.061212406675367, 39.661751248476683 ] } },
{ "type": "Feature", "properties": { "OBJECTID": 312, "FEATURE": "Horseshoe Pit", "LOCATION": "Denison Park", "LOC_CODE": "458", "COURT_NUM": null, "LIGHTS": null, "SURFACE_TYPE": "Natural Surface", "YEAR_BUILT": null, "YEAR_RESURF": "Use Year Built Field for Latest Rehab", "GLOBALID": "fe8d59eb-ac21-4dc0-b844-cbbe6f7aaa1a", "ASSET_CLASS": "COURT", "CLASS_CATEGORY": "CT-HORSE", "GIS_ASSET_ID": 20247, "INFOR_ASSET_ID": "111875" }, "geometry": { "type": "Point", "coordinates": [ -104.904096109343072, 39.733113895819955 ] } },
{ "type": "Feature", "properties": { "OBJECTID": 313, "FEATURE": "Horseshoe Pit", "LOCATION": "Eisenhower Park", "LOC_CODE": "630", "COURT_NUM": null, "LIGHTS": null, "SURFACE_TYPE": "Natural Surface", "YEAR_BUILT": null, "YEAR_RESURF": "Use Year Built Field for Latest Rehab", "GLOBALID": "f5f5104e-80f7-4b56-ba35-625c4e6d33fa", "ASSET_CLASS": "COURT", "CLASS_CATEGORY": "CT-HORSE", "GIS_ASSET_ID": 20248, "INFOR_ASSET_ID": "111876" }, "geometry": { "type": "Point", "coordinates": [ -104.936373949312312, 39.659070216334833 ] } },
{ "type": "Feature", "properties": { "OBJECTID": 314, "FEATURE": "Horseshoe Pit", "LOCATION": "Harvey Park", "LOC_CODE": "130", "COURT_NUM": null, "LIGHTS": null, "SURFACE_TYPE": "Natural Surface", "YEAR_BUILT": null, "YEAR_RESURF": "Use Year Built Field for Latest Rehab", "GLOBALID": "59e41305-1f08-482a-8876-20d54b43dacc", "ASSET_CLASS": "COURT", "CLASS_CATEGORY": "CT-HORSE", "GIS_ASSET_ID": 20128, "INFOR_ASSET_ID": "111818" }, "geometry": { "type": "Point", "coordinates": [ -105.042655195901702, 39.678969838518164 ] } },
{ "type": "Feature", "properties": { "OBJECTID": 315, "FEATURE": "Horseshoe Pit", "LOCATION": "Harvey Park", "LOC_CODE": "130", "COURT_NUM": null, "LIGHTS": null, "SURFACE_TYPE": "Natural Surface", "YEAR_BUILT": null, "YEAR_RESURF": "Use Year Built Field for Latest Rehab", "GLOBALID": "8ba61da2-8137-425a-837f-b7367f39dbdd", "ASSET_CLASS": "COURT", "CLASS_CATEGORY": "CT-HORSE", "GIS_ASSET_ID": 20096, "INFOR_ASSET_ID": "111802" }, "geometry": { "type": "Point", "coordinates": [ -105.042668280202477, 39.678994918077237 ] } },
{ "type": "Feature", "properties": { "OBJECTID": 316, "FEATURE": "Horseshoe Pit", "LOCATION": "Highland Senior Center", "LOC_CODE": "034", "COURT_NUM": null, "LIGHTS": null, "SURFACE_TYPE": "Natural Surface", "YEAR_BUILT": null, "YEAR_RESURF": "Use Year Built Field for Latest Rehab", "GLOBALID": "ca9dd274-0aa9-4b7c-bfcb-80218f264ecb", "ASSET_CLASS": "COURT", "CLASS_CATEGORY": "CT-HORSE", "GIS_ASSET_ID": 20063, "INFOR_ASSET_ID": "111786" }, "geometry": { "type": "Point", "coordinates": [ -105.036841549406816, 39.758320508297352 ] } },
{ "type": "Feature", "properties": { "OBJECTID": 317, "FEATURE": "Horseshoe Pit", "LOCATION": "Highland Senior Center", "LOC_CODE": "034", "COURT_NUM": null, "LIGHTS": null, "SURFACE_TYPE": "Natural Surface", "YEAR_BUILT": null, "YEAR_RESURF": "Use Year Built Field for Latest Rehab", "GLOBALID": "112e00bd-3cf5-4c77-b05b-87d8120a16c9", "ASSET_CLASS": "COURT", "CLASS_CATEGORY": "CT-HORSE", "GIS_ASSET_ID": 20249, "INFOR_ASSET_ID": "111877" }, "geometry": { "type": "Point", "coordinates": [ -105.036877465501675, 39.758308381704992 ] } },
{ "type": "Feature", "properties": { "OBJECTID": 318, "FEATURE": "Horseshoe Pit", "LOCATION": "Lindsley (Henry S) Park", "LOC_CODE": "401", "COURT_NUM": null, "LIGHTS": null, "SURFACE_TYPE": "Natural Surface", "YEAR_BUILT": null, "YEAR_RESURF": "Use Year Built Field for Latest Rehab", "GLOBALID": "3340c189-3425-4d3f-89f5-d4f73d1c1dd3", "ASSET_CLASS": "COURT", "CLASS_CATEGORY": "CT-HORSE", "GIS_ASSET_ID": 20290, "INFOR_ASSET_ID": "111834" }, "geometry": { "type": "Point", "coordinates": [ -104.933230491079811, 39.734248897880143 ] } },
{ "type": "Feature", "properties": { "OBJECTID": 320, "FEATURE": "Horseshoe Pit", "LOCATION": "Montclair Park", "LOC_CODE": "408", "COURT_NUM": null, "LIGHTS": null, "SURFACE_TYPE": "Crusher Fines", "YEAR_BUILT": "2021", "YEAR_RESURF": "Use Year Built Field for Latest Rehab", "GLOBALID": "c2746086-70ba-44fd-a18f-ae46f98f5e49", "ASSET_CLASS": "COURT", "CLASS_CATEGORY": "CT-HORSE", "GIS_ASSET_ID": 20314, "INFOR_ASSET_ID": "111878" }, "geometry": { "type": "Point", "coordinates": [ -104.909123816438608, 39.735087913673546 ] } },
{ "type": "Feature", "properties": { "OBJECTID": 321, "FEATURE": "Horseshoe Pit", "LOCATION": "Pinecrest Village Park", "LOC_CODE": "161", "COURT_NUM": null, "LIGHTS": null, "SURFACE_TYPE": "Natural Surface", "YEAR_BUILT": null, "YEAR_RESURF": "Use Year Built Field for Latest Rehab", "GLOBALID": "5561f591-9bb0-4130-9e65-9d090b151709", "ASSET_CLASS": "COURT", "CLASS_CATEGORY": "CT-HORSE", "GIS_ASSET_ID": 20250, "INFOR_ASSET_ID": "111773" }, "geometry": { "type": "Point", "coordinates": [ -105.054782019133711, 39.646178603061514 ] } },
{ "type": "Feature", "properties": { "OBJECTID": 322, "FEATURE": "Horseshoe Pit", "LOCATION": "Pinecrest Village Park", "LOC_CODE": "161", "COURT_NUM": null, "LIGHTS": null, "SURFACE_TYPE": "Natural Surface", "YEAR_BUILT": null, "YEAR_RESURF": "Use Year Built Field for Latest Rehab", "GLOBALID": "84194dee-428e-4a02-8dcc-b16c5ee92cfa", "ASSET_CLASS": "COURT", "CLASS_CATEGORY": "CT-HORSE", "GIS_ASSET_ID": 20301, "INFOR_ASSET_ID": "111850" }, "geometry": { "type": "Point", "coordinates": [ -105.054779469502208, 39.646206285371143 ] } },
{ "type": "Feature", "properties": { "OBJECTID": 323, "FEATURE": "Horseshoe Pit", "LOCATION": "Rocky Mountain Lake Park", "LOC_CODE": "007", "COURT_NUM": null, "LIGHTS": null, "SURFACE_TYPE": "Natural Surface", "YEAR_BUILT": "2026", "YEAR_RESURF": "Use Year Built Field for Latest Rehab", "GLOBALID": "f38e744a-9aef-4a12-9a55-c25730b959cf", "ASSET_CLASS": "COURT", "CLASS_CATEGORY": "CT-HORSE", "GIS_ASSET_ID": 20302, "INFOR_ASSET_ID": "111851" }, "geometry": { "type": "Point", "coordinates": [ -105.031914868541392, 39.780908258042942 ] } },
{ "type": "Feature", "properties": { "OBJECTID": 324, "FEATURE": "Horseshoe Pit", "LOCATION": "Rocky Mountain Lake Park", "LOC_CODE": "007", "COURT_NUM": null, "LIGHTS": null, "SURFACE_TYPE": "Natural Surface", "YEAR_BUILT": "2026", "YEAR_RESURF": "Use Year Built Field for Latest Rehab", "GLOBALID": "78519077-1393-47a3-8e79-0069ff9796af", "ASSET_CLASS": "COURT", "CLASS_CATEGORY": "CT-HORSE", "GIS_ASSET_ID": 20315, "INFOR_ASSET_ID": "111879" }, "geometry": { "type": "Point", "coordinates": [ -105.032370861109129, 39.780913751703196 ] } },
{ "type": "Feature", "properties": { "OBJECTID": 325, "FEATURE": "Horseshoe Pit", "LOCATION": "Rocky Mountain Lake Park", "LOC_CODE": "007", "COURT_NUM": null, "LIGHTS": null, "SURFACE_TYPE": "Natural Surface", "YEAR_BUILT": "2026", "YEAR_RESURF": "Use Year Built Field for Latest Rehab", "GLOBALID": "eaf9c5dd-e74a-4f0e-9473-b67b2befbf29", "ASSET_CLASS": "COURT", "CLASS_CATEGORY": "CT-HORSE", "GIS_ASSET_ID": 20251, "INFOR_ASSET_ID": "111774" }, "geometry": { "type": "Point", "coordinates": [ -105.032332619175037, 39.780912294855298 ] } },
{ "type": "Feature", "properties": { "OBJECTID": 326, "FEATURE": "Horseshoe Pit", "LOCATION": "Rocky Mountain Lake Park", "LOC_CODE": "007", "COURT_NUM": null, "LIGHTS": null, "SURFACE_TYPE": "Natural Surface", "YEAR_BUILT": "2026", "YEAR_RESURF": "Use Year Built Field for Latest Rehab", "GLOBALID": "b8a15f91-3ea4-4834-9a65-fa74e7ab6285", "ASSET_CLASS": "COURT", "CLASS_CATEGORY": "CT-HORSE", "GIS_ASSET_ID": 20275, "INFOR_ASSET_ID": "111819" }, "geometry": { "type": "Point", "coordinates": [ -105.032293450368741, 39.780913066442153 ] } },
{ "type": "Feature", "properties": { "OBJECTID": 327, "FEATURE": "Horseshoe Pit", "LOCATION": "Rocky Mountain Lake Park", "LOC_CODE": "007", "COURT_NUM": null, "LIGHTS": null, "SURFACE_TYPE": "Natural Surface", "YEAR_BUILT": "2026", "YEAR_RESURF": "Use Year Built Field for Latest Rehab", "GLOBALID": "7a677961-8f08-4d0e-9a13-9dced7283f24", "ASSET_CLASS": "COURT", "CLASS_CATEGORY": "CT-HORSE", "GIS_ASSET_ID": 20259, "INFOR_ASSET_ID": "111787" }, "geometry": { "type": "Point", "coordinates": [ -105.032251726593231, 39.780910698541653 ] } },
{ "type": "Feature", "properties": { "OBJECTID": 328, "FEATURE": "Horseshoe Pit", "LOCATION": "Rocky Mountain Lake Park", "LOC_CODE": "007", "COURT_NUM": null, "LIGHTS": null, "SURFACE_TYPE": "Natural Surface", "YEAR_BUILT": "2026", "YEAR_RESURF": "Use Year Built Field for Latest Rehab", "GLOBALID": "93dcc570-e106-403b-9a3e-144996ae31d3", "ASSET_CLASS": "COURT", "CLASS_CATEGORY": "CT-HORSE", "GIS_ASSET_ID": 20291, "INFOR_ASSET_ID": "111835" }, "geometry": { "type": "Point", "coordinates": [ -105.03221102323738, 39.780911237563224 ] } },
{ "type": "Feature", "properties": { "OBJECTID": 329, "FEATURE": "Horseshoe Pit", "LOCATION": "Rocky Mountain Lake Park", "LOC_CODE": "007", "COURT_NUM": null, "LIGHTS": null, "SURFACE_TYPE": "Natural Surface", "YEAR_BUILT": "2026", "YEAR_RESURF": "Use Year Built Field for Latest Rehab", "GLOBALID": "216672c4-6d5c-44e1-84ae-af6cf51a850f", "ASSET_CLASS": "COURT", "CLASS_CATEGORY": "CT-HORSE", "GIS_ASSET_ID": 20276, "INFOR_ASSET_ID": "111820" }, "geometry": { "type": "Point", "coordinates": [ -105.032170440827699, 39.780910990380434 ] } },
{ "type": "Feature", "properties": { "OBJECTID": 330, "FEATURE": "Horseshoe Pit", "LOCATION": "Rocky Mountain Lake Park", "LOC_CODE": "007", "COURT_NUM": null, "LIGHTS": null, "SURFACE_TYPE": "Natural Surface", "YEAR_BUILT": "2026", "YEAR_RESURF": "Use Year Built Field for Latest Rehab", "GLOBALID": "e95d4fd6-4f75-4961-a570-8fff4c2c8f25", "ASSET_CLASS": "COURT", "CLASS_CATEGORY": "CT-HORSE", "GIS_ASSET_ID": 20260, "INFOR_ASSET_ID": "111788" }, "geometry": { "type": "Point", "coordinates": [ -105.03212960538994, 39.780910603824466 ] } },
{ "type": "Feature", "properties": { "OBJECTID": 331, "FEATURE": "Horseshoe Pit", "LOCATION": "Rocky Mountain Lake Park", "LOC_CODE": "007", "COURT_NUM": null, "LIGHTS": null, "SURFACE_TYPE": "Natural Surface", "YEAR_BUILT": "2026", "YEAR_RESURF": "Use Year Built Field for Latest Rehab", "GLOBALID": "6d02ea4f-a985-4d4e-aa40-ed1e61818fe8", "ASSET_CLASS": "COURT", "CLASS_CATEGORY": "CT-HORSE", "GIS_ASSET_ID": 20277, "INFOR_ASSET_ID": "111647" }, "geometry": { "type": "Point", "coordinates": [ -105.032090010793837, 39.780909911505539 ] } },
{ "type": "Feature", "properties": { "OBJECTID": 332, "FEATURE": "Horseshoe Pit", "LOCATION": "Rocky Mountain Lake Park", "LOC_CODE": "007", "COURT_NUM": null, "LIGHTS": null, "SURFACE_TYPE": "Natural Surface", "YEAR_BUILT": "2026", "YEAR_RESURF": "Use Year Built Field for Latest Rehab", "GLOBALID": "3e2c7c4e-78c6-4f5d-b08d-311f4a6b7b0c", "ASSET_CLASS": "COURT", "CLASS_CATEGORY": "CT-HORSE", "GIS_ASSET_ID": 20312, "INFOR_ASSET_ID": "111721" }, "geometry": { "type": "Point", "coordinates": [ -105.032046603833393, 39.780909652809349 ] } },
{ "type": "Feature", "properties": { "OBJECTID": 333, "FEATURE": "Horseshoe Pit", "LOCATION": "Rocky Mountain Lake Park", "LOC_CODE": "007", "COURT_NUM": null, "LIGHTS": null, "SURFACE_TYPE": "Natural Surface", "YEAR_BUILT": "2026", "YEAR_RESURF": "Use Year Built Field for Latest Rehab", "GLOBALID": "51b5bf86-9c51-4981-a707-616931b73509", "ASSET_CLASS": "COURT", "CLASS_CATEGORY": "CT-HORSE", "GIS_ASSET_ID": 20303, "INFOR_ASSET_ID": "111694" }, "geometry": { "type": "Point", "coordinates": [ -105.032001559364829, 39.780908730296844 ] } },
{ "type": "Feature", "properties": { "OBJECTID": 334, "FEATURE": "Horseshoe Pit", "LOCATION": "Rocky Mountain Lake Park", "LOC_CODE": "007", "COURT_NUM": null, "LIGHTS": null, "SURFACE_TYPE": "Natural Surface", "YEAR_BUILT": "2026", "YEAR_RESURF": "Use Year Built Field for Latest Rehab", "GLOBALID": "353254f4-2551-4cbb-9c16-d19c02526bd3", "ASSET_CLASS": "COURT", "CLASS_CATEGORY": "CT-HORSE", "GIS_ASSET_ID": 20313, "INFOR_ASSET_ID": "111722" }, "geometry": { "type": "Point", "coordinates": [ -105.031957764606119, 39.780908047335004 ] } },
{ "type": "Feature", "properties": { "OBJECTID": 336, "FEATURE": "Horseshoe Pit", "LOCATION": "Russell Square Park", "LOC_CODE": "206", "COURT_NUM": null, "LIGHTS": null, "SURFACE_TYPE": "Crusher Fines", "YEAR_BUILT": "2022", "YEAR_RESURF": "Use Year Built Field for Latest Rehab", "GLOBALID": "71410bd6-b957-41b0-a6e0-eb4769501eb8", "ASSET_CLASS": "COURT", "CLASS_CATEGORY": "CT-HORSE", "GIS_ASSET_ID": 20292, "INFOR_ASSET_ID": "111670" }, "geometry": { "type": "Point", "coordinates": [ -104.961166298727932, 39.767428490595137 ] } },
{ "type": "Feature", "properties": { "OBJECTID": 337, "FEATURE": "Horseshoe Pit", "LOCATION": "Athmar Park", "LOC_CODE": "802", "COURT_NUM": null, "LIGHTS": null, "SURFACE_TYPE": "Natural Surface", "YEAR_BUILT": null, "YEAR_RESURF": "Use Year Built Field for Latest Rehab", "GLOBALID": "cce22a74-e1c6-4347-ac46-1cde9fa5f4df", "ASSET_CLASS": "COURT", "CLASS_CATEGORY": "CT-HORSE", "GIS_ASSET_ID": 20253, "INFOR_ASSET_ID": "111576" }, "geometry": { "type": "Point", "coordinates": [ -105.019772132008057, 39.6852700333379 ] } },
{ "type": "Feature", "properties": { "OBJECTID": 338, "FEATURE": "Horseshoe Pit", "LOCATION": "Athmar Park", "LOC_CODE": "802", "COURT_NUM": null, "LIGHTS": null, "SURFACE_TYPE": "Natural Surface", "YEAR_BUILT": null, "YEAR_RESURF": "Use Year Built Field for Latest Rehab", "GLOBALID": "53d40334-6e3d-475b-a4da-90181479a94d", "ASSET_CLASS": "COURT", "CLASS_CATEGORY": "CT-HORSE", "GIS_ASSET_ID": 20316, "INFOR_ASSET_ID": "111748" }, "geometry": { "type": "Point", "coordinates": [ -105.019770762849248, 39.685244368308439 ] } },
{ "type": "Feature", "properties": { "OBJECTID": 345, "FEATURE": "Horseshoe Pit", "LOCATION": "Bear Creek Park", "LOC_CODE": "139", "COURT_NUM": null, "LIGHTS": null, "SURFACE_TYPE": "Natural Surface", "YEAR_BUILT": null, "YEAR_RESURF": "Use Year Built Field for Latest Rehab", "GLOBALID": "307b48b2-43bf-44af-a13f-99326c35faf5", "ASSET_CLASS": "COURT", "CLASS_CATEGORY": "CT-HORSE", "GIS_ASSET_ID": 20318, "INFOR_ASSET_ID": "111750" }, "geometry": { "type": "Point", "coordinates": [ -105.045071081529414, 39.652691268274104 ] } },
{ "type": "Feature", "properties": { "OBJECTID": 347, "FEATURE": "Horseshoe Pit", "LOCATION": "City Park", "LOC_CODE": "201", "COURT_NUM": null, "LIGHTS": null, "SURFACE_TYPE": "Natural Surface", "YEAR_BUILT": null, "YEAR_RESURF": "Use Year Built Field for Latest Rehab", "GLOBALID": "90038f19-228b-46d8-a513-1c377f63b821", "ASSET_CLASS": "COURT", "CLASS_CATEGORY": "CT-HORSE", "GIS_ASSET_ID": 20278, "INFOR_ASSET_ID": "111648" }, "geometry": { "type": "Point", "coordinates": [ -104.957524891962095, 39.748416316452996 ] } },
{ "type": "Feature", "properties": { "OBJECTID": 349, "FEATURE": "Horseshoe Pit", "LOCATION": "City Park", "LOC_CODE": "201", "COURT_NUM": null, "LIGHTS": null, "SURFACE_TYPE": "Natural Surface", "YEAR_BUILT": null, "YEAR_RESURF": "Use Year Built Field for Latest Rehab", "GLOBALID": "bfa37a64-2b02-495c-8c57-7b49750f4921", "ASSET_CLASS": "COURT", "CLASS_CATEGORY": "CT-HORSE", "GIS_ASSET_ID": 20279, "INFOR_ASSET_ID": "111649" }, "geometry": { "type": "Point", "coordinates": [ -104.957471521487861, 39.74841734427963 ] } },
{ "type": "Feature", "properties": { "OBJECTID": 350, "FEATURE": "Horseshoe Pit", "LOCATION": "City Park", "LOC_CODE": "201", "COURT_NUM": null, "LIGHTS": null, "SURFACE_TYPE": "Natural Surface", "YEAR_BUILT": null, "YEAR_RESURF": "Use Year Built Field for Latest Rehab", "GLOBALID": "231109c9-e27a-49ba-8272-64e51a509fee", "ASSET_CLASS": "COURT", "CLASS_CATEGORY": "CT-HORSE", "GIS_ASSET_ID": 20296, "INFOR_ASSET_ID": "111674" }, "geometry": { "type": "Point", "coordinates": [ -104.957417842471187, 39.748418269326415 ] } },
{ "type": "Feature", "properties": { "OBJECTID": 352, "FEATURE": "Horseshoe Pit", "LOCATION": "City Park", "LOC_CODE": "201", "COURT_NUM": null, "LIGHTS": null, "SURFACE_TYPE": "Natural Surface", "YEAR_BUILT": null, "YEAR_RESURF": "Use Year Built Field for Latest Rehab", "GLOBALID": "26681191-38f1-49f7-87a3-97b4085cfd9b", "ASSET_CLASS": "COURT", "CLASS_CATEGORY": "CT-HORSE", "GIS_ASSET_ID": 20297, "INFOR_ASSET_ID": "111675" }, "geometry": { "type": "Point", "coordinates": [ -104.957364879722078, 39.74841848479771 ] } },
{ "type": "Feature", "properties": { "OBJECTID": 353, "FEATURE": "Horseshoe Pit", "LOCATION": "City Park", "LOC_CODE": "201", "COURT_NUM": null, "LIGHTS": null, "SURFACE_TYPE": "Natural Surface", "YEAR_BUILT": null, "YEAR_RESURF": "Use Year Built Field for Latest Rehab", "GLOBALID": "992c6d7c-6929-44a1-9241-ea89738c58e9", "ASSET_CLASS": "COURT", "CLASS_CATEGORY": "CT-HORSE", "GIS_ASSET_ID": 20261, "INFOR_ASSET_ID": "111598" }, "geometry": { "type": "Point", "coordinates": [ -104.95731227361324, 39.748420967638687 ] } },
{ "type": "Feature", "properties": { "OBJECTID": 354, "FEATURE": "Horseshoe Pit", "LOCATION": "Huston Lake Park", "LOC_CODE": "811", "COURT_NUM": null, "LIGHTS": null, "SURFACE_TYPE": "Natural Surface", "YEAR_BUILT": null, "YEAR_RESURF": "Use Year Built Field for Latest Rehab", "GLOBALID": "77109c0a-4e17-4213-830b-0d91fd4721c7", "ASSET_CLASS": "COURT", "CLASS_CATEGORY": "CT-HORSE", "GIS_ASSET_ID": 20280, "INFOR_ASSET_ID": "111650" }, "geometry": { "type": "Point", "coordinates": [ -105.017129059624608, 39.70076145522799 ] } },
{ "type": "Feature", "properties": { "OBJECTID": 355, "FEATURE": "Horseshoe Pit", "LOCATION": "Huston Lake Park", "LOC_CODE": "811", "COURT_NUM": null, "LIGHTS": null, "SURFACE_TYPE": "Natural Surface", "YEAR_BUILT": null, "YEAR_RESURF": "Use Year Built Field for Latest Rehab", "GLOBALID": "87626841-9f85-4f51-8c48-d068b7b4038e", "ASSET_CLASS": "COURT", "CLASS_CATEGORY": "CT-HORSE", "GIS_ASSET_ID": 20254, "INFOR_ASSET_ID": "111577" }, "geometry": { "type": "Point", "coordinates": [ -105.017085722763099, 39.700760320602448 ] } },
{ "type": "Feature", "properties": { "OBJECTID": 356, "FEATURE": "Horseshoe Pit", "LOCATION": "Huston Lake Park", "LOC_CODE": "811", "COURT_NUM": null, "LIGHTS": null, "SURFACE_TYPE": "Natural Surface", "YEAR_BUILT": null, "YEAR_RESURF": "Use Year Built Field for Latest Rehab", "GLOBALID": "c9d26f5c-0a65-430c-a7ba-077a72d72f44", "ASSET_CLASS": "COURT", "CLASS_CATEGORY": "CT-HORSE", "GIS_ASSET_ID": 20262, "INFOR_ASSET_ID": "111599" }, "geometry": { "type": "Point", "coordinates": [ -105.017041756800865, 39.7007606184007 ] } },
{ "type": "Feature", "properties": { "OBJECTID": 357, "FEATURE": "Bocce Ball Court", "LOCATION": "Central Park", "LOC_CODE": "561", "COURT_NUM": null, "LIGHTS": null, "SURFACE_TYPE": "Crusher Fines", "YEAR_BUILT": null, "YEAR_RESURF": "Use Year Built Field for Latest Rehab", "GLOBALID": "e16306af-719d-4155-92bc-7214987f08bf", "ASSET_CLASS": "COURT", "CLASS_CATEGORY": "CT-BOCCE", "GIS_ASSET_ID": 20305, "INFOR_ASSET_ID": "111696" }, "geometry": { "type": "Point", "coordinates": [ -104.886686924311007, 39.76070881589704 ] } },
{ "type": "Feature", "properties": { "OBJECTID": 358, "FEATURE": "Bocce Ball Court", "LOCATION": "Central Park", "LOC_CODE": "561", "COURT_NUM": null, "LIGHTS": null, "SURFACE_TYPE": "Crusher Fines", "YEAR_BUILT": null, "YEAR_RESURF": "Use Year Built Field for Latest Rehab", "GLOBALID": "2d3f16e5-3215-412a-b8ce-755ae5cecab3", "ASSET_CLASS": "COURT", "CLASS_CATEGORY": "CT-BOCCE", "GIS_ASSET_ID": 20306, "INFOR_ASSET_ID": "111697" }, "geometry": { "type": "Point", "coordinates": [ -104.886595893594247, 39.760725706201292 ] } },
{ "type": "Feature", "properties": { "OBJECTID": 359, "FEATURE": "Bocce Ball Court", "LOCATION": "Central Park", "LOC_CODE": "561", "COURT_NUM": null, "LIGHTS": null, "SURFACE_TYPE": "Crusher Fines", "YEAR_BUILT": null, "YEAR_RESURF": "Use Year Built Field for Latest Rehab", "GLOBALID": "12e4047e-c483-4ae3-bbb6-d5701c4876ef", "ASSET_CLASS": "COURT", "CLASS_CATEGORY": "CT-BOCCE", "GIS_ASSET_ID": 20281, "INFOR_ASSET_ID": "111651" }, "geometry": { "type": "Point", "coordinates": [ -104.886504350220022, 39.760742464696165 ] } },
{ "type": "Feature", "properties": { "OBJECTID": 360, "FEATURE": "Sand Volleyball Court", "LOCATION": "Elyria", "LOC_CODE": "204", "COURT_NUM": null, "LIGHTS": "No", "SURFACE_TYPE": "Sand", "YEAR_BUILT": null, "YEAR_RESURF": "Use Year Built Field for Latest Rehab", "GLOBALID": "fe3dba36-a952-4402-82f9-7b4edca7d43c", "ASSET_CLASS": "COURT", "CLASS_CATEGORY": "CT-SV", "GIS_ASSET_ID": 20282, "INFOR_ASSET_ID": "111652" }, "geometry": { "type": "Point", "coordinates": [ -104.964203409563027, 39.784955090476956 ] } },
{ "type": "Feature", "properties": { "OBJECTID": 362, "FEATURE": "Sand Volleyball Court", "LOCATION": "Garland", "LOC_CODE": "728", "COURT_NUM": null, "LIGHTS": "No", "SURFACE_TYPE": "Sand", "YEAR_BUILT": "2014", "YEAR_RESURF": "Use Year Built Field for Latest Rehab", "GLOBALID": "34f151e2-4a46-47b9-b0b7-db0044e1e95f", "ASSET_CLASS": "COURT", "CLASS_CATEGORY": "CT-SV", "GIS_ASSET_ID": 20307, "INFOR_ASSET_ID": "111698" }, "geometry": { "type": "Point", "coordinates": [ -104.915417362290711, 39.694155743884274 ] } },
{ "type": "Feature", "properties": { "OBJECTID": 363, "FEATURE": "Sand Volleyball Court", "LOCATION": "Gates Crescent", "LOC_CODE": "907", "COURT_NUM": null, "LIGHTS": "No", "SURFACE_TYPE": "Sand", "YEAR_BUILT": null, "YEAR_RESURF": "Use Year Built Field for Latest Rehab", "GLOBALID": "9613bb01-68b5-4be3-a6ec-45f1ec93d8c0", "ASSET_CLASS": "COURT", "CLASS_CATEGORY": "CT-SV", "GIS_ASSET_ID": 20255, "INFOR_ASSET_ID": "111578" }, "geometry": { "type": "Point", "coordinates": [ -105.016294652023987, 39.746337620165804 ] } },
{ "type": "Feature", "properties": { "OBJECTID": 364, "FEATURE": "Sand Volleyball Court", "LOCATION": "Green Valley Ranch East", "LOC_CODE": "550", "COURT_NUM": null, "LIGHTS": "No", "SURFACE_TYPE": "Sand", "YEAR_BUILT": null, "YEAR_RESURF": "Use Year Built Field for Latest Rehab", "GLOBALID": "55324da7-eb51-4b7a-ae05-269f95a03f05", "ASSET_CLASS": "COURT", "CLASS_CATEGORY": "CT-SV", "GIS_ASSET_ID": 20283, "INFOR_ASSET_ID": "111653" }, "geometry": { "type": "Point", "coordinates": [ -104.750410726253193, 39.779346574215815 ] } },
{ "type": "Feature", "properties": { "OBJECTID": 365, "FEATURE": "Sand Volleyball Court", "LOCATION": "Garland", "LOC_CODE": "728", "COURT_NUM": null, "LIGHTS": "No", "SURFACE_TYPE": "Sand", "YEAR_BUILT": "2014", "YEAR_RESURF": "Use Year Built Field for Latest Rehab", "GLOBALID": "859406c9-7b44-466e-b462-a1d045775719", "ASSET_CLASS": "COURT", "CLASS_CATEGORY": "CT-SV", "GIS_ASSET_ID": 20271, "INFOR_ASSET_ID": "111627" }, "geometry": { "type": "Point", "coordinates": [ -104.915600154379121, 39.694138415381353 ] } },
{ "type": "Feature", "properties": { "OBJECTID": 366, "FEATURE": "Sand Volleyball Court", "LOCATION": "Garland", "LOC_CODE": "728", "COURT_NUM": null, "LIGHTS": "No", "SURFACE_TYPE": "Sand", "YEAR_BUILT": "2014", "YEAR_RESURF": "Use Year Built Field for Latest Rehab", "GLOBALID": "cc859672-2932-47e9-962d-5c5d16869c3a", "ASSET_CLASS": "COURT", "CLASS_CATEGORY": "CT-SV", "GIS_ASSET_ID": 20263, "INFOR_ASSET_ID": "111600" }, "geometry": { "type": "Point", "coordinates": [ -104.915385399493161, 39.693935047116298 ] } },
{ "type": "Feature", "properties": { "OBJECTID": 367, "FEATURE": "Sand Volleyball Court", "LOCATION": "Garland", "LOC_CODE": "728", "COURT_NUM": null, "LIGHTS": "No", "SURFACE_TYPE": "Sand", "YEAR_BUILT": "2014", "YEAR_RESURF": "Use Year Built Field for Latest Rehab", "GLOBALID": "088faf4c-a003-40f4-afb7-b57c74bd9113", "ASSET_CLASS": "COURT", "CLASS_CATEGORY": "CT-SV", "GIS_ASSET_ID": 20284, "INFOR_ASSET_ID": "111654" }, "geometry": { "type": "Point", "coordinates": [ -104.915569077654297, 39.693916039036779 ] } },
{ "type": "Feature", "properties": { "OBJECTID": 368, "FEATURE": "Horseshoe Pit", "LOCATION": "Platt Park", "LOC_CODE": "824", "COURT_NUM": null, "LIGHTS": null, "SURFACE_TYPE": "Natural Surface", "YEAR_BUILT": null, "YEAR_RESURF": "Use Year Built Field for Latest Rehab", "GLOBALID": "c2d12c03-9edb-4816-b253-ccb833b80b03", "ASSET_CLASS": "COURT", "CLASS_CATEGORY": "CT-HORSE", "GIS_ASSET_ID": 20308, "INFOR_ASSET_ID": "111699" }, "geometry": { "type": "Point", "coordinates": [ -104.983507355276885, 39.688718194252267 ] } },
{ "type": "Feature", "properties": { "OBJECTID": 369, "FEATURE": "Horseshoe Pit", "LOCATION": "Platt Park", "LOC_CODE": "824", "COURT_NUM": null, "LIGHTS": null, "SURFACE_TYPE": "Natural Surface", "YEAR_BUILT": null, "YEAR_RESURF": "Use Year Built Field for Latest Rehab", "GLOBALID": "30d97c0b-52a6-4d56-a45c-f0c40b262660", "ASSET_CLASS": "COURT", "CLASS_CATEGORY": "CT-HORSE", "GIS_ASSET_ID": 20264, "INFOR_ASSET_ID": "111601" }, "geometry": { "type": "Point", "coordinates": [ -104.98348743804587, 39.688700233640333 ] } },
{ "type": "Feature", "properties": { "OBJECTID": 1328, "FEATURE": "Sand Volleyball Court", "LOCATION": "Thomas", "LOC_CODE": "L16", "COURT_NUM": null, "LIGHTS": "No", "SURFACE_TYPE": "Sand", "YEAR_BUILT": "2011", "YEAR_RESURF": "Use Year Built Field for Latest Rehab", "GLOBALID": "dda6a640-3727-4810-a0c7-233506e0a956", "ASSET_CLASS": "COURT", "CLASS_CATEGORY": "CT-SV", "GIS_ASSET_ID": 20325, "INFOR_ASSET_ID": "112386" }, "geometry": { "type": "Point", "coordinates": [ -104.902551888874939, 39.754316349166238 ] } },
{ "type": "Feature", "properties": { "OBJECTID": 1650, "FEATURE": "Horseshoe Pit", "LOCATION": "Swansea Park", "LOC_CODE": "210", "COURT_NUM": null, "LIGHTS": null, "SURFACE_TYPE": null, "YEAR_BUILT": "2012", "YEAR_RESURF": "Use Year Built Field for Latest Rehab", "GLOBALID": "7cea279b-94c9-4f37-a11c-af040bce702c", "ASSET_CLASS": "COURT", "CLASS_CATEGORY": "CT-HORSE", "GIS_ASSET_ID": 20326, "INFOR_ASSET_ID": "112642" }, "geometry": { "type": "Point", "coordinates": [ -104.955526640866765, 39.786401059138157 ] } },
{ "type": "Feature", "properties": { "OBJECTID": 2612, "FEATURE": "Bocce Ball Court", "LOCATION": "41st & Tennyson", "LOC_CODE": "035", "COURT_NUM": null, "LIGHTS": "No", "SURFACE_TYPE": "Natural Surface", "YEAR_BUILT": "2013", "YEAR_RESURF": "Use Year Built Field for Latest Rehab", "GLOBALID": "dec582c2-c41a-4916-9c4c-91891d9a6bac", "ASSET_CLASS": "COURT", "CLASS_CATEGORY": "CT-BOCCE", "GIS_ASSET_ID": 20334, "INFOR_ASSET_ID": "114461" }, "geometry": { "type": "Point", "coordinates": [ -105.044623603016277, 39.773458498252758 ] } },
{ "type": "Feature", "properties": { "OBJECTID": 2613, "FEATURE": "Bocce Ball Court", "LOCATION": "41st & Tennyson", "LOC_CODE": "035", "COURT_NUM": null, "LIGHTS": "No", "SURFACE_TYPE": "Natural Surface", "YEAR_BUILT": "2013", "YEAR_RESURF": "Use Year Built Field for Latest Rehab", "GLOBALID": "1cb2ae7d-78d7-486e-9bf9-7b8fbc49c996", "ASSET_CLASS": "COURT", "CLASS_CATEGORY": "CT-BOCCE", "GIS_ASSET_ID": 20335, "INFOR_ASSET_ID": "114462" }, "geometry": { "type": "Point", "coordinates": [ -105.044622973848291, 39.773428184063143 ] } },
{ "type": "Feature", "properties": { "OBJECTID": 2932, "FEATURE": "Horseshoe Pit", "LOCATION": "Washington Park", "LOC_CODE": "711", "COURT_NUM": null, "LIGHTS": "No", "SURFACE_TYPE": null, "YEAR_BUILT": "2013", "YEAR_RESURF": "Use Year Built Field for Latest Rehab", "GLOBALID": "1286f376-01f8-4ccc-8b23-2f81d4225660", "ASSET_CLASS": "COURT", "CLASS_CATEGORY": "CT-HORSE", "GIS_ASSET_ID": 20337, "INFOR_ASSET_ID": "114464" }, "geometry": { "type": "Point", "coordinates": [ -104.970619692238614, 39.698166074362881 ] } },
{ "type": "Feature", "properties": { "OBJECTID": 3251, "FEATURE": "Futsol Court", "LOCATION": "Garfield Lake Park", "LOC_CODE": "807", "COURT_NUM": "1", "LIGHTS": null, "SURFACE_TYPE": "Plastic Tiles", "YEAR_BUILT": "2012", "YEAR_RESURF": "Use Year Built Field for Latest Rehab", "GLOBALID": "a6660327-1da2-47ee-8559-3fb35ed5780b", "ASSET_CLASS": "COURT", "CLASS_CATEGORY": "CT-FUTSOL", "GIS_ASSET_ID": 20114, "INFOR_ASSET_ID": "111642" }, "geometry": { "type": "Point", "coordinates": [ -105.035729570678683, 39.694824093891235 ] } },
{ "type": "Feature", "properties": { "OBJECTID": 3252, "FEATURE": "Futsol Court", "LOCATION": "Garfield Lake Park", "LOC_CODE": "807", "COURT_NUM": "3", "LIGHTS": null, "SURFACE_TYPE": "Plastic Tiles", "YEAR_BUILT": "2012", "YEAR_RESURF": "Use Year Built Field for Latest Rehab", "GLOBALID": "2132605f-7892-4970-a638-0871552d356b", "ASSET_CLASS": "COURT", "CLASS_CATEGORY": "CT-FUTSOL", "GIS_ASSET_ID": 20167, "INFOR_ASSET_ID": "111688" }, "geometry": { "type": "Point", "coordinates": [ -105.035214738217121, 39.694830132577977 ] } },
{ "type": "Feature", "properties": { "OBJECTID": 6132, "FEATURE": "Skating Rink", "LOCATION": "Lowry Sports Complex", "LOC_CODE": "L21", "COURT_NUM": null, "LIGHTS": null, "SURFACE_TYPE": "Concrete", "YEAR_BUILT": "2020", "YEAR_RESURF": "Use Year Built Field for Latest Rehab", "GLOBALID": "1210ac2d-529e-4bcf-b6ff-e0318d5a62d4", "ASSET_CLASS": "COURT", "CLASS_CATEGORY": "CT-RINK", "GIS_ASSET_ID": 20340, "INFOR_ASSET_ID": null }, "geometry": { "type": "Point", "coordinates": [ -104.891827474612612, 39.717851863198739 ] } }
]
}
