{
"type": "FeatureCollection",
"name": "Pickleball",
"crs": { "type": "name", "properties": { "name": "urn:ogc:def:crs:OGC:1.3:CRS84" } },
"features": [
{ "type": "Feature", "properties": { "OBJECTID": 6133, "FEATURE": "Pickleball Court", "LOCATION": "Martin Luther King Jr Park", "LOC_CODE": "415", "COURT_NUM": "1", "LIGHTS": "No", "SURFACE_TYPE": "Post Tension Concrete", "YEAR_BUILT": "2016", "YEAR_RESURF": "Use Year Built Field for Latest Rehab", "GLOBALID": "05e759e7-23de-48e5-b5b7-8a410bd8415f", "ASSET_CLASS": "COURT", "CLASS_CATEGORY": "CT-PICK", "GIS_ASSET_ID": 20370, "INFOR_ASSET_ID": "111690" }, "geometry": { "type": "Point", "coordinates": [ -104.908154923819112, 39.770706492177318 ] } },
{ "type": "Feature", "properties": { "OBJECTID": 6134, "FEATURE": "Pickleball Court", "LOCATION": "Martin Luther King Jr Park", "LOC_CODE": "415", "COURT_NUM": "2", "LIGHTS": "No", "SURFACE_TYPE": "Post Tension Concrete", "YEAR_BUILT": "2016", "YEAR_RESURF": "Use Year Built Field for Latest Rehab", "GLOBALID": "f513df87-0fb8-4ca4-b6d1-60b5837953a5", "ASSET_CLASS": "COURT", "CLASS_CATEGORY": "CT-PICK", "GIS_ASSET_ID": 20369, "INFOR_ASSET_ID": "111690" }, "geometry": { "type": "Point", "coordinates": [ -104.908261161870755, 39.770706525173949 ] } },
{ "type": "Feature", "properties": { "OBJECTID": 6135, "FEATURE": "Pickleball Court", "LOCATION": "Martin Luther King Jr Park", "LOC_CODE": "415", "COURT_NUM": "4", "LIGHTS": "No", "SURFACE_TYPE": "Post Tension Concrete", "YEAR_BUILT": "2016", "YEAR_RESURF": "Use Year Built Field for Latest Rehab", "GLOBALID": "f5ce81e5-6ee0-4a1a-9e47-a9d748448623", "ASSET_CLASS": "COURT", "CLASS_CATEGORY": "CT-PICK", "GIS_ASSET_ID": 20361, "INFOR_ASSET_ID": "111690" }, "geometry": { "type": "Point", "coordinates": [ -104.908261783399553, 39.770871630965395 ] } },
{ "type": "Feature", "properties": { "OBJECTID": 6136, "FEATURE": "Pickleball Court", "LOCATION": "Martin Luther King Jr Park", "LOC_CODE": "415", "COURT_NUM": "3", "LIGHTS": "No", "SURFACE_TYPE": "Post Tension Concrete", "YEAR_BUILT": "2016", "YEAR_RESURF": "Use Year Built Field for Latest Rehab", "GLOBALID": "079b1252-70c3-4621-8079-7b29031bd9de", "ASSET_CLASS": "COURT", "CLASS_CATEGORY": "CT-PICK", "GIS_ASSET_ID": 20360, "INFOR_ASSET_ID": "111690" }, "geometry": { "type": "Point", "coordinates": [ -104.908153543030821, 39.770870903648095 ] } },
{ "type": "Feature", "properties": { "OBJECTID": 6141, "FEATURE": "Pickleball Court", "LOCATION": "Eisenhower Park", "LOC_CODE": "630", "COURT_NUM": "2", "LIGHTS": "No", "SURFACE_TYPE": "Post Tension Concrete", "YEAR_BUILT": "2018", "YEAR_RESURF": "Use Year Built Field for Latest Rehab", "GLOBALID": "dcd15a4f-0109-435c-87c9-db3d36c1f0d3", "ASSET_CLASS": "COURT", "CLASS_CATEGORY": "CT-PICK", "GIS_ASSET_ID": 20366, "INFOR_ASSET_ID": "111712" }, "geometry": { "type": "Point", "coordinates": [ -104.938831024528596, 39.659747615162473 ] } },
{ "type": "Feature", "properties": { "OBJECTID": 6142, "FEATURE": "Pickleball Court", "LOCATION": "Eisenhower Park", "LOC_CODE": "630", "COURT_NUM": "1", "LIGHTS": "No", "SURFACE_TYPE": "Post Tension Concrete", "YEAR_BUILT": "2018", "YEAR_RESURF": "Use Year Built Field for Latest Rehab", "GLOBALID": "baecbc96-328e-4381-ad1c-14c82987887b", "ASSET_CLASS": "COURT", "CLASS_CATEGORY": "CT-PICK", "GIS_ASSET_ID": 20365, "INFOR_ASSET_ID": "111712" }, "geometry": { "type": "Point", "coordinates": [ -104.938940591320801, 39.659754550048426 ] } },
{ "type": "Feature", "properties": { "OBJECTID": 6143, "FEATURE": "Pickleball Court", "LOCATION": "Eisenhower Park", "LOC_CODE": "630", "COURT_NUM": "4", "LIGHTS": "No", "SURFACE_TYPE": "Post Tension Concrete", "YEAR_BUILT": "2018", "YEAR_RESURF": "Use Year Built Field for Latest Rehab", "GLOBALID": "90a3eed3-72d6-483d-aa73-54919a90d9e7", "ASSET_CLASS": "COURT", "CLASS_CATEGORY": "CT-PICK", "GIS_ASSET_ID": 20371, "INFOR_ASSET_ID": "111712" }, "geometry": { "type": "Point", "coordinates": [ -104.938849370615117, 39.659584691210128 ] } },
{ "type": "Feature", "properties": { "OBJECTID": 6144, "FEATURE": "Pickleball Court", "LOCATION": "Eisenhower Park", "LOC_CODE": "630", "COURT_NUM": "3", "LIGHTS": "No", "SURFACE_TYPE": "Post Tension Concrete", "YEAR_BUILT": "2018", "YEAR_RESURF": "Use Year Built Field for Latest Rehab", "GLOBALID": "620e68d5-3a34-4a4d-9f73-cba2a97d060a", "ASSET_CLASS": "COURT", "CLASS_CATEGORY": "CT-PICK", "GIS_ASSET_ID": 20372, "INFOR_ASSET_ID": "111712" }, "geometry": { "type": "Point", "coordinates": [ -104.938955530609491, 39.659590020812367 ] } },
{ "type": "Feature", "properties": { "OBJECTID": 6145, "FEATURE": "Pickleball Court", "LOCATION": "Huston Lake Park", "LOC_CODE": "811", "COURT_NUM": "4", "LIGHTS": "No", "SURFACE_TYPE": "Post Tension Concrete", "YEAR_BUILT": "2018", "YEAR_RESURF": "Use Year Built Field for Latest Rehab", "GLOBALID": "1152f587-a81e-4ee4-8d2a-9b35434e53cb", "ASSET_CLASS": "COURT", "CLASS_CATEGORY": "CT-PICK", "GIS_ASSET_ID": 20375, "INFOR_ASSET_ID": "111744" }, "geometry": { "type": "Point", "coordinates": [ -105.017413843932772, 39.700758895679456 ] } },
{ "type": "Feature", "properties": { "OBJECTID": 6146, "FEATURE": "Pickleball Court", "LOCATION": "Huston Lake Park", "LOC_CODE": "811", "COURT_NUM": "3", "LIGHTS": "No", "SURFACE_TYPE": "Post Tension Concrete", "YEAR_BUILT": "2018", "YEAR_RESURF": "Use Year Built Field for Latest Rehab", "GLOBALID": "b57fe4e2-5c61-43d5-a1e9-f49d2b5c4644", "ASSET_CLASS": "COURT", "CLASS_CATEGORY": "CT-PICK", "GIS_ASSET_ID": 20373, "INFOR_ASSET_ID": "111744" }, "geometry": { "type": "Point", "coordinates": [ -105.01730204053743, 39.700759268657677 ] } },
{ "type": "Feature", "properties": { "OBJECTID": 6147, "FEATURE": "Pickleball Court", "LOCATION": "Huston Lake Park", "LOC_CODE": "811", "COURT_NUM": "2", "LIGHTS": "No", "SURFACE_TYPE": "Post Tension Concrete", "YEAR_BUILT": "2018", "YEAR_RESURF": "Use Year Built Field for Latest Rehab", "GLOBALID": "42b48e78-3fce-4279-ae8d-6cf0d5423d56", "ASSET_CLASS": "COURT", "CLASS_CATEGORY": "CT-PICK", "GIS_ASSET_ID": 20379, "INFOR_ASSET_ID": "111744" }, "geometry": { "type": "Point", "coordinates": [ -105.01730257006858, 39.700927264263697 ] } },
{ "type": "Feature", "properties": { "OBJECTID": 6452, "FEATURE": "Pickleball Court", "LOCATION": "Huston Lake Park", "LOC_CODE": "811", "COURT_NUM": "1", "LIGHTS": "No", "SURFACE_TYPE": "Post Tension Concrete", "YEAR_BUILT": "2018", "YEAR_RESURF": "Use Year Built Field for Latest Rehab", "GLOBALID": "57f24d38-ef0f-4cbe-80dc-f9d085bfe0dc", "ASSET_CLASS": "COURT", "CLASS_CATEGORY": "CT-PICK", "GIS_ASSET_ID": 20378, "INFOR_ASSET_ID": "111744" }, "geometry": { "type": "Point", "coordinates": [ -105.017414283955489, 39.700926903646128 ] } },
{ "type": "Feature", "properties": { "OBJECTID": 6453, "FEATURE": "Pickleball Court", "LOCATION": "Gates Tennis Center", "LOC_CODE": "357", "COURT_NUM": "1", "LIGHTS": "No", "SURFACE_TYPE": null, "YEAR_BUILT": "2012", "YEAR_RESURF": "Use Year Built Field for Latest Rehab", "GLOBALID": "436689dc-953f-4819-88c8-786781f40c46", "ASSET_CLASS": "COURT", "CLASS_CATEGORY": "CT-PICK", "GIS_ASSET_ID": 20376, "INFOR_ASSET_ID": "114459" }, "geometry": { "type": "Point", "coordinates": [ -104.947450299234731, 39.713699887883514 ] } },
{ "type": "Feature", "properties": { "OBJECTID": 6454, "FEATURE": "Pickleball Court", "LOCATION": "Gates Tennis Center", "LOC_CODE": "357", "COURT_NUM": "2", "LIGHTS": "No", "SURFACE_TYPE": null, "YEAR_BUILT": "2012", "YEAR_RESURF": "Use Year Built Field for Latest Rehab", "GLOBALID": "5191b119-47ce-4e84-9974-61b874128ff8", "ASSET_CLASS": "COURT", "CLASS_CATEGORY": "CT-PICK", "GIS_ASSET_ID": 20377, "INFOR_ASSET_ID": "114459" }, "geometry": { "type": "Point", "coordinates": [ -104.947542586267772, 39.713700110606702 ] } },
{ "type": "Feature", "properties": { "OBJECTID": 6455, "FEATURE": "Pickleball Court", "LOCATION": "Gates Tennis Center", "LOC_CODE": "357", "COURT_NUM": "3", "LIGHTS": "No", "SURFACE_TYPE": null, "YEAR_BUILT": "2012", "YEAR_RESURF": "Use Year Built Field for Latest Rehab", "GLOBALID": "02166a65-f05f-49e2-af54-0520668e9e42", "ASSET_CLASS": "COURT", "CLASS_CATEGORY": "CT-PICK", "GIS_ASSET_ID": 20380, "INFOR_ASSET_ID": "114459" }, "geometry": { "type": "Point", "coordinates": [ -104.947542547277436, 39.713864638855853 ] } },
{ "type": "Feature", "properties": { "OBJECTID": 6456, "FEATURE": "Pickleball Court", "LOCATION": "Gates Tennis Center", "LOC_CODE": "357", "COURT_NUM": "4", "LIGHTS": "No", "SURFACE_TYPE": null, "YEAR_BUILT": "2012", "YEAR_RESURF": "Use Year Built Field for Latest Rehab", "GLOBALID": "1d762da0-45c2-455a-a391-fa0c8ba974eb", "ASSET_CLASS": "COURT", "CLASS_CATEGORY": "CT-PICK", "GIS_ASSET_ID": 20381, "INFOR_ASSET_ID": "114459" }, "geometry": { "type": "Point", "coordinates": [ -104.947449995669857, 39.713863728721385 ] } },
{ "type": "Feature", "properties": { "OBJECTID": 6457, "FEATURE": "Pickleball Court", "LOCATION": "Skyland Park", "LOC_CODE": "429", "COURT_NUM": "3", "LIGHTS": "No", "SURFACE_TYPE": null, "YEAR_BUILT": "2011", "YEAR_RESURF": "Use Year Built Field for Latest Rehab", "GLOBALID": "00772b98-f0aa-4d71-9198-2790e97c1e81", "ASSET_CLASS": "COURT", "CLASS_CATEGORY": "CT-PICK", "GIS_ASSET_ID": 20382, "INFOR_ASSET_ID": "111844" }, "geometry": { "type": "Point", "coordinates": [ -104.92184386719893, 39.765290511147576 ] } },
{ "type": "Feature", "properties": { "OBJECTID": 6458, "FEATURE": "Pickleball Court", "LOCATION": "Skyland Park", "LOC_CODE": "429", "COURT_NUM": "1", "LIGHTS": "No", "SURFACE_TYPE": null, "YEAR_BUILT": "2011", "YEAR_RESURF": "Use Year Built Field for Latest Rehab", "GLOBALID": "e59fc663-a7e9-47a0-b8a5-978d30e72010", "ASSET_CLASS": "COURT", "CLASS_CATEGORY": "CT-PICK", "GIS_ASSET_ID": 20383, "INFOR_ASSET_ID": "111844" }, "geometry": { "type": "Point", "coordinates": [ -104.921750651410164, 39.765132040217793 ] } },
{ "type": "Feature", "properties": { "OBJECTID": 6459, "FEATURE": "Pickleball Court", "LOCATION": "Skyland Park", "LOC_CODE": "429", "COURT_NUM": "2", "LIGHTS": "No", "SURFACE_TYPE": null, "YEAR_BUILT": "2011", "YEAR_RESURF": "Use Year Built Field for Latest Rehab", "GLOBALID": "dadaa90f-5af4-405b-82c0-29af50703102", "ASSET_CLASS": "COURT", "CLASS_CATEGORY": "CT-PICK", "GIS_ASSET_ID": 20384, "INFOR_ASSET_ID": "111844" }, "geometry": { "type": "Point", "coordinates": [ -104.921843681207662, 39.76513203644042 ] } },
{ "type": "Feature", "properties": { "OBJECTID": 6460, "FEATURE": "Pickleball Court", "LOCATION": "Skyland Park", "LOC_CODE": "429", "COURT_NUM": "4", "LIGHTS": "No", "SURFACE_TYPE": null, "YEAR_BUILT": "2011", "YEAR_RESURF": "Use Year Built Field for Latest Rehab", "GLOBALID": "f29671bb-a69c-4773-8e71-c6c3c78beae3", "ASSET_CLASS": "COURT", "CLASS_CATEGORY": "CT-PICK", "GIS_ASSET_ID": 20385, "INFOR_ASSET_ID": "111844" }, "geometry": { "type": "Point", "coordinates": [ -104.921751004459409, 39.765291025701373 ] } },
{ "type": "Feature", "properties": { "OBJECTID": 6461, "FEATURE": "Pickleball Court", "LOCATION": "Northfield Athletic Complex", "LOC_CODE": "584", "COURT_NUM": "3", "LIGHTS": "Yes", "SURFACE_TYPE": "Post Tension Concrete", "YEAR_BUILT": "2020", "YEAR_RESURF": "Use Year Built Field for Latest Rehab", "GLOBALID": "20fe6cd3-05f4-41ef-94ec-4b8c37d1f2c9", "ASSET_CLASS": "COURT", "CLASS_CATEGORY": "CT-PICK", "GIS_ASSET_ID": 20387, "INFOR_ASSET_ID": null }, "geometry": { "type": "Point", "coordinates": [ -104.878708504223368, 39.797911295859272 ] } },
{ "type": "Feature", "properties": { "OBJECTID": 6462, "FEATURE": "Pickleball Court", "LOCATION": "Northfield Athletic Complex", "LOC_CODE": "584", "COURT_NUM": "4", "LIGHTS": "Yes", "SURFACE_TYPE": "Post Tension Concrete", "YEAR_BUILT": "2020", "YEAR_RESURF": "Use Year Built Field for Latest Rehab", "GLOBALID": "f2bbd442-56f0-4a57-bbce-1dffb4c59e5a", "ASSET_CLASS": "COURT", "CLASS_CATEGORY": "CT-PICK", "GIS_ASSET_ID": 20386, "INFOR_ASSET_ID": null }, "geometry": { "type": "Point", "coordinates": [ -104.87861226998848, 39.797911414079721 ] } },
{ "type": "Feature", "properties": { "OBJECTID": 6463, "FEATURE": "Pickleball Court", "LOCATION": "Northfield Athletic Complex", "LOC_CODE": "584", "COURT_NUM": "2", "LIGHTS": "Yes", "SURFACE_TYPE": "Post Tension Concrete", "YEAR_BUILT": "2020", "YEAR_RESURF": "Use Year Built Field for Latest Rehab", "GLOBALID": "3fe630a9-4012-467a-9b43-898f2180d52b", "ASSET_CLASS": "COURT", "CLASS_CATEGORY": "CT-PICK", "GIS_ASSET_ID": 20391, "INFOR_ASSET_ID": null }, "geometry": { "type": "Point", "coordinates": [ -104.878708627258547, 39.797747585332381 ] } },
{ "type": "Feature", "properties": { "OBJECTID": 6464, "FEATURE": "Pickleball Court", "LOCATION": "Northfield Athletic Complex", "LOC_CODE": "584", "COURT_NUM": "1", "LIGHTS": "Yes", "SURFACE_TYPE": "Post Tension Concrete", "YEAR_BUILT": "2020", "YEAR_RESURF": "Use Year Built Field for Latest Rehab", "GLOBALID": "fc88c1cc-a734-4a99-827a-0b3c057f5947", "ASSET_CLASS": "COURT", "CLASS_CATEGORY": "CT-PICK", "GIS_ASSET_ID": 20390, "INFOR_ASSET_ID": null }, "geometry": { "type": "Point", "coordinates": [ -104.87861186998029, 39.79774746069679 ] } },
{ "type": "Feature", "properties": { "OBJECTID": 7420, "FEATURE": "Pickleball Court", "LOCATION": "Bear Valley Park", "LOC_CODE": "140", "COURT_NUM": "1", "LIGHTS": "No", "SURFACE_TYPE": "Post Tension Concrete", "YEAR_BUILT": "2021", "YEAR_RESURF": "Use Year Built Field for Latest Rehab", "GLOBALID": "080fc5c9-df7c-4c46-99c5-269985484369", "ASSET_CLASS": "COURT", "CLASS_CATEGORY": "CT-PICK", "GIS_ASSET_ID": 20389, "INFOR_ASSET_ID": null }, "geometry": { "type": "Point", "coordinates": [ -105.076414270696375, 39.660293803718886 ] } },
{ "type": "Feature", "properties": { "OBJECTID": 7421, "FEATURE": "Pickleball Court", "LOCATION": "Bear Valley Park", "LOC_CODE": "140", "COURT_NUM": "2", "LIGHTS": "No", "SURFACE_TYPE": "Post Tension Concrete", "YEAR_BUILT": "2021", "YEAR_RESURF": "Use Year Built Field for Latest Rehab", "GLOBALID": "e72745aa-924e-43c3-be5b-f587c48701cf", "ASSET_CLASS": "COURT", "CLASS_CATEGORY": "CT-PICK", "GIS_ASSET_ID": 20397, "INFOR_ASSET_ID": null }, "geometry": { "type": "Point", "coordinates": [ -105.076294445671095, 39.660279182192561 ] } },
{ "type": "Feature", "properties": { "OBJECTID": 7422, "FEATURE": "Pickleball Court", "LOCATION": "Bear Valley Park", "LOC_CODE": "140", "COURT_NUM": "3", "LIGHTS": "No", "SURFACE_TYPE": "Post Tension Concrete", "YEAR_BUILT": "2021", "YEAR_RESURF": "Use Year Built Field for Latest Rehab", "GLOBALID": "1928faf9-1cd4-445d-bbb3-b60d6c094cb2", "ASSET_CLASS": "COURT", "CLASS_CATEGORY": "CT-PICK", "GIS_ASSET_ID": 20396, "INFOR_ASSET_ID": null }, "geometry": { "type": "Point", "coordinates": [ -105.076174489496353, 39.6602638099248 ] } },
{ "type": "Feature", "properties": { "OBJECTID": 7423, "FEATURE": "Pickleball Court", "LOCATION": "Bear Valley Park", "LOC_CODE": "140", "COURT_NUM": "4", "LIGHTS": "No", "SURFACE_TYPE": "Post Tension Concrete", "YEAR_BUILT": "2021", "YEAR_RESURF": "Use Year Built Field for Latest Rehab", "GLOBALID": "f75e8ec2-3a64-4b19-a7b4-afd29f7c2fc4", "ASSET_CLASS": "COURT", "CLASS_CATEGORY": "CT-PICK", "GIS_ASSET_ID": 20395, "INFOR_ASSET_ID": null }, "geometry": { "type": "Point", "coordinates": [ -105.076053677991084, 39.660248557707064 ] } },
{ "type": "Feature", "properties": { "OBJECTID": 9743, "FEATURE": "Pickleball Court", "LOCATION": "Gates Tennis Center", "LOC_CODE": "357", "COURT_NUM": "11", "LIGHTS": "Yes", "SURFACE_TYPE": "Post Tension Concrete", "YEAR_BUILT": "2021 - Converted to Pickleball", "YEAR_RESURF": "Use Year Built Field for Latest Rehab", "GLOBALID": "3c544f39-6988-43f0-b480-ed8d10dd6c7f", "ASSET_CLASS": "COURT", "CLASS_CATEGORY": "CT-PICK", "GIS_ASSET_ID": 20388, "INFOR_ASSET_ID": "111842" }, "geometry": { "type": "Point", "coordinates": [ -104.948090541587035, 39.713828858489116 ] } },
{ "type": "Feature", "properties": { "OBJECTID": 9744, "FEATURE": "Pickleball Court", "LOCATION": "Gates Tennis Center", "LOC_CODE": "357", "COURT_NUM": "11", "LIGHTS": "Yes", "SURFACE_TYPE": "Post Tension Concrete", "YEAR_BUILT": "2021 - Converted to Pickleball", "YEAR_RESURF": "Use Year Built Field for Latest Rehab", "GLOBALID": "75919534-2aa0-42fb-8a5e-736786063ef2", "ASSET_CLASS": "COURT", "CLASS_CATEGORY": "CT-PICK", "GIS_ASSET_ID": 20394, "INFOR_ASSET_ID": "111842" }, "geometry": { "type": "Point", "coordinates": [ -104.947990845820144, 39.713828583364872 ] } },
{ "type": "Feature", "properties": { "OBJECTID": 9746, "FEATURE": "Pickleball Court", "LOCATION": "Gates Tennis Center", "LOC_CODE": "357", "COURT_NUM": "11", "LIGHTS": "Yes", "SURFACE_TYPE": "Post Tension Concrete", "YEAR_BUILT": "2021 - Converted to Pickleball", "YEAR_RESURF": "Use Year Built Field for Latest Rehab", "GLOBALID": "1edcc91f-8ca5-4cae-8f8d-62604e7316e8", "ASSET_CLASS": "COURT", "CLASS_CATEGORY": "CT-PICK", "GIS_ASSET_ID": 20393, "INFOR_ASSET_ID": "111842" }, "geometry": { "type": "Point", "coordinates": [ -104.948090883545788, 39.713993584551858 ] } },
{ "type": "Feature", "properties": { "OBJECTID": 9747, "FEATURE": "Pickleball Court", "LOCATION": "Gates Tennis Center", "LOC_CODE": "357", "COURT_NUM": "11", "LIGHTS": "Yes", "SURFACE_TYPE": "Post Tension Concrete", "YEAR_BUILT": "2021 - Converted to Pickleball", "YEAR_RESURF": "Use Year Built Field for Latest Rehab", "GLOBALID": "b0f111e5-dfee-4edd-bee8-cabd27d05446", "ASSET_CLASS": "COURT", "CLASS_CATEGORY": "CT-PICK", "GIS_ASSET_ID": 20392, "INFOR_ASSET_ID": "111842" }, "geometry": { "type": "Point", "coordinates": [ -104.947991533243311, 39.713994291753899 ] } },
{ "type": "Feature", "properties": { "OBJECTID": 10140, "FEATURE": "Pickleball Court", "LOCATION": "Gates Tennis Center", "LOC_CODE": "357", "COURT_NUM": "", "LIGHTS": "Yes", "SURFACE_TYPE": "Post Tension Concrete", "YEAR_BUILT": "2023 - Converted to Pickleball", "YEAR_RESURF": "Use Year Built Field for Latest Rehab", "GLOBALID": "671f0e2d-e87b-4ae6-a0b9-c4e923b4b3ea", "ASSET_CLASS": "COURT", "CLASS_CATEGORY": "CT-PICK", "GIS_ASSET_ID": 20413, "INFOR_ASSET_ID": "111842" }, "geometry": { "type": "Point", "coordinates": [ -104.94772215571453, 39.713994457138071 ] } },
{ "type": "Feature", "properties": { "OBJECTID": 10141, "FEATURE": "Pickleball Court", "LOCATION": "Gates Tennis Center", "LOC_CODE": "357", "COURT_NUM": "", "LIGHTS": "Yes", "SURFACE_TYPE": "Post Tension Concrete", "YEAR_BUILT": "2023 - Converted to Pickleball", "YEAR_RESURF": "Use Year Built Field for Latest Rehab", "GLOBALID": "7ee2e88c-051b-4250-873e-568d27c7b9e2", "ASSET_CLASS": "COURT", "CLASS_CATEGORY": "CT-PICK", "GIS_ASSET_ID": 20414, "INFOR_ASSET_ID": "111842" }, "geometry": { "type": "Point", "coordinates": [ -104.947719764279242, 39.713827869155239 ] } },
{ "type": "Feature", "properties": { "OBJECTID": 11343, "FEATURE": "Pickleball Court", "LOCATION": "Martin Luther King Jr Park", "LOC_CODE": "415", "COURT_NUM": "5", "LIGHTS": "No", "SURFACE_TYPE": "Post Tension Concrete", "YEAR_BUILT": "2024", "YEAR_RESURF": "Use Year Built Field for Latest Rehab", "GLOBALID": "7c5ea8bf-f7cb-421b-9428-b81c244ea080", "ASSET_CLASS": "COURT", "CLASS_CATEGORY": "CT-PICK", "GIS_ASSET_ID": 20399, "INFOR_ASSET_ID": "" }, "geometry": { "type": "Point", "coordinates": [ -104.908614097412581, 39.770867682063326 ] } },
{ "type": "Feature", "properties": { "OBJECTID": 11344, "FEATURE": "Pickleball Court", "LOCATION": "Martin Luther King Jr Park", "LOC_CODE": "415", "COURT_NUM": "6", "LIGHTS": "No", "SURFACE_TYPE": "Post Tension Concrete", "YEAR_BUILT": "2024", "YEAR_RESURF": "Use Year Built Field for Latest Rehab", "GLOBALID": "7288009e-4710-4366-9866-7368937f98ba", "ASSET_CLASS": "COURT", "CLASS_CATEGORY": "CT-PICK", "GIS_ASSET_ID": 20400, "INFOR_ASSET_ID": "" }, "geometry": { "type": "Point", "coordinates": [ -104.908507546720799, 39.770868814822251 ] } },
{ "type": "Feature", "properties": { "OBJECTID": 11345, "FEATURE": "Pickleball Court", "LOCATION": "Martin Luther King Jr Park", "LOC_CODE": "415", "COURT_NUM": "7", "LIGHTS": "No", "SURFACE_TYPE": "Post Tension Concrete", "YEAR_BUILT": "2024", "YEAR_RESURF": "Use Year Built Field for Latest Rehab", "GLOBALID": "b710a2d8-34be-49ab-82a5-b9922eb5bf4b", "ASSET_CLASS": "COURT", "CLASS_CATEGORY": "CT-PICK", "GIS_ASSET_ID": 20401, "INFOR_ASSET_ID": "" }, "geometry": { "type": "Point", "coordinates": [ -104.908399157294994, 39.770868270186519 ] } },
{ "type": "Feature", "properties": { "OBJECTID": 11346, "FEATURE": "Pickleball Court", "LOCATION": "Martin Luther King Jr Park", "LOC_CODE": "415", "COURT_NUM": "8", "LIGHTS": "No", "SURFACE_TYPE": "Post Tension Concrete", "YEAR_BUILT": "2024", "YEAR_RESURF": "Use Year Built Field for Latest Rehab", "GLOBALID": "1c11c7ae-92dd-4bbe-a024-db189af78e18", "ASSET_CLASS": "COURT", "CLASS_CATEGORY": "CT-PICK", "GIS_ASSET_ID": 20402, "INFOR_ASSET_ID": "" }, "geometry": { "type": "Point", "coordinates": [ -104.908614279510886, 39.770699679271203 ] } },
{ "type": "Feature", "properties": { "OBJECTID": 11347, "FEATURE": "Pickleball Court", "LOCATION": "Martin Luther King Jr Park", "LOC_CODE": "415", "COURT_NUM": "9", "LIGHTS": "No", "SURFACE_TYPE": "Post Tension Concrete", "YEAR_BUILT": "2024", "YEAR_RESURF": "Use Year Built Field for Latest Rehab", "GLOBALID": "e4e10f59-494f-4ffe-8250-43bfd6df1e63", "ASSET_CLASS": "COURT", "CLASS_CATEGORY": "CT-PICK", "GIS_ASSET_ID": 20403, "INFOR_ASSET_ID": "" }, "geometry": { "type": "Point", "coordinates": [ -104.908508043830608, 39.770700098704346 ] } },
{ "type": "Feature", "properties": { "OBJECTID": 11348, "FEATURE": "Pickleball Court", "LOCATION": "Martin Luther King Jr Park", "LOC_CODE": "415", "COURT_NUM": "10", "LIGHTS": "No", "SURFACE_TYPE": "Post Tension Concrete", "YEAR_BUILT": "2024", "YEAR_RESURF": "Use Year Built Field for Latest Rehab", "GLOBALID": "919be3bd-a748-47ff-8f53-2857284edb6c", "ASSET_CLASS": "COURT", "CLASS_CATEGORY": "CT-PICK", "GIS_ASSET_ID": 20404, "INFOR_ASSET_ID": "" }, "geometry": { "type": "Point", "coordinates": [ -104.908400573023542, 39.770700511835216 ] } },
{ "type": "Feature", "properties": { "OBJECTID": 11356, "FEATURE": "Pickleball Court", "LOCATION": "Gates Tennis Center", "LOC_CODE": "357", "COURT_NUM": "", "LIGHTS": "Yes", "SURFACE_TYPE": "Post Tension Concrete", "YEAR_BUILT": "2021 - Converted to Pickleball", "YEAR_RESURF": "Use Year Built Field for Latest Rehab", "GLOBALID": "9d280389-fd68-47fa-9db4-68446739f502", "ASSET_CLASS": "COURT", "CLASS_CATEGORY": "CT-PICK", "GIS_ASSET_ID": 20405, "INFOR_ASSET_ID": "111842" }, "geometry": { "type": "Point", "coordinates": [ -104.947913697609096, 39.713496352345601 ] } },
{ "type": "Feature", "properties": { "OBJECTID": 11357, "FEATURE": "Pickleball Court", "LOCATION": "Gates Tennis Center", "LOC_CODE": "357", "COURT_NUM": "", "LIGHTS": "Yes", "SURFACE_TYPE": "Post Tension Concrete", "YEAR_BUILT": "2021 - Converted to Pickleball", "YEAR_RESURF": "Use Year Built Field for Latest Rehab", "GLOBALID": "93ec0383-21aa-4e29-a290-77cb9de62165", "ASSET_CLASS": "COURT", "CLASS_CATEGORY": "CT-PICK", "GIS_ASSET_ID": 20406, "INFOR_ASSET_ID": "111842" }, "geometry": { "type": "Point", "coordinates": [ -104.947913095860827, 39.713337517562671 ] } },
{ "type": "Feature", "properties": { "OBJECTID": 11358, "FEATURE": "Pickleball Court", "LOCATION": "Gates Tennis Center", "LOC_CODE": "357", "COURT_NUM": "", "LIGHTS": "Yes", "SURFACE_TYPE": "Post Tension Concrete", "YEAR_BUILT": "2021 - Converted to Pickleball", "YEAR_RESURF": "Use Year Built Field for Latest Rehab", "GLOBALID": "ef0b9cf9-6b1e-411b-bf02-e6b8c472d062", "ASSET_CLASS": "COURT", "CLASS_CATEGORY": "CT-PICK", "GIS_ASSET_ID": 20407, "INFOR_ASSET_ID": "111842" }, "geometry": { "type": "Point", "coordinates": [ -104.947716588530213, 39.71349630869922 ] } },
{ "type": "Feature", "properties": { "OBJECTID": 11359, "FEATURE": "Pickleball Court", "LOCATION": "Gates Tennis Center", "LOC_CODE": "357", "COURT_NUM": "", "LIGHTS": "Yes", "SURFACE_TYPE": "Post Tension Concrete", "YEAR_BUILT": "2021 - Converted to Pickleball", "YEAR_RESURF": "Use Year Built Field for Latest Rehab", "GLOBALID": "cc10ea8a-1941-494f-a145-88018a15f92c", "ASSET_CLASS": "COURT", "CLASS_CATEGORY": "CT-PICK", "GIS_ASSET_ID": 20408, "INFOR_ASSET_ID": "111842" }, "geometry": { "type": "Point", "coordinates": [ -104.947716355512696, 39.71333773796367 ] } },
{ "type": "Feature", "properties": { "OBJECTID": 11360, "FEATURE": "Pickleball Court", "LOCATION": "Gates Tennis Center", "LOC_CODE": "357", "COURT_NUM": "", "LIGHTS": "Yes", "SURFACE_TYPE": "Post Tension Concrete", "YEAR_BUILT": "2021 - Converted to Pickleball", "YEAR_RESURF": "Use Year Built Field for Latest Rehab", "GLOBALID": "eb20cb07-a691-43c6-99e1-b67cbae8a3c3", "ASSET_CLASS": "COURT", "CLASS_CATEGORY": "CT-PICK", "GIS_ASSET_ID": 20409, "INFOR_ASSET_ID": "111842" }, "geometry": { "type": "Point", "coordinates": [ -104.947520505167333, 39.713499248697005 ] } },
{ "type": "Feature", "properties": { "OBJECTID": 11361, "FEATURE": "Pickleball Court", "LOCATION": "Gates Tennis Center", "LOC_CODE": "357", "COURT_NUM": "", "LIGHTS": "Yes", "SURFACE_TYPE": "Post Tension Concrete", "YEAR_BUILT": "2021 - Converted to Pickleball", "YEAR_RESURF": "Use Year Built Field for Latest Rehab", "GLOBALID": "b3cfd1ac-ecdf-4818-b84e-ef5ec3975ceb", "ASSET_CLASS": "COURT", "CLASS_CATEGORY": "CT-PICK", "GIS_ASSET_ID": 20410, "INFOR_ASSET_ID": "111842" }, "geometry": { "type": "Point", "coordinates": [ -104.94751994938332, 39.713334718656448 ] } },
{ "type": "Feature", "properties": { "OBJECTID": 11362, "FEATURE": "Pickleball Court", "LOCATION": "Gates Tennis Center", "LOC_CODE": "357", "COURT_NUM": "", "LIGHTS": "Yes", "SURFACE_TYPE": "Post Tension Concrete", "YEAR_BUILT": "2021 - Converted to Pickleball", "YEAR_RESURF": "Use Year Built Field for Latest Rehab", "GLOBALID": "5fead2a1-7816-41af-b41b-3b5460c8f1a9", "ASSET_CLASS": "COURT", "CLASS_CATEGORY": "CT-PICK", "GIS_ASSET_ID": 20411, "INFOR_ASSET_ID": "111842" }, "geometry": { "type": "Point", "coordinates": [ -104.947327592363237, 39.713499247827734 ] } },
{ "type": "Feature", "properties": { "OBJECTID": 11363, "FEATURE": "Pickleball Court", "LOCATION": "Gates Tennis Center", "LOC_CODE": "357", "COURT_NUM": "", "LIGHTS": "Yes", "SURFACE_TYPE": "Post Tension Concrete", "YEAR_BUILT": "2021 - Converted to Pickleball", "YEAR_RESURF": "Use Year Built Field for Latest Rehab", "GLOBALID": "215b055d-9eed-4f8f-8158-b5f7dc549a73", "ASSET_CLASS": "COURT", "CLASS_CATEGORY": "CT-PICK", "GIS_ASSET_ID": 20412, "INFOR_ASSET_ID": "111842" }, "geometry": { "type": "Point", "coordinates": [ -104.947326912231944, 39.713334907833456 ] } },
{ "type": "Feature", "properties": { "OBJECTID": 13346, "FEATURE": "Pickleball Court", "LOCATION": "Lowry Sports Complex", "LOC_CODE": "L21", "COURT_NUM": "3", "LIGHTS": "No", "SURFACE_TYPE": "Post Tension Concrete", "YEAR_BUILT": "2026", "YEAR_RESURF": null, "GLOBALID": "0dbc2854-ec46-4ceb-92e0-9b5887eca6c7", "ASSET_CLASS": "COURT", "CLASS_CATEGORY": "CT-PICK", "GIS_ASSET_ID": 20422, "INFOR_ASSET_ID": null }, "geometry": { "type": "Point", "coordinates": [ -104.891458279078435, 39.717430203484533 ] } },
{ "type": "Feature", "properties": { "OBJECTID": 13347, "FEATURE": "Pickleball Court", "LOCATION": "Rosamond Park", "LOC_CODE": "621", "COURT_NUM": "1", "LIGHTS": "No", "SURFACE_TYPE": "Post Tension Concrete", "YEAR_BUILT": "2026", "YEAR_RESURF": "Use Year Built Field for Latest Rehab", "GLOBALID": "41b136d0-00ed-448f-ade8-60189441caf9", "ASSET_CLASS": "COURT", "CLASS_CATEGORY": "CT-PICK", "GIS_ASSET_ID": 20417, "INFOR_ASSET_ID": null }, "geometry": { "type": "Point", "coordinates": [ -104.89585724658491, 39.639128917658581 ] } },
{ "type": "Feature", "properties": { "OBJECTID": 13348, "FEATURE": "Pickleball Court", "LOCATION": "Rosamond Park", "LOC_CODE": "621", "COURT_NUM": "2", "LIGHTS": "No", "SURFACE_TYPE": "Post Tension Concrete", "YEAR_BUILT": "2026", "YEAR_RESURF": "Use Year Built Field for Latest Rehab", "GLOBALID": "4d85042e-04ff-4a65-a2fe-29e2af26eb63", "ASSET_CLASS": "COURT", "CLASS_CATEGORY": "CT-PICK", "GIS_ASSET_ID": 20418, "INFOR_ASSET_ID": null }, "geometry": { "type": "Point", "coordinates": [ -104.895750479238401, 39.639129385300187 ] } },
{ "type": "Feature", "properties": { "OBJECTID": 13349, "FEATURE": "Pickleball Court", "LOCATION": "Lowry Sports Complex", "LOC_CODE": "L21", "COURT_NUM": "4", "LIGHTS": "No", "SURFACE_TYPE": "Post Tension Concrete", "YEAR_BUILT": "2026", "YEAR_RESURF": null, "GLOBALID": "5b4a583c-6fb2-495f-9086-c50f09c9a34c", "ASSET_CLASS": "COURT", "CLASS_CATEGORY": "CT-PICK", "GIS_ASSET_ID": 20423, "INFOR_ASSET_ID": null }, "geometry": { "type": "Point", "coordinates": [ -104.891394393068197, 39.717363920903139 ] } },
{ "type": "Feature", "properties": { "OBJECTID": 13350, "FEATURE": "Pickleball Court", "LOCATION": "Lowry Sports Complex", "LOC_CODE": "L21", "COURT_NUM": "1", "LIGHTS": "No", "SURFACE_TYPE": "Post Tension Concrete", "YEAR_BUILT": "2026", "YEAR_RESURF": null, "GLOBALID": "64af65d5-84fa-4f1e-8402-806004fb6b49", "ASSET_CLASS": "COURT", "CLASS_CATEGORY": "CT-PICK", "GIS_ASSET_ID": 20420, "INFOR_ASSET_ID": null }, "geometry": { "type": "Point", "coordinates": [ -104.891586077672557, 39.717563374695054 ] } },
{ "type": "Feature", "properties": { "OBJECTID": 13351, "FEATURE": "Pickleball Court", "LOCATION": "Rosamond Park", "LOC_CODE": "621", "COURT_NUM": "3", "LIGHTS": "No", "SURFACE_TYPE": "Post Tension Concrete", "YEAR_BUILT": "2026", "YEAR_RESURF": "Use Year Built Field for Latest Rehab", "GLOBALID": "a0c10901-092b-4afb-9c44-73d0f5315027", "ASSET_CLASS": "COURT", "CLASS_CATEGORY": "CT-PICK", "GIS_ASSET_ID": 20419, "INFOR_ASSET_ID": null }, "geometry": { "type": "Point", "coordinates": [ -104.895643254097337, 39.639128717434083 ] } },
{ "type": "Feature", "properties": { "OBJECTID": 13352, "FEATURE": "Pickleball Court", "LOCATION": "Lowry Sports Complex", "LOC_CODE": "L21", "COURT_NUM": "5", "LIGHTS": "No", "SURFACE_TYPE": "Post Tension Concrete", "YEAR_BUILT": "2026", "YEAR_RESURF": null, "GLOBALID": "ab82d254-6d3d-4596-a03b-5a7b508b5a1e", "ASSET_CLASS": "COURT", "CLASS_CATEGORY": "CT-PICK", "GIS_ASSET_ID": 20424, "INFOR_ASSET_ID": null }, "geometry": { "type": "Point", "coordinates": [ -104.89132970405737, 39.717297768904473 ] } },
{ "type": "Feature", "properties": { "OBJECTID": 13353, "FEATURE": "Pickleball Court", "LOCATION": "Lowry Sports Complex", "LOC_CODE": "L21", "COURT_NUM": "2", "LIGHTS": "No", "SURFACE_TYPE": "Post Tension Concrete", "YEAR_BUILT": "2026", "YEAR_RESURF": null, "GLOBALID": "c736575d-16fd-4eb3-b746-7b4d62bebc95", "ASSET_CLASS": "COURT", "CLASS_CATEGORY": "CT-PICK", "GIS_ASSET_ID": 20421, "INFOR_ASSET_ID": null }, "geometry": { "type": "Point", "coordinates": [ -104.891522398613063, 39.717496952729164 ] } }
]
}
