{
"type": "FeatureCollection",
"name": "Recreation_Centers",
"crs": { "type": "name", "properties": { "name": "urn:ogc:def:crs:OGC:1.3:CRS84" } },
"features": [
{ "type": "Feature", "properties": { "REC_NAME": "Scheitler Recreation Center", "LOC_CODE": "RB2", "ADDRESS_ID": 0.0, "ADDRESS_LI": "5031 W 46th Ave", "ADDRESS__1": "<Null>", "CITY": "Denver", "STATE": "CO", "ZIP": null, "PHONE": "720-865-0640", "REC_TYPE": "Regional", "MARKETING_": "RF", "MARKETED_F": "Dance Space, Gym (Small), Lockers, Meeting Room, Pool (Indoor), Pool (Outdoor), Showers, Weight Room", "MARKETED_P": "Aquatics, Arts & Culture, Fitness & Health, Seniors, Social Enrichment Clubs & Activities, Special Events, Sports", "PROGRAMS_L": "documents/northwest.pdf", "POOL_HOURS": null, "NEWS_LINK": "www.denvergov.org/Government/Agencies-Departments-Offices/Agencies-Departments-Offices-Directory/Parks-Recreation/Recreation-Centers-Pools/Recreation-Centers/Scheitler-Recreation-Center", "HOURS": "documents/Recreation/Regional_Hours.pdf", "PHOTO": "images/recctrs/scheitlerrc.jpg", "YEAR_BUILT": "1972", "YEAR_REMOD": "1976, 1981, 1992", "BLDG_SQFT": 26801.0, "LABEL": "Scheitler", "LATITUDE": 39.78138589, "LONGITUDE": -105.05123738, "FACILITIES": "Senior Center,Indoor Pool,Gym (Reg. Size),Weight Room,Cardio Eqpmt,Aerobics,Arts & Crafts,Game Room,Billiards,Dance,Meeting space,Woodshop,Kitchen", "GLOBALID": "0420b597-b5a7-4153-96d0-fca8e78234af" }, "geometry": { "type": "Point", "coordinates": [ -105.051247412879448, 39.781392339674781 ] } },
{ "type": "Feature", "properties": { "REC_NAME": "Aztlan Recreation Center", "LOC_CODE": "RA3", "ADDRESS_ID": 0.0, "ADDRESS_LI": "4435 Navajo St", "ADDRESS__1": null, "CITY": "Denver", "STATE": "CO", "ZIP": null, "PHONE": "720-865-4380", "REC_TYPE": "Neighborhood", "MARKETING_": "RF", "MARKETED_F": "Gym (Small), Lockers, Pool (Outdoor), Showers, Weight Room, Meeting Room", "MARKETED_P": "Aquatics, Arts & Culture, Education, Fitness & Health, Seniors, Social Enrichment Clubs & Activities, Special Events, Sports", "PROGRAMS_L": "documents/northwest.pdf", "POOL_HOURS": null, "NEWS_LINK": "www.denvergov.org/Government/Agencies-Departments-Offices/Agencies-Departments-Offices-Directory/Parks-Recreation/Recreation-Centers-Pools/Recreation-Centers/Aztlan-Recreation-Center", "HOURS": "documents/Recreation/Neighborhood_Hours.pdf", "PHOTO": "images/recctrs/aztlanrc.jpg", "YEAR_BUILT": "1975", "YEAR_REMOD": "Unknown", "BLDG_SQFT": 10188.0, "LABEL": "Aztlan", "LATITUDE": 39.77751465, "LONGITUDE": -105.00450919, "FACILITIES": "Outdoor Pool,Gym (Reg. Size),Weight Room,Aerobics,Arts & Crafts,Pottery/Kiln,Game Room,Billiards,Kitchen", "GLOBALID": "df0bae22-8469-4c51-b6cf-5601662ff55e" }, "geometry": { "type": "Point", "coordinates": [ -105.004519207051629, 39.77752110467172 ] } },
{ "type": "Feature", "properties": { "REC_NAME": "Highland Recreation Center", "LOC_CODE": "SH1", "ADDRESS_ID": 0.0, "ADDRESS_LI": "2880 Osceloa St", "ADDRESS__1": null, "CITY": "Denver", "STATE": "CO", "ZIP": null, "PHONE": "720-865-0600", "REC_TYPE": "Neighborhood", "MARKETING_": "RF", "MARKETED_F": "Dance Space, Meeting Room, Weight Room", "MARKETED_P": "Arts & Culture, Education, Fitness & Health, Seniors, Social Enrichment Clubs & Activities, Special Events", "PROGRAMS_L": "documents/northwest.pdf", "POOL_HOURS": null, "NEWS_LINK": "www.denvergov.org/Government/Agencies-Departments-Offices/Agencies-Departments-Offices-Directory/Parks-Recreation/Recreation-Centers-Pools/Recreation-Centers/Highland-Recreation-Center", "HOURS": "documents/Recreation/Neighborhood_Hours.pdf", "PHOTO": "images/recctrs/highlandrc.jpg", "YEAR_BUILT": "1978", "YEAR_REMOD": "Unknown", "BLDG_SQFT": 10196.0, "LABEL": "Highland", "LATITUDE": 39.75819815, "LONGITUDE": -105.03771405000001, "FACILITIES": "Senior Center,,Cardio Eqpmt,Aerobics,Arts & Crafts,Pottery/Kiln,Billiards,Dance,Meeting space,Kitchen", "GLOBALID": "673b3014-9f58-4cbc-a06e-f92962f92961" }, "geometry": { "type": "Point", "coordinates": [ -105.037724075608168, 39.758204602825721 ] } },
{ "type": "Feature", "properties": { "REC_NAME": "Ashland Recreation Center", "LOC_CODE": "RA1", "ADDRESS_ID": 0.0, "ADDRESS_LI": "2475 W Dunkeld Pl", "ADDRESS__1": null, "CITY": "Denver", "STATE": "CO", "ZIP": null, "PHONE": "720-865-0510", "REC_TYPE": "Local", "MARKETING_": "RF", "MARKETED_F": "Gym (Small), Lockers, Pool (Indoor), Showers, Water Feature, Weight Room, Meeting Room", "MARKETED_P": "Aquatics, Arts & Culture, Fitness & Health, Seniors, Sports", "PROGRAMS_L": "documents/northwest.pdf", "POOL_HOURS": null, "NEWS_LINK": "www.denvergov.org/Government/Agencies-Departments-Offices/Agencies-Departments-Offices-Directory/Parks-Recreation/Recreation-Centers-Pools/Recreation-Centers/Ashland-Recreation-Center", "HOURS": "documents/Recreation/Local_Hours.pdf", "PHOTO": "images/recctrs/ashlandrc.jpg", "YEAR_BUILT": "1972", "YEAR_REMOD": "1981", "BLDG_SQFT": 10354.0, "LABEL": "Ashland", "LATITUDE": 39.75985705, "LONGITUDE": -105.01772365, "FACILITIES": "Indoor Pool,Indoor Kiddie Pool,Gym (Non Reg. Size),Weight Room,Cardio Eqpmt,Aerobics,Arts & Crafts,Pottery/Kiln,Game Room,Billiards", "GLOBALID": "6b8075f4-dae7-4d90-8ce7-3df3053e93a7" }, "geometry": { "type": "Point", "coordinates": [ -105.017733672094408, 39.759863504611182 ] } },
{ "type": "Feature", "properties": { "REC_NAME": "5090 Broadway Recreation Center", "LOC_CODE": "RS2", "ADDRESS_ID": 0.0, "ADDRESS_LI": "5090 Broadway", "ADDRESS__1": null, "CITY": "Denver", "STATE": "CO", "ZIP": null, "PHONE": "720-865-2150", "REC_TYPE": "Neighborhood", "MARKETING_": "RF", "MARKETED_F": "Gym (Large), Meeting Room, Showers, Weight Room", "MARKETED_P": "Arts & Culture, Education, Fitness & Health, Seniors, Social Enrichment Clubs & Activities, Special Events, Sports", "PROGRAMS_L": "documents/northwest.pdf", "POOL_HOURS": null, "NEWS_LINK": "www.denvergov.org/Government/Agencies-Departments-Offices/Agencies-Departments-Offices-Directory/Parks-Recreation/Recreation-Centers-Pools/Recreation-Centers/5090-Broadway-Recreation-Center", "HOURS": "documents/Recreation/Neighborhood_Hours.pdf", "PHOTO": "images/recctrs/stapletonrc.jpg", "YEAR_BUILT": "1970", "YEAR_REMOD": "1982, 1993", "BLDG_SQFT": 12524.0, "LABEL": "Stapleton", "LATITUDE": 39.78887183, "LONGITUDE": -104.98721497, "FACILITIES": "Gym (Reg. Size),Weight Room,Cardio Eqpmt,Arts & Crafts,Pottery/Kiln,Game Room,Billiards,Meeting space,Kitchen", "GLOBALID": "c0af9a65-49c3-46e6-a8e8-0c7d056b4dca" }, "geometry": { "type": "Point", "coordinates": [ -104.987224988315404, 39.788878285943404 ] } },
{ "type": "Feature", "properties": { "REC_NAME": "Globeville Recreation Center", "LOC_CODE": "RG2", "ADDRESS_ID": 0.0, "ADDRESS_LI": "4496 Grant St", "ADDRESS__1": null, "CITY": "Denver", "STATE": "CO", "ZIP": null, "PHONE": "303-294-1800", "REC_TYPE": "Neighborhood", "MARKETING_": "T", "MARKETED_F": "This facility is in transition and currently serves as Citywide Sports headquarters.", "MARKETED_P": "Arts & Culture, Education, Fitness & Health, Social Enrichment Clubs & Activities, Special Events, Sports", "PROGRAMS_L": "documents/partner.pdf", "POOL_HOURS": null, "NEWS_LINK": null, "HOURS": null, "PHOTO": "images/recctrs/globevillerc.jpg", "YEAR_BUILT": "1930", "YEAR_REMOD": "1978", "BLDG_SQFT": 9560.0, "LABEL": "Globeville", "LATITUDE": 39.77807254, "LONGITUDE": -104.98322996, "FACILITIES": "Gym (Non Reg. Size),Arts & Crafts,Billiards,Kitchen", "GLOBALID": "a09dc921-7147-4b01-a384-013d2eaec84a" }, "geometry": { "type": "Point", "coordinates": [ -104.98323998077521, 39.778078998490237 ] } },
{ "type": "Feature", "properties": { "REC_NAME": "St Charles Recreation Center", "LOC_CODE": "RS3", "ADDRESS_ID": 0.0, "ADDRESS_LI": "3777 Lafayette St", "ADDRESS__1": null, "CITY": "Denver", "STATE": "CO", "ZIP": null, "PHONE": "720-865-2190", "REC_TYPE": "Neighborhood", "MARKETING_": "RF", "MARKETED_F": "Gym (Large), Gym (Small), Lockers, Meeting Room, Showers, Weight Room", "MARKETED_P": "Arts & Culture, Education, Fitness & Health, Social Enrichment Clubs & Activities, Special Events, Sports", "PROGRAMS_L": "documents/northeast.pdf", "POOL_HOURS": null, "NEWS_LINK": "www.denvergov.org/Government/Agencies-Departments-Offices/Agencies-Departments-Offices-Directory/Parks-Recreation/Recreation-Centers-Pools/Recreation-Centers/St.-Charles-Recreation-Center", "HOURS": "documents/Recreation/Neighborhood_Hours.pdf", "PHOTO": "images/recctrs/stcharlesrc.jpg", "YEAR_BUILT": "1975", "YEAR_REMOD": "1987", "BLDG_SQFT": 16519.0, "LABEL": "St Charles", "LATITUDE": 39.76943178, "LONGITUDE": -104.97121964, "FACILITIES": "Gym (Reg. Size),Weight Room,Cardio Eqpmt,Arts & Crafts,Pottery/Kiln,Game Room,Billiards,Meeting space,Kitchen", "GLOBALID": "75f9f41a-7905-401e-888f-91f03be933aa" }, "geometry": { "type": "Point", "coordinates": [ -104.97122965547436, 39.769438230066022 ] } },
{ "type": "Feature", "properties": { "REC_NAME": "Glenarm Recreation Center", "LOC_CODE": "RG1", "ADDRESS_ID": 0.0, "ADDRESS_LI": "2800 Glenarm Pl", "ADDRESS__1": null, "CITY": "Denver", "STATE": "CO", "ZIP": null, "PHONE": "720-865-3380", "REC_TYPE": "Local", "MARKETING_": "RF", "MARKETED_F": "Dance Space, Gym (Large), Lockers, Meeting Room, Pool (Indoor), Racquetball, Showers, Weight Room", "MARKETED_P": "Aquatics, Arts & Culture, Fitness & Health, Social Enrichment Clubs & Activities, Special Events, Sports", "PROGRAMS_L": "documents/northeast.pdf", "POOL_HOURS": null, "NEWS_LINK": "www.denvergov.org/Government/Agencies-Departments-Offices/Agencies-Departments-Offices-Directory/Parks-Recreation/Recreation-Centers-Pools/Recreation-Centers/Glenarm-Recreation-Center", "HOURS": "documents/Recreation/Local_Hours.pdf", "PHOTO": "images/recctrs/glenarmrc.jpg", "YEAR_BUILT": "1983", "YEAR_REMOD": "2009", "BLDG_SQFT": 18731.0, "LABEL": "Glenarm", "LATITUDE": 39.75505737, "LONGITUDE": -104.97521822, "FACILITIES": "Indoor Pool,Indoor Kiddie Pool,Gym (Reg. Size),Weight Room,Cardio Eqpmt,Aerobics,Arts & Crafts,Pottery/Kiln,Game Room,Racquetball,Computer Lab,Dance,Meeting space,Kitchen", "GLOBALID": "3c154fff-34c7-47d1-b6a7-6f73a35c484c" }, "geometry": { "type": "Point", "coordinates": [ -104.975228229471028, 39.755063820497519 ] } },
{ "type": "Feature", "properties": { "REC_NAME": "Twentieth St Recreation Center", "LOC_CODE": "RT1", "ADDRESS_ID": 0.0, "ADDRESS_LI": "1011 20th St", "ADDRESS__1": null, "CITY": "Denver", "STATE": "CO", "ZIP": null, "PHONE": "720-865-0520", "REC_TYPE": "Local", "MARKETING_": "RF", "MARKETED_F": "Gym (Small), Lockers, Pool (Indoor), Showers, Weight Room, Boxing Studio, Fitness Studio, Cardio Area", "MARKETED_P": "Aquatics, Arts & Culture, Education, Fitness & Health, Seniors, Social Enrichment Clubs & Activities, Sports", "PROGRAMS_L": "documents/northwest.pdf", "POOL_HOURS": null, "NEWS_LINK": "www.denvergov.org/Government/Agencies-Departments-Offices/Agencies-Departments-Offices-Directory/Parks-Recreation/Recreation-Centers-Pools/Recreation-Centers/Twentieth-Street-Recreation-Center", "HOURS": "documents/Recreation/Local_Hours.pdf", "PHOTO": "images/recctrs/twentiethrc.jpg", "YEAR_BUILT": "1908", "YEAR_REMOD": "Unknown", "BLDG_SQFT": 32395.0, "LABEL": "Twentieth St", "LATITUDE": 39.75137226, "LONGITUDE": -104.989985, "FACILITIES": "Indoor Pool,Gym (Non Reg. Size),Weight Room,Cardio Eqpmt,Aerobics,Arts & Crafts,Pottery/Kiln,Meeting space,Kitchen", "GLOBALID": "fb8681c2-e9ba-4534-9f40-fe28a449f45a" }, "geometry": { "type": "Point", "coordinates": [ -104.989995010706764, 39.751378715181104 ] } },
{ "type": "Feature", "properties": { "REC_NAME": "La Alma Recreation Center", "LOC_CODE": "RL1", "ADDRESS_ID": 0.0, "ADDRESS_LI": "1325 W 11th Ave", "ADDRESS__1": null, "CITY": "Denver", "STATE": "CO", "ZIP": null, "PHONE": "720-865-2200", "REC_TYPE": "Neighborhood", "MARKETING_": "RF", "MARKETED_F": "Gym (Small), Lockers, Meeting Room, Pool (Outdoor), Showers, Weight Room", "MARKETED_P": "Aquatics, Arts & Culture, Education, Fitness & Health, Seniors, Social Enrichment Clubs & Activities, Special Events, Sports", "PROGRAMS_L": "documents/southwest.pdf", "POOL_HOURS": null, "NEWS_LINK": "www.denvergov.org/Government/Agencies-Departments-Offices/Agencies-Departments-Offices-Directory/Parks-Recreation/Recreation-Centers-Pools/Recreation-Centers/La-Alma-Recreation-Center", "HOURS": "documents/Recreation/Neighborhood_Hours.pdf", "PHOTO": "images/recctrs/laalmarc.jpg", "YEAR_BUILT": "1974", "YEAR_REMOD": "1977", "BLDG_SQFT": 17628.0, "LABEL": "La Alma", "LATITUDE": 39.73456579, "LONGITUDE": -105.00438137, "FACILITIES": "Senior Center,,Outdoor Pool,Outdoor Kiddie Pool,Gym (Non Reg. Size),Weight Room,Cardio Eqpmt,Aerobics,Arts & Crafts,Pottery/Kiln,Game Room,Tennis Court,Billiards,Meeting space,Kitchen", "GLOBALID": "e64473f0-9b7e-4643-aaa5-a90ff9718485" }, "geometry": { "type": "Point", "coordinates": [ -105.004391384560421, 39.734572238130937 ] } },
{ "type": "Feature", "properties": { "REC_NAME": "Rude Recreation Center", "LOC_CODE": "RR1", "ADDRESS_ID": 0.0, "ADDRESS_LI": "2855 W Holden Pl", "ADDRESS__1": null, "CITY": "Denver", "STATE": "CO", "ZIP": null, "PHONE": "720-865-0570", "REC_TYPE": "Regional", "MARKETING_": "RF", "MARKETED_F": "Gym (Large), Lockers, Meeting Room, Pool (Indoor), Showers, Water Feature, Weight Room", "MARKETED_P": "Aquatics, Arts & Culture, Education, Fitness & Health, Seniors, Social Enrichment Clubs & Activities, Special Events, Sports", "PROGRAMS_L": "documents/southwest.pdf", "POOL_HOURS": null, "NEWS_LINK": "www.denvergov.org/Government/Agencies-Departments-Offices/Agencies-Departments-Offices-Directory/Parks-Recreation/Recreation-Centers-Pools/Recreation-Centers/Rude-Recreation-Center", "HOURS": "documents/Recreation/Regional_Hours.pdf", "PHOTO": "images/recctrs/ruderc.jpg", "YEAR_BUILT": "2003", "YEAR_REMOD": "None", "BLDG_SQFT": 41021.0, "LABEL": "Rude", "LATITUDE": 39.73642296, "LONGITUDE": -105.02315651000001, "FACILITIES": "Indoor Pool,Indoor Kiddie Pool,Gym (Reg. Size),Weight Room,Cardio Eqpmt,Aerobics,Arts & Crafts,Game Room,Billiards,Meeting space,Kitchen", "GLOBALID": "225b5b5f-2603-4c62-8b61-349b0c14fd6a" }, "geometry": { "type": "Point", "coordinates": [ -105.023166532979403, 39.736429407324515 ] } },
{ "type": "Feature", "properties": { "REC_NAME": "Barnum Recreation Center", "LOC_CODE": "RB1", "ADDRESS_ID": 0.0, "ADDRESS_LI": "360 Hooker St", "ADDRESS__1": null, "CITY": "Denver", "STATE": "CO", "ZIP": null, "PHONE": "720-865-0350", "REC_TYPE": "Neighborhood", "MARKETING_": "RF", "MARKETED_F": "Dance Space, Gym (Large), Lockers, Meeting Room, Pool (Outdoor), Showers, Weight Room", "MARKETED_P": "Aquatics, Arts & Culture, Education, Fitness & Health, Seniors, Social Enrichment Clubs & Activities, Special Events, Sports", "PROGRAMS_L": "documents/southwest.pdf", "POOL_HOURS": null, "NEWS_LINK": "www.denvergov.org/Government/Agencies-Departments-Offices/Agencies-Departments-Offices-Directory/Parks-Recreation/Recreation-Centers-Pools/Recreation-Centers/Barnum-Recreation-Center", "HOURS": "documents/Recreation/Neighborhood_Hours.pdf", "PHOTO": "images/recctrs/barnumrc.jpg", "YEAR_BUILT": "1968", "YEAR_REMOD": "1976, 1978", "BLDG_SQFT": 19494.0, "LABEL": "Barnum", "LATITUDE": 39.72226346, "LONGITUDE": -105.02804913, "FACILITIES": "Senior Center,,Outdoor Pool,Gym (Reg. Size),Weight Room,Cardio Eqpmt,Aerobics,Climbing Wall,Arts & Crafts,Pottery/Kiln,Computer Lab,Billiards,Dance,Meeting space,Kitchen", "GLOBALID": "143f612f-73ae-4377-9346-6a94dedd4fab" }, "geometry": { "type": "Point", "coordinates": [ -105.028059152444655, 39.722269901467307 ] } },
{ "type": "Feature", "properties": { "REC_NAME": "La Familia Recreation Center", "LOC_CODE": "RL2", "ADDRESS_ID": 0.0, "ADDRESS_LI": "65 S Elati St", "ADDRESS__1": null, "CITY": "Denver", "STATE": "CO", "ZIP": null, "PHONE": "720-865-2170", "REC_TYPE": "Local", "MARKETING_": "RF", "MARKETED_F": "Gym (Large), Lockers, Meeting Room, Pool (Indoor), Showers, Weight Room", "MARKETED_P": "Aquatics, Arts & Culture, Fitness & Health, Seniors, Special Events, Sports", "PROGRAMS_L": "documents/southeast.pdf", "POOL_HOURS": null, "NEWS_LINK": "www.denvergov.org/Government/Agencies-Departments-Offices/Agencies-Departments-Offices-Directory/Parks-Recreation/Recreation-Centers-Pools/Recreation-Centers/La-Familia-Recreation-Center", "HOURS": "documents/Recreation/Local_Hours.pdf", "PHOTO": "images/recctrs/lafamiliarc.jpg", "YEAR_BUILT": "1970", "YEAR_REMOD": "1997", "BLDG_SQFT": 21864.0, "LABEL": "La Familia", "LATITUDE": 39.71570948, "LONGITUDE": -104.99436418000001, "FACILITIES": "Senior Center,Indoor Pool,Indoor Kiddie Pool,Gym (Reg. Size),Weight Room,Cardio Eqpmt,Aerobics,Arts & Crafts,Pottery/Kiln,Game Room,Tennis Court,Billiards,Meeting space,Kitchen", "GLOBALID": "9f6d2a7c-7209-4d8a-8ea9-1168860a6304" }, "geometry": { "type": "Point", "coordinates": [ -104.994374191345003, 39.715715922843948 ] } },
{ "type": "Feature", "properties": { "REC_NAME": "Athmar Recreation Center", "LOC_CODE": "RA2", "ADDRESS_ID": 0.0, "ADDRESS_LI": "2680 W Mexico Ave", "ADDRESS__1": null, "CITY": "Denver", "STATE": "CO", "ZIP": null, "PHONE": "720-865-2180", "REC_TYPE": "Regional", "MARKETING_": "RF", "MARKETED_F": "Dance Space, Gym (Small), Lockers, Meeting Room, Pool (Indoor), Showers, Weight Room", "MARKETED_P": "Aquatics, Arts & Culture, Day Activity or Sports Camps, Education, Fitness & Health, Seniors, Social Enrichment Clubs & Activities, Special Events, Sports", "PROGRAMS_L": "documents/southwest.pdf", "POOL_HOURS": null, "NEWS_LINK": "www.denvergov.org/Government/Agencies-Departments-Offices/Agencies-Departments-Offices-Directory/Parks-Recreation/Recreation-Centers-Pools/Recreation-Centers/Athmar-Recreation-Center", "HOURS": "documents/Recreation/Regional_Hours.pdf", "PHOTO": "images/recctrs/athmarrc.jpg", "YEAR_BUILT": "Unknown", "YEAR_REMOD": "1996", "BLDG_SQFT": 23391.0, "LABEL": "Athmar", "LATITUDE": 39.68550919, "LONGITUDE": -105.01968598000001, "FACILITIES": "Indoor Pool,Gym (Reg. Size),Weight Room,Aerobics,Kitchen", "GLOBALID": "5c1d52cb-1bad-48c6-b714-c1f853705c1b" }, "geometry": { "type": "Point", "coordinates": [ -105.019695997861163, 39.685515628369636 ] } },
{ "type": "Feature", "properties": { "REC_NAME": "Harvey Park Recreation Center", "LOC_CODE": "RH2", "ADDRESS_ID": 0.0, "ADDRESS_LI": "2120 S Tennyson Way", "ADDRESS__1": null, "CITY": "Denver", "STATE": "CO", "ZIP": null, "PHONE": "720-865-0550", "REC_TYPE": "Local", "MARKETING_": "RF", "MARKETED_F": "Dance Space, Gym (Small), Lockers, Meeting Room, Pool (Outdoor), Showers, Weight Room", "MARKETED_P": "Aquatics, Arts & Culture, Education, Fitness & Health, Special Events, Sports", "PROGRAMS_L": "documents/southwest.pdf", "POOL_HOURS": null, "NEWS_LINK": "www.denvergov.org/Government/Agencies-Departments-Offices/Agencies-Departments-Offices-Directory/Parks-Recreation/Recreation-Centers-Pools/Recreation-Centers/Harvey-Park-Recreation-Center", "HOURS": "documents/Recreation/Local_Hours.pdf", "PHOTO": "images/recctrs/harveyrc.jpg", "YEAR_BUILT": "1975", "YEAR_REMOD": "1995", "BLDG_SQFT": 12020.0, "LABEL": "Harvey Park", "LATITUDE": 39.67826205, "LONGITUDE": -105.04191143, "FACILITIES": "Outdoor Pool,Gym (Non Reg. Size),Weight Room,Cardio Eqpmt,Aerobics,Arts & Crafts,Pottery/Kiln,Game Room,Dance,Meeting space,Kitchen", "GLOBALID": "dbb34c88-4b26-4d70-9207-6f7a8a442d76" }, "geometry": { "type": "Point", "coordinates": [ -105.0419214506054, 39.678268489887692 ] } },
{ "type": "Feature", "properties": { "REC_NAME": "College View Recreation Center", "LOC_CODE": "RC2", "ADDRESS_ID": 0.0, "ADDRESS_LI": "2525 S Decatur St", "ADDRESS__1": null, "CITY": "Denver", "STATE": "CO", "ZIP": null, "PHONE": "303-937-4634", "REC_TYPE": "Neighborhood", "MARKETING_": "RF", "MARKETED_F": "Dance space, Gym (Medium), Meeting Room, Weight/Cardio Room, Boxing Gym (special facility rental), Youth/Adult Lounge", "MARKETED_P": "Arts & Culture, Day Activity or Sports Camps, Education, Fitness & Health, Seniors, Social Enrichment Clubs & Activities, Special Events, Sports", "PROGRAMS_L": "documents/partner.pdf", "POOL_HOURS": null, "NEWS_LINK": "www.denvergov.org/Government/Agencies-Departments-Offices/Agencies-Departments-Offices-Directory/Parks-Recreation/Recreation-Centers-Pools/Recreation-Centers/College-View-Recreation-Center", "HOURS": null, "PHOTO": "images/recctrs/collegeviewrc.jpg", "YEAR_BUILT": "1975", "YEAR_REMOD": "1981, 1987", "BLDG_SQFT": 15953.0, "LABEL": "College View", "LATITUDE": 39.67143829, "LONGITUDE": -105.02320507, "FACILITIES": "Senior Center,,Gym (Reg. Size),Weight Room,Cardio Eqpmt,Aerobics,Arts & Crafts,Pottery/Kiln,Game Room,Computer Lab,Billiards,Dance,Meeting space,Kitchen", "GLOBALID": "60cb20ef-c85a-4bb3-8245-401c07afb8f3" }, "geometry": { "type": "Point", "coordinates": [ -105.023215081858012, 39.671444731730112 ] } },
{ "type": "Feature", "properties": { "REC_NAME": "Harvard Gulch Recreation Center", "LOC_CODE": "RH1", "ADDRESS_ID": 0.0, "ADDRESS_LI": "550 E Iliff Ave", "ADDRESS__1": null, "CITY": "Denver", "STATE": "CO", "ZIP": null, "PHONE": "720-865-0905", "REC_TYPE": "Local", "MARKETING_": "RF", "MARKETED_F": "Gym (Large), Lockers, Meeting Room, Pool (Outdoor), Showers, Weight Room", "MARKETED_P": "Aquatics, Arts & Culture, Education, Fitness & Health, Social Enrichment Clubs & Activities, Special Events, Sports", "PROGRAMS_L": "documents/southeast.pdf", "POOL_HOURS": null, "NEWS_LINK": "www.denvergov.org/Government/Agencies-Departments-Offices/Agencies-Departments-Offices-Directory/Parks-Recreation/Recreation-Centers-Pools/Recreation-Centers/Harvard-Gulch-Recreation-Center", "HOURS": "documents/Recreation/Local_Hours.pdf", "PHOTO": "images/recctrs/harvardrc.jpg", "YEAR_BUILT": "1960's", "YEAR_REMOD": "1991", "BLDG_SQFT": 18392.0, "LABEL": "Harvard Gulch", "LATITUDE": 39.67448939, "LONGITUDE": -104.98107043, "FACILITIES": "Outdoor Pool,Gym (Reg. Size),Weight Room,Cardio Eqpmt,Aerobics,Arts & Crafts,Pottery/Kiln,Game Room,Meeting space,Kitchen", "GLOBALID": "aa321f5a-a754-4f37-bcd9-fea789b6f24f" }, "geometry": { "type": "Point", "coordinates": [ -104.981080435056796, 39.674495830821698 ] } },
{ "type": "Feature", "properties": { "REC_NAME": "Platt Park Senior Center", "LOC_CODE": "SP2", "ADDRESS_ID": 0.0, "ADDRESS_LI": "1500 S Grant St", "ADDRESS__1": null, "CITY": "Denver", "STATE": "CO", "ZIP": null, "PHONE": "720-865-0630", "REC_TYPE": "Neighborhood", "MARKETING_": "RF", "MARKETED_F": "Dance Space, Meeting Room", "MARKETED_P": "Aquatics (using Wash Park Pool), Arts & Culture, Education, Fitness & Health, Seniors, Social Enrichment Clubs & Activities, Special Events", "PROGRAMS_L": "documents/southeast.pdf", "POOL_HOURS": null, "NEWS_LINK": "www.denvergov.org/Government/Agencies-Departments-Offices/Agencies-Departments-Offices-Directory/Parks-Recreation/Recreation-Centers-Pools/Recreation-Centers/Platt-Park-Recreation-Center", "HOURS": "documents/Recreation/Neighborhood_Hours.pdf", "PHOTO": "images/recctrs/platterc.jpg", "YEAR_BUILT": "1978", "YEAR_REMOD": "Unknown", "BLDG_SQFT": 6732.0, "LABEL": "Platt Park Senior Center", "LATITUDE": 39.68905858, "LONGITUDE": -104.98342876, "FACILITIES": "Senior Center,,Aerobics,Arts & Crafts,Pottery/Kiln,Computer Lab,Billiards,Dance,Meeting space,Kitchen", "GLOBALID": "0d89640d-ac57-434f-8cf8-36c1f57a4cf8" }, "geometry": { "type": "Point", "coordinates": [ -104.983438766377972, 39.689065022832594 ] } },
{ "type": "Feature", "properties": { "REC_NAME": "Washington Park Recreation Center", "LOC_CODE": "RW1", "ADDRESS_ID": 0.0, "ADDRESS_LI": "701 S Franklin St", "ADDRESS__1": null, "CITY": "Denver", "STATE": "CO", "ZIP": null, "PHONE": "720-865-3400", "REC_TYPE": "Regional", "MARKETING_": "RF", "MARKETED_F": "Gym (Large), Lockers, Meeting Room, Pool (Indoor), Showers, Weight Room", "MARKETED_P": "Aquatics, Arts & Culture, Fitness & Health, Sports", "PROGRAMS_L": "documents/southeast.pdf", "POOL_HOURS": null, "NEWS_LINK": "www.denvergov.org/Government/Agencies-Departments-Offices/Agencies-Departments-Offices-Directory/Parks-Recreation/Recreation-Centers-Pools/Recreation-Centers/Washington-Park-Recreation-Center", "HOURS": "documents/Recreation/Regional_Hours.pdf", "PHOTO": "images/recctrs/washingtonrc.jpg", "YEAR_BUILT": "1971", "YEAR_REMOD": "1991", "BLDG_SQFT": 24372.0, "LABEL": "Washington Park", "LATITUDE": 39.70263409, "LONGITUDE": -104.97052794, "FACILITIES": "Indoor Pool,Gym (Reg. Size),Weight Room,Cardio Eqpmt,Aerobics,Arts & Crafts,Pottery/Kiln,Tennis Court,Meeting space,Kitchen", "GLOBALID": "c7ac2b02-6b0c-49aa-af98-9601d56b966a" }, "geometry": { "type": "Point", "coordinates": [ -104.970537946936474, 39.702640530335501 ] } },
{ "type": "Feature", "properties": { "REC_NAME": "Southwest Recreation Center", "LOC_CODE": "RS5", "ADDRESS_ID": 0.0, "ADDRESS_LI": "9200 W Saratoga Pl", "ADDRESS__1": null, "CITY": "Denver", "STATE": "CO", "ZIP": null, "PHONE": "720-865-0670", "REC_TYPE": "Local", "MARKETING_": "RF", "MARKETED_F": "Dance Space, Gym (Large), Lockers, Meeting Room, Pool (Outdoor), Showers, Weight Room", "MARKETED_P": "Aquatics, Arts & Culture, Day Activity or Sports Camps, Education, Fitness & Health, Seniors, Social Enrichment Clubs & Activities, Special Events, Sports", "PROGRAMS_L": "documents/southwest.pdf", "POOL_HOURS": null, "NEWS_LINK": "www.denvergov.org/Government/Agencies-Departments-Offices/Agencies-Departments-Offices-Directory/Parks-Recreation/Recreation-Centers-Pools/Recreation-Centers/Southwest-Recreation-Center", "HOURS": "documents/Recreation/Local_Hours.pdf", "PHOTO": "images/recctrs/southwestrc.jpg", "YEAR_BUILT": "1993", "YEAR_REMOD": "Unknown", "BLDG_SQFT": 14478.0, "LABEL": "Southwest", "LATITUDE": 39.62916791, "LONGITUDE": -105.09951716, "FACILITIES": "Outdoor Pool,Gym (Reg. Size),Weight Room,Cardio Eqpmt,Aerobics,Arts & Crafts,Dance,Meeting space,Kitchen", "GLOBALID": "167080a1-0682-4693-9179-95e1ea1a5bce" }, "geometry": { "type": "Point", "coordinates": [ -105.099527183213084, 39.629174336040506 ] } },
{ "type": "Feature", "properties": { "REC_NAME": "Eisenhower Recreation Center", "LOC_CODE": "RE1", "ADDRESS_ID": 0.0, "ADDRESS_LI": "4300 E Dartmouth Ave", "ADDRESS__1": null, "CITY": "Denver", "STATE": "CO", "ZIP": null, "PHONE": "720-865-0730", "REC_TYPE": "Local", "MARKETING_": "RF", "MARKETED_F": "Dance Space, Gym (Small), Lockers, Meeting Room, Pool (Outdoor), Showers, Weight Room", "MARKETED_P": "Aquatics, Arts & Culture, Fitness & Health, Social Enrichment Clubs & Activities, Special Events, Sports", "PROGRAMS_L": "documents/southeast.pdf", "POOL_HOURS": null, "NEWS_LINK": "www.denvergov.org/Government/Agencies-Departments-Offices/Agencies-Departments-Offices-Directory/Parks-Recreation/Recreation-Centers-Pools/Recreation-Centers/Eisenhower-Recreation-Center", "HOURS": "documents/Recreation/Local_Hours.pdf", "PHOTO": "images/recctrs/eisenhowerrc.jpg", "YEAR_BUILT": "1975", "YEAR_REMOD": "1990", "BLDG_SQFT": 14192.0, "LABEL": "Eisenhower", "LATITUDE": 39.65960472, "LONGITUDE": -104.93740949, "FACILITIES": "Outdoor Pool,Gym (Non Reg. Size),Weight Room,Cardio Eqpmt,Aerobics,Arts & Crafts,Pottery/Kiln,Tennis Court,Billiards,Dance,Meeting space,Kitchen", "GLOBALID": "432cdb6b-4287-43e8-a7e4-f3e6e4b6c87d" }, "geometry": { "type": "Point", "coordinates": [ -104.937419481572334, 39.659611160366325 ] } },
{ "type": "Feature", "properties": { "REC_NAME": "Cook Park Recreation Center", "LOC_CODE": "RC3", "ADDRESS_ID": 0.0, "ADDRESS_LI": "7100 Cherry Creek South Dr", "ADDRESS__1": null, "CITY": "Denver", "STATE": "CO", "ZIP": null, "PHONE": "720-865-0610", "REC_TYPE": "Local", "MARKETING_": "RF", "MARKETED_F": "Dance Space, Gym (Small), Lockers, Meeting Rooms (2 small, 1 Large), Pool (Outdoor), Showers, Weight Room, Youth Lounge, Art Studio", "MARKETED_P": "Aquatics, Arts & Culture, Day Activity or Sports Camps, Education, Fitness & Health, Seniors, Social Enrichment Clubs & Activities, Special Events, Sports", "PROGRAMS_L": "documents/southeast.pdf", "POOL_HOURS": null, "NEWS_LINK": "www.denvergov.org/Government/Agencies-Departments-Offices/Agencies-Departments-Offices-Directory/Parks-Recreation/Recreation-Centers-Pools/Recreation-Centers/Cook-Park-Recreation-Center", "HOURS": "documents/Recreation/Local_Hours.pdf", "PHOTO": "images/recctrs/cookrc.jpg", "YEAR_BUILT": "1972", "YEAR_REMOD": "1998", "BLDG_SQFT": 20424.0, "LABEL": "Cook Park", "LATITUDE": 39.68704713, "LONGITUDE": -104.90893371, "FACILITIES": "Outdoor Pool,Gym (Non Reg. Size),Weight Room,Cardio Eqpmt,Aerobics,Arts & Crafts,Pottery/Kiln,Game Room,Computer Lab,Billiards,Dance,Meeting space,Kitchen", "GLOBALID": "a45b5474-098e-4ea7-9c3b-50240d9a50ea" }, "geometry": { "type": "Point", "coordinates": [ -104.908943700155532, 39.68705357512502 ] } },
{ "type": "Feature", "properties": { "REC_NAME": "Montclair Recreation Center", "LOC_CODE": "RM2", "ADDRESS_ID": 0.0, "ADDRESS_LI": "729 Ulster Way", "ADDRESS__1": null, "CITY": "Denver", "STATE": "CO", "ZIP": null, "PHONE": "720-865-0560", "REC_TYPE": "Regional", "MARKETING_": "RF", "MARKETED_F": "Gym (Large), Lockers, Meeting Room, Pool (Indoor), Showers, Water Feature, Weight Room", "MARKETED_P": "Aquatics, Arts & Culture, Fitness & Health, Social Enrichment Clubs & Activities, Special Events, Sports", "PROGRAMS_L": "documents/southeast.pdf", "POOL_HOURS": null, "NEWS_LINK": "www.denvergov.org/Government/Agencies-Departments-Offices/Agencies-Departments-Offices-Directory/Parks-Recreation/Recreation-Centers-Pools/Recreation-Centers/Montclair-Recreation-Center", "HOURS": "documents/Recreation/Regional_Hours.pdf", "PHOTO": "images/recctrs/montclairrc.jpg", "YEAR_BUILT": "1996", "YEAR_REMOD": "2006", "BLDG_SQFT": 37852.0, "LABEL": "Montclair", "LATITUDE": 39.72737958, "LONGITUDE": -104.89469336000001, "FACILITIES": "Senior Center,Indoor Pool,Indoor Kiddie Pool,Gym (Reg. Size),Cardio Eqpmt,Aerobics,Arts & Crafts,Pottery/Kiln,Game Room,Billiards,Meeting space,Kitchen", "GLOBALID": "87e44790-7012-4799-b93f-005ca6ba1eeb" }, "geometry": { "type": "Point", "coordinates": [ -104.894703346523102, 39.727386030311244 ] } },
{ "type": "Feature", "properties": { "REC_NAME": "Johnson Recreation Center", "LOC_CODE": "RJ1", "ADDRESS_ID": 0.0, "ADDRESS_LI": "4809 Race St", "ADDRESS__1": null, "CITY": "Denver", "STATE": "CO", "ZIP": null, "PHONE": "720-865-5660", "REC_TYPE": "Neighborhood", "MARKETING_": "RF", "MARKETED_F": "Gym, Aerobics Room, Showers, Lockers, Multipurpose Room, Weight and Cardio Room, Racquetball", "MARKETED_P": "Arts & Culture, Education, Fitness & Health, Seniors, Social Enrichment Clubs & Activities, Special Events, Sports", "PROGRAMS_L": "documents/partner.pdf", "POOL_HOURS": null, "NEWS_LINK": "www.denvergov.org/Government/Agencies-Departments-Offices/Agencies-Departments-Offices-Directory/Parks-Recreation/Recreation-Centers-Pools/Recreation-Centers/Johnson-Recreation-Center", "HOURS": null, "PHOTO": "images/recctrs/johnsonrc.jpg", "YEAR_BUILT": "1900's", "YEAR_REMOD": "1977, 1982", "BLDG_SQFT": 11373.0, "LABEL": "Johnson", "LATITUDE": 39.78410184, "LONGITUDE": -104.96383421, "FACILITIES": "Senior Center,,Gym (Non Reg. Size),Weight Room,Cardio Eqpmt,Aerobics,Arts & Crafts,Pottery/Kiln,Game Room,Racquetball,Computer Lab,Billiards,Dance,Meeting space,Kitchen", "GLOBALID": "da096f8c-0871-4662-8b11-584afd9eecdb" }, "geometry": { "type": "Point", "coordinates": [ -104.963844224753629, 39.784108300192393 ] } },
{ "type": "Feature", "properties": { "REC_NAME": "Swansea Recreation Center", "LOC_CODE": "RS4", "ADDRESS_ID": 0.0, "ADDRESS_LI": "2650 E 49th Ave", "ADDRESS__1": null, "CITY": "Denver", "STATE": "CO", "ZIP": null, "PHONE": "720-865-0540", "REC_TYPE": "Neighborhood", "MARKETING_": "RF", "MARKETED_F": "Dance Space, Gym (Small), Lockers, Meeting Room, Pool (Outdoor), Showers, Weight Room", "MARKETED_P": "Aquatics, Arts & Culture, Education, Fitness & Health, Seniors, Social Enrichment Clubs & Activities, Special Events, Sports", "PROGRAMS_L": "documents/northeast.pdf", "POOL_HOURS": null, "NEWS_LINK": "www.denvergov.org/Government/Agencies-Departments-Offices/Agencies-Departments-Offices-Directory/Parks-Recreation/Recreation-Centers-Pools/Recreation-Centers/Swansea-Recreation-Center", "HOURS": "documents/Recreation/Neighborhood_Hours.pdf", "PHOTO": "images/recctrs/swansearc.jpg", "YEAR_BUILT": "1972", "YEAR_REMOD": "1982", "BLDG_SQFT": 14155.0, "LABEL": "Swansea", "LATITUDE": 39.78485782, "LONGITUDE": -104.95538738, "FACILITIES": "Senior Center,,Outdoor Pool,Gym (Reg. Size),Weight Room,Cardio Eqpmt,Aerobics,Arts & Crafts,Pottery/Kiln,Game Room,Billiards,Dance,Meeting space,Kitchen", "GLOBALID": "d6a1b0d9-40d0-4547-bfd2-0dcaf048d7b2" }, "geometry": { "type": "Point", "coordinates": [ -104.955397389875799, 39.784864278331618 ] } },
{ "type": "Feature", "properties": { "REC_NAME": "Hiawatha Davis Jr Recreation Center", "LOC_CODE": "RS1", "ADDRESS_ID": 0.0, "ADDRESS_LI": "3334 Holly St", "ADDRESS__1": null, "CITY": "Denver", "STATE": "CO", "ZIP": null, "PHONE": "720-865-0590", "REC_TYPE": "Local", "MARKETING_": "RF", "MARKETED_F": "Gym (Large), Indoor Track, Lockers, Meeting Room, Pool (Indoor), Showers, Water Feature, Weight Room", "MARKETED_P": "Aquatics, Arts & Culture, Education, Fitness & Health, Social Enrichment Clubs & Activities, Special Events, Sports", "PROGRAMS_L": "documents/northeast.pdf", "POOL_HOURS": null, "NEWS_LINK": "www.denvergov.org/Government/Agencies-Departments-Offices/Agencies-Departments-Offices-Directory/Parks-Recreation/Recreation-Centers-Pools/Recreation-Centers/Hiawatha-Davis-Jr.-Recreation-Center", "HOURS": "documents/Recreation/Local_Hours.pdf", "PHOTO": "images/recctrs/davisrc.jpg", "YEAR_BUILT": "1960", "YEAR_REMOD": "2001", "BLDG_SQFT": 41502.0, "LABEL": "Hiawatha Davis Jr", "LATITUDE": 39.7642927, "LONGITUDE": -104.92181413, "FACILITIES": "Indoor Pool,Indoor Kiddie Pool,Outdoor Kiddie Pool,Gym (Reg. Size),Weight Room,Cardio Eqpmt,Aerobics,Arts & Crafts,Pottery/Kiln,Game Room,Tennis Court,Billiards,Meeting space,Kitchen", "GLOBALID": "0a512ff7-92f3-4787-a54b-a98b49189ebd" }, "geometry": { "type": "Point", "coordinates": [ -104.921824129802147, 39.764299153852853 ] } },
{ "type": "Feature", "properties": { "REC_NAME": "Martin Luther King Recreation Center", "LOC_CODE": "RK1", "ADDRESS_ID": 0.0, "ADDRESS_LI": "3880 Newport St", "ADDRESS__1": null, "CITY": "Denver", "STATE": "CO", "ZIP": null, "PHONE": "720-865-0530", "REC_TYPE": "Neighborhood", "MARKETING_": "RF", "MARKETED_F": "Gym (Large), Lockers, Meeting Room, Pool (Indoor), Racquetball, Showers, Weight Room, Suana", "MARKETED_P": "Aquatics, Arts & Culture, Fitness & Health, Seniors, Social Enrichment Clubs & Activities, Special Events, Sports", "PROGRAMS_L": "documents/northeast.pdf", "POOL_HOURS": null, "NEWS_LINK": "www.denvergov.org/Government/Agencies-Departments-Offices/Agencies-Departments-Offices-Directory/Parks-Recreation/Recreation-Centers-Pools/Recreation-Centers/Martin-Luther-King-Jr.-Recreation-Center", "HOURS": "documents/Recreation/Neighborhood_Hours.pdf", "PHOTO": "images/recctrs/mlkrc.jpg", "YEAR_BUILT": "1960", "YEAR_REMOD": "1978, 1994", "BLDG_SQFT": 25512.0, "LABEL": "Martin Luther King Jr", "LATITUDE": 39.77071853, "LONGITUDE": -104.90928039000001, "FACILITIES": "Senior Center,Indoor Pool,Indoor Kiddie Pool,Steam Room,Gym (Reg. Size),Weight Room,Cardio Eqpmt,Aerobics,Arts & Crafts,Game Room,Racquetball,Tennis Court,Meeting space", "GLOBALID": "67a183d6-eb67-4e52-962c-737994a72dc3" }, "geometry": { "type": "Point", "coordinates": [ -104.90929039076768, 39.770724987838939 ] } },
{ "type": "Feature", "properties": { "REC_NAME": "Montbello Recreation Center", "LOC_CODE": "RM3", "ADDRESS_ID": 0.0, "ADDRESS_LI": "15555 E 53rd Ave", "ADDRESS__1": null, "CITY": "Denver", "STATE": "CO", "ZIP": null, "PHONE": "720-865-0580", "REC_TYPE": "Regional", "MARKETING_": "RF", "MARKETED_F": "Dance Space, Gym (Large), Lockers, Meeting Room, Pool (Indoor), Showers, Water Feature, Weight Room", "MARKETED_P": "Aquatics, Arts & Culture, Fitness & Health, Seniors, Social Enrichment Clubs & Activities, Special Events, Sports", "PROGRAMS_L": "documents/northeast.pdf", "POOL_HOURS": null, "NEWS_LINK": "www.denvergov.org/Government/Agencies-Departments-Offices/Agencies-Departments-Offices-Directory/Parks-Recreation/Recreation-Centers-Pools/Recreation-Centers/Montbello-Recreation-Center", "HOURS": "documents/Recreation/Regional_Hours.pdf", "PHOTO": "images/recctrs/montbellorc.jpg", "YEAR_BUILT": "2003", "YEAR_REMOD": "None", "BLDG_SQFT": 44394.0, "LABEL": "Montbello", "LATITUDE": 39.79273788, "LONGITUDE": -104.8055979, "FACILITIES": "Senior Center,Indoor Pool,Gym (Reg. Size),Weight Room,Cardio Eqpmt,Aerobics,Arts & Crafts,Pottery/Kiln,Game Room,Billiards,Dance,Meeting space,Kitchen", "GLOBALID": "b33e8849-67ae-4095-bc27-ab1d564088fe" }, "geometry": { "type": "Point", "coordinates": [ -104.805607878904809, 39.792744345800067 ] } },
{ "type": "Feature", "properties": { "REC_NAME": "Green Valley Ranch Recreation Center", "LOC_CODE": "RG3", "ADDRESS_ID": 0.0, "ADDRESS_LI": "4890 Argonne Way", "ADDRESS__1": null, "CITY": "Denver", "STATE": "CO", "ZIP": null, "PHONE": "720-865-4370", "REC_TYPE": "Local", "MARKETING_": "RF", "MARKETED_F": "Gym (Large), Lockers, Meeting Room, Showers, Weight Room", "MARKETED_P": "Day Activity or Sports Camps, Fitness & Health, Social Enrichment Clubs & Activities, Special Events, Sports", "PROGRAMS_L": "documents/northeast.pdf", "POOL_HOURS": null, "NEWS_LINK": "www.denvergov.org/Government/Agencies-Departments-Offices/Agencies-Departments-Offices-Directory/Parks-Recreation/Recreation-Centers-Pools/Recreation-Centers/Green-Valley-Ranch-Recreation-Center", "HOURS": "documents/Recreation/Local_Hours.pdf", "PHOTO": "images/recctrs/gvrrc.jpg", "YEAR_BUILT": "2004", "YEAR_REMOD": "None", "BLDG_SQFT": 34520.0, "LABEL": "Green Valley Ranch", "LATITUDE": 39.78568835, "LONGITUDE": -104.76716032, "FACILITIES": "Gym (Reg. Size),Weight Room,Cardio Eqpmt,Aerobics,Arts & Crafts,Game Room,Billiards,Meeting space,Kitchen", "GLOBALID": "a617cf61-e7e7-454d-870e-160cd93dc3e6" }, "geometry": { "type": "Point", "coordinates": [ -104.767170291373233, 39.78569481668945 ] } },
{ "type": "Feature", "properties": { "REC_NAME": "Central Park Recreation Center", "LOC_CODE": "RC4", "ADDRESS_ID": 0.0, "ADDRESS_LI": "9651 E Martin Luther King Jr Blvd", "ADDRESS__1": null, "CITY": "Denver", "STATE": "CO", "ZIP": null, "PHONE": "720-865-0750", "REC_TYPE": "Regional", "MARKETING_": "RF", "MARKETED_F": "Indoor Pool, Indoor Kiddie Pool, Gym (Reg. Size), Weight Room, Cardio Eqpmt, Aerobics, Meeting Space, Kitchen, Kid Watch Area, Spin Room", "MARKETED_P": "Aquatics, Arts & Culture, Day Activity or Sports Camps, Education, Fitness & Health, Seniors, Social Enrichment Clubs & Activities, Special Events, Sports", "PROGRAMS_L": "documents/northeast.pdf", "POOL_HOURS": null, "NEWS_LINK": "www.denvergov.org/Government/Agencies-Departments-Offices/Agencies-Departments-Offices-Directory/Parks-Recreation/Recreation-Centers-Pools/Recreation-Centers/Central-Park-Recreation-Center", "HOURS": "documents/Recreation/Regional_Hours.pdf", "PHOTO": "images/recctrs/centralpark.jpg", "YEAR_BUILT": "2010", "YEAR_REMOD": null, "BLDG_SQFT": 58000.0, "LABEL": "Central Park", "LATITUDE": 39.76108533, "LONGITUDE": -104.87503165, "FACILITIES": "Indoor Pool,Indoor Kiddie Pool,Gym (Reg. Size),Weight Room,Cardio Eqpmt,Aerobics,Arts & Crafts,Game Room,Billiards,Meeting space,Kitchen", "GLOBALID": "b4fa4f0d-45fa-4c92-8165-cc22ada79d39" }, "geometry": { "type": "Point", "coordinates": [ -104.875041642390769, 39.761091786320947 ] } },
{ "type": "Feature", "properties": { "REC_NAME": "Carla Madison Recreation Center", "LOC_CODE": "RM4", "ADDRESS_ID": 0.0, "ADDRESS_LI": "2401 E Colfax Ave", "ADDRESS__1": null, "CITY": "Denver", "STATE": "CO", "ZIP": null, "PHONE": "720-865-5580", "REC_TYPE": "Regional", "MARKETING_": "RF", "MARKETED_F": "Gym (Large), Lockers, Showers, Weight Room, Meeting Room, Pool (Indoor), Climbing Wall, Cardio Eqpmnt, Kid Watch, Event Space", "MARKETED_P": null, "PROGRAMS_L": null, "POOL_HOURS": null, "NEWS_LINK": "www.denvergov.org/Government/Agencies-Departments-Offices/Agencies-Departments-Offices-Directory/Parks-Recreation/Recreation-Centers-Pools/Recreation-Centers/Carla-Madison-Recreation-Center", "HOURS": null, "PHOTO": null, "YEAR_BUILT": "2016", "YEAR_REMOD": null, "BLDG_SQFT": 69000.0, "LABEL": "Madison", "LATITUDE": 39.74051398, "LONGITUDE": -104.95853389, "FACILITIES": null, "GLOBALID": "6df68b58-7d18-4fee-857f-ebcc19618d5a" }, "geometry": { "type": "Point", "coordinates": [ -104.958543894656913, 39.740520426944009 ] } }
]
}
