{
"type": "FeatureCollection",
"name": "School_Based_Health_Centers",
"crs": { "type": "name", "properties": { "name": "urn:ogc:def:crs:OGC:1.3:CRS84" } },
"features": [
{ "type": "Feature", "properties": { "Name": "Abraham Lincoln Campus SBHC", "School_Campus": "Abraham Lincoln High School", "Address": "2285 S Federal Blvd", "City": "Denver", "State": "CO", "Zip": 80219, "County": "Denver", "Latitude": 39.676, "Longitude": -105.026, "Clinic_Phone": "720-423-5020", "Website": "https://www.denverhealth.org/services/school-based-health-centers/locations", "Operator": "Denver Health", "Hours": "M-F 8:00 AM - 4:30 PM", "Services": "Medical; Mental Health; Health Education; Community Health Care Advisors", "Dental": false }, "geometry": { "type": "Point", "coordinates": [ -105.026, 39.676 ] } },
{ "type": "Feature", "properties": { "Name": "Bruce Randolph Campus SBHC", "School_Campus": "Bruce Randolph School", "Address": "3955 Steele St", "City": "Denver", "State": "CO", "Zip": 80205, "County": "Denver", "Latitude": 39.7719, "Longitude": -104.9513, "Clinic_Phone": "720-424-1232", "Website": "https://www.denverhealth.org/services/school-based-health-centers/locations", "Operator": "Denver Health", "Hours": "M-F 8:00 AM - 4:30 PM", "Services": "Medical; Mental Health; Health Education; Community Health", "Dental": false }, "geometry": { "type": "Point", "coordinates": [ -104.9513, 39.7719 ] } },
{ "type": "Feature", "properties": { "Name": "East High School SBHC", "School_Campus": "East High School", "Address": "1600 City Park Esplanade", "City": "Denver", "State": "CO", "Zip": 80206, "County": "Denver", "Latitude": 39.7416, "Longitude": -104.956, "Clinic_Phone": "720-423-8378", "Website": "https://www.denverhealth.org/services/school-based-health-centers/locations", "Operator": "Denver Health", "Hours": "M-F 8:00 AM - 4:30 PM", "Services": "Medical; Mental Health; Health Education; Community Health Care Advisors", "Dental": false }, "geometry": { "type": "Point", "coordinates": [ -104.956, 39.7416 ] } },
{ "type": "Feature", "properties": { "Name": "Evie Dennis Campus SBHC", "School_Campus": "Evie Garrett Dennis Campus", "Address": "4800 Telluride St", "City": "Denver", "State": "CO", "Zip": 80249, "County": "Denver", "Latitude": 39.7844, "Longitude": -104.7807, "Clinic_Phone": "720-423-7610", "Website": "https://www.denverhealth.org/services/school-based-health-centers/locations", "Operator": "Denver Health", "Hours": "M-F 8:00 AM - 4:30 PM", "Services": "Medical; Mental Health; Health Education; Community Health Care Advisors; Dental Screenings and Cleanings", "Dental": true }, "geometry": { "type": "Point", "coordinates": [ -104.7807, 39.7844 ] } },
{ "type": "Feature", "properties": { "Name": "Florence Crittenton Campus SBHC", "School_Campus": "Florence Crittenton High School", "Address": "55 S Zuni St", "City": "Denver", "State": "CO", "Zip": 80223, "County": "Denver", "Latitude": 39.7153, "Longitude": -105.0163, "Clinic_Phone": "720-423-8950", "Website": "https://www.denverhealth.org/services/school-based-health-centers/locations", "Operator": "Denver Health", "Hours": "M-F 8:00 AM - 4:30 PM", "Services": "Medical; Mental Health; Health Education; Community Health Care Advisors; WIC; Dental Screenings and Cleanings", "Dental": true }, "geometry": { "type": "Point", "coordinates": [ -105.0163, 39.7153 ] } },
{ "type": "Feature", "properties": { "Name": "George Washington Campus SBHC", "School_Campus": "George Washington High School", "Address": "655 S Monaco Pkwy", "City": "Denver", "State": "CO", "Zip": 80224, "County": "Denver", "Latitude": 39.7057, "Longitude": -104.9147, "Clinic_Phone": "720-423-8890", "Website": "https://www.denverhealth.org/services/school-based-health-centers/locations", "Operator": "Denver Health", "Hours": "M-F 8:00 AM - 4:30 PM", "Services": "Medical; Mental Health; Health Education; Community Health Care Advisors", "Dental": false }, "geometry": { "type": "Point", "coordinates": [ -104.9147, 39.7057 ] } },
{ "type": "Feature", "properties": { "Name": "John F. Kennedy High School SBHC", "School_Campus": "John F. Kennedy High School", "Address": "2855 S Lamar St", "City": "Denver", "State": "CO", "Zip": 80227, "County": "Denver", "Latitude": 39.6624, "Longitude": -105.0691, "Clinic_Phone": "720-423-4355", "Website": "https://www.denverhealth.org/services/school-based-health-centers/locations", "Operator": "Denver Health", "Hours": "M-F 8:00 AM - 4:30 PM", "Services": "Medical; Mental Health; Health Education; Community Health Care Advisors", "Dental": false }, "geometry": { "type": "Point", "coordinates": [ -105.0691, 39.6624 ] } },
{ "type": "Feature", "properties": { "Name": "Kepner Campus SBHC", "School_Campus": "Kepner Beacon Middle School", "Address": "911 S Hazel Ct", "City": "Denver", "State": "CO", "Zip": 80219, "County": "Denver", "Latitude": 39.6999, "Longitude": -105.029, "Clinic_Phone": "720-424-0126", "Website": "https://www.denverhealth.org/services/school-based-health-centers/locations", "Operator": "Denver Health", "Hours": "M-F 8:00 AM - 4:30 PM", "Services": "Medical; Mental Health; Health Education; Community Health Care Advisors", "Dental": false }, "geometry": { "type": "Point", "coordinates": [ -105.029, 39.6999 ] } },
{ "type": "Feature", "properties": { "Name": "Kunsmiller Creative Arts Academy SBHC", "School_Campus": "Kunsmiller Creative Arts Academy", "Address": "2250 S Quitman Way", "City": "Denver", "State": "CO", "Zip": 80219, "County": "Denver", "Latitude": 39.6763, "Longitude": -105.04, "Clinic_Phone": "720-424-0156", "Website": "https://www.denverhealth.org/services/school-based-health-centers/locations", "Operator": "Denver Health", "Hours": "M-F 8:00 AM - 4:30 PM", "Services": "Medical; Mental Health; Health Education; Community Health Care Advisors", "Dental": false }, "geometry": { "type": "Point", "coordinates": [ -105.04, 39.6763 ] } },
{ "type": "Feature", "properties": { "Name": "Lake Campus SBHC", "School_Campus": "Lake Middle School", "Address": "1820 Lowell Blvd", "City": "Denver", "State": "CO", "Zip": 80204, "County": "Denver", "Latitude": 39.7454, "Longitude": -105.0342, "Clinic_Phone": "720-424-0281", "Website": "https://www.denverhealth.org/services/school-based-health-centers/locations", "Operator": "Denver Health", "Hours": "M-F 8:00 AM - 4:30 PM", "Services": "Medical; Mental Health; Health Education; Community Health Care Advisors", "Dental": false }, "geometry": { "type": "Point", "coordinates": [ -105.0342, 39.7454 ] } },
{ "type": "Feature", "properties": { "Name": "Manual Campus SBHC", "School_Campus": "Manual High School", "Address": "1700 E 28th Ave", "City": "Denver", "State": "CO", "Zip": 80205, "County": "Denver", "Latitude": 39.7565, "Longitude": -104.9672, "Clinic_Phone": "720-423-6435", "Website": "https://www.denverhealth.org/services/school-based-health-centers/locations", "Operator": "Denver Health", "Hours": "M-F 8:00 AM - 4:30 PM", "Services": "Medical; Mental Health; Health Education; Community Health Care Advisors; Dental Screenings and Cleanings", "Dental": true }, "geometry": { "type": "Point", "coordinates": [ -104.9672, 39.7565 ] } },
{ "type": "Feature", "properties": { "Name": "Martin Luther King Jr. Early College Campus SBHC", "School_Campus": "Dr. Martin Luther King Jr. Early College", "Address": "19535 E 46th Ave", "City": "Denver", "State": "CO", "Zip": 80249, "County": "Denver", "Latitude": 39.7813, "Longitude": -104.7593, "Clinic_Phone": "720-424-0476", "Website": "https://www.denverhealth.org/services/school-based-health-centers/locations", "Operator": "Denver Health", "Hours": "M-F 8:00 AM - 4:30 PM", "Services": "Medical; Mental Health; Health Education; Community Health Care Advisors", "Dental": false }, "geometry": { "type": "Point", "coordinates": [ -104.7593, 39.7813 ] } },
{ "type": "Feature", "properties": { "Name": "Montbello Campus SBHC", "School_Campus": "Montbello High School", "Address": "5000 Crown Blvd", "City": "Denver", "State": "CO", "Zip": 80239, "County": "Denver", "Latitude": 39.7867, "Longitude": -104.8274, "Clinic_Phone": "720-423-5808", "Website": "https://www.denverhealth.org/services/school-based-health-centers/locations", "Operator": "Denver Health", "Hours": "M-F 8:00 AM - 4:30 PM", "Services": "Medical; Mental Health; Health Education; Community Health Care Advisors", "Dental": false }, "geometry": { "type": "Point", "coordinates": [ -104.8274, 39.7867 ] } },
{ "type": "Feature", "properties": { "Name": "North Campus SBHC", "School_Campus": "North High School", "Address": "2960 N Speer Blvd", "City": "Denver", "State": "CO", "Zip": 80211, "County": "Denver", "Latitude": 39.7608, "Longitude": -105.0225, "Clinic_Phone": "720-423-2718", "Website": "https://www.denverhealth.org/services/school-based-health-centers/locations", "Operator": "Denver Health", "Hours": "M-F 8:00 AM - 4:30 PM", "Services": "Medical; Mental Health; Health Education; Community Health Care Advisors", "Dental": false }, "geometry": { "type": "Point", "coordinates": [ -105.0225, 39.7608 ] } },
{ "type": "Feature", "properties": { "Name": "Place Bridge Academy SBHC", "School_Campus": "Place Bridge Academy", "Address": "7125 Cherry Creek N Dr", "City": "Denver", "State": "CO", "Zip": 80224, "County": "Denver", "Latitude": 39.6884, "Longitude": -104.906, "Clinic_Phone": "720-424-2050", "Website": "https://www.denverhealth.org/services/school-based-health-centers/locations", "Operator": "Denver Health", "Hours": "M-F 8:00 AM - 4:30 PM", "Services": "Medical; Mental Health; Health Education; Community Health Care Advisors; Dental Screenings and Cleanings", "Dental": true }, "geometry": { "type": "Point", "coordinates": [ -104.906, 39.6884 ] } },
{ "type": "Feature", "properties": { "Name": "Rachel B. Noel Campus SBHC", "School_Campus": "Rachel B. Noel Campus", "Address": "5290 Kittredge St", "City": "Denver", "State": "CO", "Zip": 80239, "County": "Denver", "Latitude": 39.789, "Longitude": -104.8005, "Clinic_Phone": "720-424-0909", "Website": "https://www.denverhealth.org/services/school-based-health-centers/locations", "Operator": "Denver Health", "Hours": "M-F 8:00 AM - 4:30 PM", "Services": "Medical; Mental Health; Health Education; Community Health Care Advisors", "Dental": false }, "geometry": { "type": "Point", "coordinates": [ -104.8005, 39.789 ] } },
{ "type": "Feature", "properties": { "Name": "South High School SBHC", "School_Campus": "South High School", "Address": "1700 E Louisiana Ave", "City": "Denver", "State": "CO", "Zip": 80210, "County": "Denver", "Latitude": 39.6922, "Longitude": -104.966, "Clinic_Phone": "720-423-6260", "Website": "https://www.denverhealth.org/services/school-based-health-centers/locations", "Operator": "Denver Health", "Hours": "M-F 8:00 AM - 4:30 PM", "Services": "Medical; Mental Health; Health Education; Community Health Care Advisors", "Dental": false }, "geometry": { "type": "Point", "coordinates": [ -104.966, 39.6922 ] } },
{ "type": "Feature", "properties": { "Name": "Thomas Jefferson High School SBHC", "School_Campus": "Thomas Jefferson High School", "Address": "3950 S Holly St", "City": "Denver", "State": "CO", "Zip": 80237, "County": "Denver", "Latitude": 39.6469, "Longitude": -104.9213, "Clinic_Phone": "720-423-7190", "Website": "https://www.denverhealth.org/services/school-based-health-centers/locations", "Operator": "Denver Health", "Hours": "M-F 8:00 AM - 4:30 PM", "Services": "Medical; Mental Health; Health Education; Community Health Care Advisors", "Dental": false }, "geometry": { "type": "Point", "coordinates": [ -104.9213, 39.6469 ] } },
{ "type": "Feature", "properties": { "Name": "West Campus SBHC", "School_Campus": "West High School", "Address": "951 Elati St", "City": "Denver", "State": "CO", "Zip": 80204, "County": "Denver", "Latitude": 39.7319, "Longitude": -104.9944, "Clinic_Phone": "720-423-5456", "Website": "https://www.denverhealth.org/services/school-based-health-centers/locations", "Operator": "Denver Health", "Hours": "M-F 8:00 AM - 4:30 PM", "Services": "Medical; Mental Health; Health Education; Community Health Care Advisors", "Dental": false }, "geometry": { "type": "Point", "coordinates": [ -104.9944, 39.7319 ] } }
]
}
