{
"type": "FeatureCollection",
"name": "Schools",
"crs": { "type": "name", "properties": { "name": "urn:ogc:def:crs:OGC:1.3:CRS84" } },
"features": [
{ "type": "Feature", "properties": { "school_id": 2641, "school_name": "Excel Academy", "school_type": "Alternative/Pathway", "classification": "District", "school_level": "High", "grade_level": "12-Sep", "address": "1825 S. Federal Blvd.", "neighborhood": "Mar Lee", "latitude": 39.6842, "longitude": -105.02529, "student_teacher_ratio": 19, "attendance_rate": 0.627, "chronically_absent": 0.889, "truancy_rate": 0.325, "perf_rating": 0.5388, "SRI_score": 1.0 }, "geometry": { "type": "Point", "coordinates": [ -105.02529, 39.6842 ] } },
{ "type": "Feature", "properties": { "school_id": 2726, "school_name": "Emily Griffith High School", "school_type": "Alternative/Pathway", "classification": "District", "school_level": "High", "grade_level": "12-Sep", "address": "1860 Lincoln St.", "neighborhood": "North Capitol Hill", "latitude": 39.74574, "longitude": -104.9861, "student_teacher_ratio": 17, "attendance_rate": 0.533, "chronically_absent": 0.942, "truancy_rate": 0.417, "perf_rating": 0.6009, "SRI_score": 0.99 }, "geometry": { "type": "Point", "coordinates": [ -104.9861, 39.74574 ] } },
{ "type": "Feature", "properties": { "school_id": 7188, "school_name": "Montbello Career and Technical High School", "school_type": "Alternative/Pathway", "classification": "District", "school_level": "High", "grade_level": "12-Sep", "address": "4501 Airport Way", "neighborhood": "Gateway - Green Valley Ranch", "latitude": 39.77545, "longitude": -104.79567, "student_teacher_ratio": 18, "attendance_rate": 0.773, "chronically_absent": 0.799, "truancy_rate": 0.173, "perf_rating": 0.5413, "SRI_score": 0.98 }, "geometry": { "type": "Point", "coordinates": [ -104.79567, 39.77545 ] } },
{ "type": "Feature", "properties": { "school_id": 6509, "school_name": "Denver Online", "school_type": "Alternative/Pathway", "classification": "District", "school_level": "High", "grade_level": "12-Jun", "address": "451 S. Tejon St.", "neighborhood": "Athmar Park", "latitude": 39.70847, "longitude": -105.01098, "student_teacher_ratio": 17, "attendance_rate": 0.773, "chronically_absent": 0.565, "truancy_rate": 0.215, "perf_rating": 0.47, "SRI_score": 0.97 }, "geometry": { "type": "Point", "coordinates": [ -105.01098, 39.70847 ] } },
{ "type": "Feature", "properties": { "school_id": 8995, "school_name": "Vista Academy", "school_type": "Alternative/Pathway", "classification": "District", "school_level": "High", "grade_level": "12-Sep", "address": "4800 N. Telluride St.", "neighborhood": "Gateway - Green Valley Ranch", "latitude": 39.78564, "longitude": -104.78144, "student_teacher_ratio": 16, "attendance_rate": 0.719, "chronically_absent": 0.739, "truancy_rate": 0.222, "perf_rating": 0.5766, "SRI_score": 0.96 }, "geometry": { "type": "Point", "coordinates": [ -104.78144, 39.78564 ] } },
{ "type": "Feature", "properties": { "school_id": 4444, "school_name": "John F Kennedy High School", "school_type": "Traditional", "classification": "District", "school_level": "High", "grade_level": "12-Sep", "address": "2855 S. Lamar St.", "neighborhood": "Bear Valley", "latitude": 39.66227, "longitude": -105.06762, "student_teacher_ratio": 14, "attendance_rate": 0.805, "chronically_absent": 0.61, "truancy_rate": 0.143, "perf_rating": 0.4, "SRI_score": 0.95 }, "geometry": { "type": "Point", "coordinates": [ -105.06762, 39.66227 ] } },
{ "type": "Feature", "properties": { "school_id": 3000, "school_name": "Florence Crittenton High School", "school_type": "Alternative/Pathway", "classification": "District", "school_level": "High", "grade_level": "12-Sep", "address": "55 S. Zuni St.", "neighborhood": "Valverde", "latitude": 39.71523, "longitude": -105.01575, "student_teacher_ratio": 9, "attendance_rate": 0.43, "chronically_absent": 0.993, "truancy_rate": 0.487, "perf_rating": 0.5088, "SRI_score": 0.94 }, "geometry": { "type": "Point", "coordinates": [ -105.01575, 39.71523 ] } },
{ "type": "Feature", "properties": { "school_id": 10, "school_name": "Abraham Lincoln High School", "school_type": "Traditional", "classification": "District", "school_level": "High", "grade_level": "12-Sep", "address": "2285 S. Federal Blvd.", "neighborhood": "Harvey Park", "latitude": 39.67577, "longitude": -105.02651, "student_teacher_ratio": 13, "attendance_rate": 0.838, "chronically_absent": 0.614, "truancy_rate": 0.107, "perf_rating": 0.418, "SRI_score": 0.925 }, "geometry": { "type": "Point", "coordinates": [ -105.02651, 39.67577 ] } },
{ "type": "Feature", "properties": { "school_id": 1561, "school_name": "Colorado High School Charter - GES", "school_type": "Alternative/Pathway", "classification": "Charter", "school_level": "High", "grade_level": "12-Sep", "address": "3093 E. 42nd Ave.", "neighborhood": "Elyria Swansea", "latitude": 39.77545, "longitude": -104.95089, "student_teacher_ratio": 16, "attendance_rate": 0.803, "chronically_absent": 0.667, "truancy_rate": 0.179, "perf_rating": 0.645, "SRI_score": 0.925 }, "geometry": { "type": "Point", "coordinates": [ -104.95089, 39.77545 ] } },
{ "type": "Feature", "properties": { "school_id": 2757, "school_name": "Northeast Early College", "school_type": "Traditional", "classification": "District", "school_level": "High", "grade_level": "12-Sep", "address": "11200 E. 45th Ave.", "neighborhood": "Montbello", "latitude": 39.77645, "longitude": -104.85362, "student_teacher_ratio": 15, "attendance_rate": 0.848, "chronically_absent": 0.535, "truancy_rate": 0.094, "perf_rating": 0.436, "SRI_score": 0.91 }, "geometry": { "type": "Point", "coordinates": [ -104.85362, 39.77645 ] } },
{ "type": "Feature", "properties": { "school_id": 67, "school_name": "AUL Denver", "school_type": "Alternative/Pathway", "classification": "Charter", "school_level": "High", "grade_level": "12-Sep", "address": "2417 W. 29th Ave.", "neighborhood": "Highland", "latitude": 39.75884, "longitude": -105.0167, "student_teacher_ratio": 11, "attendance_rate": 0.661, "chronically_absent": 0.888, "truancy_rate": 0.286, "perf_rating": 0.5431, "SRI_score": 0.9 }, "geometry": { "type": "Point", "coordinates": [ -105.0167, 39.75884 ] } },
{ "type": "Feature", "properties": { "school_id": 5844, "school_name": "Contemporary Learning Academy", "school_type": "Alternative/Pathway", "classification": "District", "school_level": "High", "grade_level": "12-Sep", "address": "200 E. 9th Ave.", "neighborhood": "Capitol Hill", "latitude": 39.73004, "longitude": -104.98425, "student_teacher_ratio": 8, "attendance_rate": 0.601, "chronically_absent": 0.906, "truancy_rate": 0.323, "perf_rating": 0.5386, "SRI_score": 0.89 }, "geometry": { "type": "Point", "coordinates": [ -104.98425, 39.73004 ] } },
{ "type": "Feature", "properties": { "school_id": 4494, "school_name": "Denver Justice High School", "school_type": "Alternative/Pathway", "classification": "Charter", "school_level": "High", "grade_level": "12-Sep", "address": "300 E. 9th Ave.", "neighborhood": "Capitol Hill", "latitude": 39.73012, "longitude": -104.98312, "student_teacher_ratio": 12, "attendance_rate": 0.668, "chronically_absent": 0.898, "truancy_rate": 0.24, "perf_rating": 0.6043, "SRI_score": 0.88 }, "geometry": { "type": "Point", "coordinates": [ -104.98312, 39.73012 ] } },
{ "type": "Feature", "properties": { "school_id": 5448, "school_name": "Manual High School", "school_type": "Traditional", "classification": "District", "school_level": "High", "grade_level": "12-Sep", "address": "1700 E. 28th Ave.", "neighborhood": "Whittier", "latitude": 39.75699, "longitude": -104.96842, "student_teacher_ratio": 15, "attendance_rate": 0.852, "chronically_absent": 0.433, "truancy_rate": 0.101, "perf_rating": 0.383, "SRI_score": 0.87 }, "geometry": { "type": "Point", "coordinates": [ -104.96842, 39.75699 ] } },
{ "type": "Feature", "properties": { "school_id": 5973, "school_name": "Manual Middle School", "school_type": "Traditional", "classification": "District", "school_level": "Middle", "grade_level": "8-Jun", "address": "3955 Steele St", "neighborhood": "Whittier", "latitude": 39.7679, "longitude": -104.9484, "student_teacher_ratio": 14, "attendance_rate": 0.84, "chronically_absent": 0.538, "truancy_rate": 0.102, "perf_rating": 0.489, "SRI_score": 0.855 }, "geometry": { "type": "Point", "coordinates": [ -104.9484, 39.7679 ] } },
{ "type": "Feature", "properties": { "school_id": 3699, "school_name": "Delta High School", "school_type": "Alternative/Pathway", "classification": "District", "school_level": "High", "grade_level": "12-Sep", "address": "655 S. Monaco Street Parkway", "neighborhood": "Washington Virginia Vale", "latitude": 39.7049, "longitude": -104.91298, "student_teacher_ratio": 15, "attendance_rate": 0.784, "chronically_absent": 0.782, "truancy_rate": 0.142, "perf_rating": 0.6919, "SRI_score": 0.855 }, "geometry": { "type": "Point", "coordinates": [ -104.91298, 39.7049 ] } },
{ "type": "Feature", "properties": { "school_id": 9693, "school_name": "West High School", "school_type": "Traditional", "classification": "District", "school_level": "High", "grade_level": "12-Sep", "address": "951 Elati St.", "neighborhood": "Lincoln Park", "latitude": 39.73198, "longitude": -104.99513, "student_teacher_ratio": 11, "attendance_rate": 0.817, "chronically_absent": 0.596, "truancy_rate": 0.131, "perf_rating": 0.428, "SRI_score": 0.84 }, "geometry": { "type": "Point", "coordinates": [ -104.99513, 39.73198 ] } },
{ "type": "Feature", "properties": { "school_id": 3746, "school_name": "Hamilton Middle School", "school_type": "Traditional", "classification": "District", "school_level": "Middle", "grade_level": "8-Jun", "address": "8600 E. Dartmouth Ave.", "neighborhood": "Hampden", "latitude": 39.66016, "longitude": -104.89269, "student_teacher_ratio": 14, "attendance_rate": 0.863, "chronically_absent": 0.517, "truancy_rate": 0.09, "perf_rating": 0.444, "SRI_score": 0.83 }, "geometry": { "type": "Point", "coordinates": [ -104.89269, 39.66016 ] } },
{ "type": "Feature", "properties": { "school_id": 1939, "school_name": "Compass Academy", "school_type": "Traditional", "classification": "Charter", "school_level": "Middle", "grade_level": "8-Jun", "address": "2285 S. Federal Blvd.", "neighborhood": "Harvey Park", "latitude": 39.67577, "longitude": -105.02651, "student_teacher_ratio": 10, "attendance_rate": 0.835, "chronically_absent": 0.667, "truancy_rate": 0.112, "perf_rating": 0.435, "SRI_score": 0.82 }, "geometry": { "type": "Point", "coordinates": [ -105.02651, 39.67577 ] } },
{ "type": "Feature", "properties": { "school_id": 1748, "school_name": "Colorado High School Charter - Osage", "school_type": "Alternative/Pathway", "classification": "Charter", "school_level": "High", "grade_level": "12-Sep", "address": "348 S Osage St", "neighborhood": "Lincoln Park", "latitude": 39.7227, "longitude": -105.007, "student_teacher_ratio": 14, "attendance_rate": 0.804, "chronically_absent": 0.692, "truancy_rate": 0.143, "perf_rating": 0.6888, "SRI_score": 0.81 }, "geometry": { "type": "Point", "coordinates": [ -105.007, 39.7227 ] } },
{ "type": "Feature", "properties": { "school_id": 3378, "school_name": "George Washington High School", "school_type": "Traditional", "classification": "District", "school_level": "High", "grade_level": "12-Sep", "address": "655 S. Monaco Street Parkway", "neighborhood": "Washington Virginia Vale", "latitude": 39.7049, "longitude": -104.91298, "student_teacher_ratio": 16, "attendance_rate": 0.859, "chronically_absent": 0.491, "truancy_rate": 0.086, "perf_rating": 0.5, "SRI_score": 0.8 }, "geometry": { "type": "Point", "coordinates": [ -104.91298, 39.7049 ] } },
{ "type": "Feature", "properties": { "school_id": 2167, "school_name": "Denver Montessori Junior/Senior High School", "school_type": "Traditional", "classification": "District", "school_level": "High", "grade_level": "12-Sep", "address": "4250 Shoshone St.", "neighborhood": "Sunnyside", "latitude": 39.77442, "longitude": -105.00979, "student_teacher_ratio": 14, "attendance_rate": 0.843, "chronically_absent": 0.556, "truancy_rate": 0.088, "perf_rating": 0.511, "SRI_score": 0.79 }, "geometry": { "type": "Point", "coordinates": [ -105.00979, 39.77442 ] } },
{ "type": "Feature", "properties": { "school_id": 2223, "school_name": "DSST: Cole Middle School", "school_type": "Traditional", "classification": "Charter", "school_level": "Middle", "grade_level": "8-Jun", "address": "3240 Humboldt St.", "neighborhood": "Cole", "latitude": 39.76259, "longitude": -104.96974, "student_teacher_ratio": 12, "attendance_rate": 0.862, "chronically_absent": 0.558, "truancy_rate": 0.099, "perf_rating": 0.432, "SRI_score": 0.78 }, "geometry": { "type": "Point", "coordinates": [ -104.96974, 39.76259 ] } },
{ "type": "Feature", "properties": { "school_id": 6308, "school_name": "North High School Engagement Center", "school_type": "Alternative/Pathway", "classification": "District", "school_level": "High", "grade_level": "12-Sep", "address": "2960 N. Speer Blvd.", "neighborhood": "Highland", "latitude": 39.76044, "longitude": -105.02267, "student_teacher_ratio": 11, "attendance_rate": 0.724, "chronically_absent": 0.882, "truancy_rate": 0.186, "perf_rating": 0.6314, "SRI_score": 0.77 }, "geometry": { "type": "Point", "coordinates": [ -105.02267, 39.76044 ] } },
{ "type": "Feature", "properties": { "school_id": 4795, "school_name": "Kunsmiller Creative Arts Academy", "school_type": "Traditional", "classification": "District", "school_level": "High", "grade_level": "12-Sep", "address": "2250 S. Quitman Way", "neighborhood": "Harvey Park", "latitude": 39.6756, "longitude": -105.04065, "student_teacher_ratio": 14, "attendance_rate": 0.863, "chronically_absent": 0.517, "truancy_rate": 0.087, "perf_rating": 0.466, "SRI_score": 0.755 }, "geometry": { "type": "Point", "coordinates": [ -105.04065, 39.6756 ] } },
{ "type": "Feature", "properties": { "school_id": 7163, "school_name": "Prep Academy", "school_type": "Alternative/Pathway", "classification": "District", "school_level": "Middle", "grade_level": "8-Jun", "address": "2727 Columbine St", "neighborhood": "South Park Hill", "latitude": 39.7515, "longitude": -104.9378, "student_teacher_ratio": 3, "attendance_rate": 0.709, "chronically_absent": 0.807, "truancy_rate": 0.211, "perf_rating": 0.5975, "SRI_score": 0.755 }, "geometry": { "type": "Point", "coordinates": [ -104.9378, 39.7515 ] } },
{ "type": "Feature", "properties": { "school_id": 9735, "school_name": "Rocky Mountain Prep Noel", "school_type": "Traditional", "classification": "Charter", "school_level": "Middle", "grade_level": "8-Jun", "address": "5290 Kittredge St.", "neighborhood": "Gateway - Green Valley Ranch", "latitude": 39.78936, "longitude": -104.80089, "student_teacher_ratio": 13, "attendance_rate": 0.876, "chronically_absent": 0.481, "truancy_rate": 0.097, "perf_rating": 0.4, "SRI_score": 0.74 }, "geometry": { "type": "Point", "coordinates": [ -104.80089, 39.78936 ] } },
{ "type": "Feature", "properties": { "school_id": 4730, "school_name": "KIPP Denver Collegiate High School", "school_type": "Traditional", "classification": "Charter", "school_level": "High", "grade_level": "12-Sep", "address": "451 S. Tejon St.", "neighborhood": "Athmar Park", "latitude": 39.70847, "longitude": -105.01098, "student_teacher_ratio": 13, "attendance_rate": 0.836, "chronically_absent": 0.528, "truancy_rate": 0.116, "perf_rating": 0.569, "SRI_score": 0.73 }, "geometry": { "type": "Point", "coordinates": [ -105.01098, 39.70847 ] } },
{ "type": "Feature", "properties": { "school_id": 7246, "school_name": "Respect Academy", "school_type": "Alternative/Pathway", "classification": "District", "school_level": "High", "grade_level": "12-Sep", "address": "2285 S. Federal Blvd", "neighborhood": "Harvey Park", "latitude": 39.67577, "longitude": -105.02651, "student_teacher_ratio": 11, "attendance_rate": 0.685, "chronically_absent": 0.875, "truancy_rate": 0.257, "perf_rating": 0.7076, "SRI_score": 0.72 }, "geometry": { "type": "Point", "coordinates": [ -105.02651, 39.67577 ] } },
{ "type": "Feature", "properties": { "school_id": 5685, "school_name": "McGlone Academy", "school_type": "Traditional", "classification": "District", "school_level": "K-8", "grade_level": "ECE-7", "address": "4500 Crown Blvd.", "neighborhood": "Montbello", "latitude": 39.78079, "longitude": -104.83759, "student_teacher_ratio": 13, "attendance_rate": 0.875, "chronically_absent": 0.519, "truancy_rate": 0.089, "perf_rating": 0.44, "SRI_score": 0.71 }, "geometry": { "type": "Point", "coordinates": [ -104.83759, 39.78079 ] } },
{ "type": "Feature", "properties": { "school_id": 7361, "school_name": "RiseUp Community School", "school_type": "Alternative/Pathway", "classification": "Charter", "school_level": "High", "grade_level": "12-Sep", "address": "2342 Broadway", "neighborhood": "Five Points", "latitude": 39.75545, "longitude": -104.98744, "student_teacher_ratio": 9, "attendance_rate": 0.795, "chronically_absent": 0.725, "truancy_rate": 0.156, "perf_rating": 0.604, "SRI_score": 0.7 }, "geometry": { "type": "Point", "coordinates": [ -104.98744, 39.75545 ] } },
{ "type": "Feature", "properties": { "school_id": 5605, "school_name": "Dr. Martin Luther King Jr. Early College", "school_type": "Traditional", "classification": "District", "school_level": "High", "grade_level": "12-Sep", "address": "19535 E. 46th Ave.", "neighborhood": "Gateway - Green Valley Ranch", "latitude": 39.78036, "longitude": -104.76016, "student_teacher_ratio": 15, "attendance_rate": 0.874, "chronically_absent": 0.497, "truancy_rate": 0.07, "perf_rating": 0.461, "SRI_score": 0.69 }, "geometry": { "type": "Point", "coordinates": [ -104.76016, 39.78036 ] } },
{ "type": "Feature", "properties": { "school_id": 6314, "school_name": "North High School", "school_type": "Traditional", "classification": "District", "school_level": "High", "grade_level": "12-Sep", "address": "2960 N. Speer Blvd.", "neighborhood": "Highland", "latitude": 39.76044, "longitude": -105.02267, "student_teacher_ratio": 17, "attendance_rate": 0.881, "chronically_absent": 0.444, "truancy_rate": 0.081, "perf_rating": 0.485, "SRI_score": 0.68 }, "geometry": { "type": "Point", "coordinates": [ -105.02267, 39.76044 ] } },
{ "type": "Feature", "properties": { "school_id": 3296, "school_name": "Garden Place Academy", "school_type": "Traditional", "classification": "District", "school_level": "K-8", "grade_level": "ECE-8", "address": "4425 Lincoln St", "neighborhood": "Globeville", "latitude": 39.7858, "longitude": -104.9882, "student_teacher_ratio": 14, "attendance_rate": 0.88, "chronically_absent": 0.429, "truancy_rate": 0.089, "perf_rating": 0.426, "SRI_score": 0.67 }, "geometry": { "type": "Point", "coordinates": [ -104.9882, 39.7858 ] } },
{ "type": "Feature", "properties": { "school_id": 1489, "school_name": "Compassion Road Academy", "school_type": "Alternative/Pathway", "classification": "District", "school_level": "High", "grade_level": "12-Sep", "address": "1000 Cherokee St.", "neighborhood": "Civic Center", "latitude": 39.73225, "longitude": -104.99166, "student_teacher_ratio": 11, "attendance_rate": 0.742, "chronically_absent": 0.868, "truancy_rate": 0.141, "perf_rating": 0.6999, "SRI_score": 0.66 }, "geometry": { "type": "Point", "coordinates": [ -104.99166, 39.73225 ] } },
{ "type": "Feature", "properties": { "school_id": 8085, "school_name": "Rocky Mountain Prep Federal", "school_type": "Traditional", "classification": "Charter", "school_level": "Middle", "grade_level": "8-Jun", "address": "2626 W. Evans Ave.", "neighborhood": "College View - South Platte", "latitude": 39.67841, "longitude": -105.01864, "student_teacher_ratio": 14, "attendance_rate": 0.873, "chronically_absent": 0.459, "truancy_rate": 0.074, "perf_rating": 0.451, "SRI_score": 0.65 }, "geometry": { "type": "Point", "coordinates": [ -105.01864, 39.67841 ] } },
{ "type": "Feature", "properties": { "school_id": 6970, "school_name": "Florida Pitt-Waller ECE-8 School", "school_type": "Traditional", "classification": "District", "school_level": "K-8", "grade_level": "ECE-8", "address": "21601 E. 51st Place", "neighborhood": "Gateway - Green Valley Ranch", "latitude": 39.78944, "longitude": -104.73602, "student_teacher_ratio": 16, "attendance_rate": 0.889, "chronically_absent": 0.454, "truancy_rate": 0.061, "perf_rating": 0.419, "SRI_score": 0.64 }, "geometry": { "type": "Point", "coordinates": [ -104.73602, 39.78944 ] } },
{ "type": "Feature", "properties": { "school_id": 2175, "school_name": "DSST: Cole High School", "school_type": "Traditional", "classification": "Charter", "school_level": "High", "grade_level": "12-Sep", "address": "3240 Humboldt St.", "neighborhood": "Cole", "latitude": 39.76259, "longitude": -104.96974, "student_teacher_ratio": 10, "attendance_rate": 0.84, "chronically_absent": 0.579, "truancy_rate": 0.118, "perf_rating": 0.575, "SRI_score": 0.63 }, "geometry": { "type": "Point", "coordinates": [ -104.96974, 39.76259 ] } },
{ "type": "Feature", "properties": { "school_id": 2994, "school_name": "5280 High School", "school_type": "Alternative/Pathway", "classification": "Charter", "school_level": "High", "grade_level": "12-Sep", "address": "1200 W. Mississippi Ave.", "neighborhood": "Ruby Hill", "latitude": 39.6966, "longitude": -105.00184, "student_teacher_ratio": 7, "attendance_rate": 0.789, "chronically_absent": 0.813, "truancy_rate": 0.129, "perf_rating": 0.6761, "SRI_score": 0.62 }, "geometry": { "type": "Point", "coordinates": [ -105.00184, 39.6966 ] } },
{ "type": "Feature", "properties": { "school_id": 8145, "school_name": "Summit at Castro", "school_type": "Alternative/Pathway", "classification": "District", "school_level": "High", "grade_level": "12-Sep", "address": "5590 W. Evans Ave.", "neighborhood": "Harvey Park", "latitude": 39.67915, "longitude": -105.05693, "student_teacher_ratio": 11, "attendance_rate": 0.821, "chronically_absent": 0.69, "truancy_rate": 0.119, "perf_rating": 0.67, "SRI_score": 0.61 }, "geometry": { "type": "Point", "coordinates": [ -105.05693, 39.67915 ] } },
{ "type": "Feature", "properties": { "school_id": 3990, "school_name": "Hill Campus of Arts and Sciences", "school_type": "Traditional", "classification": "District", "school_level": "Middle", "grade_level": "8-Jun", "address": "451 Clermont St.", "neighborhood": "Hilltop", "latitude": 39.7237, "longitude": -104.93488, "student_teacher_ratio": 16, "attendance_rate": 0.88, "chronically_absent": 0.419, "truancy_rate": 0.071, "perf_rating": 0.463, "SRI_score": 0.6 }, "geometry": { "type": "Point", "coordinates": [ -104.93488, 39.7237 ] } },
{ "type": "Feature", "properties": { "school_id": 9336, "school_name": "Rocky Mountain Prep Sunnyside", "school_type": "Traditional", "classification": "Charter", "school_level": "Middle", "grade_level": "8-Jun", "address": "4735 Pecos St.", "neighborhood": "Sunnyside", "latitude": 39.78211, "longitude": -105.00645, "student_teacher_ratio": 13, "attendance_rate": 0.863, "chronically_absent": 0.594, "truancy_rate": 0.073, "perf_rating": 0.566, "SRI_score": 0.59 }, "geometry": { "type": "Point", "coordinates": [ -105.00645, 39.78211 ] } },
{ "type": "Feature", "properties": { "school_id": 6350, "school_name": "Bruce Randolph School", "school_type": "Traditional", "classification": "District", "school_level": "High", "grade_level": "12-Sep", "address": "3955 Steele St.", "neighborhood": "Clayton", "latitude": 39.7719, "longitude": -104.95071, "student_teacher_ratio": 13, "attendance_rate": 0.87, "chronically_absent": 0.51, "truancy_rate": 0.071, "perf_rating": 0.491, "SRI_score": 0.58 }, "geometry": { "type": "Point", "coordinates": [ -104.95071, 39.7719 ] } },
{ "type": "Feature", "properties": { "school_id": 2209, "school_name": "Montbello High School", "school_type": "Traditional", "classification": "District", "school_level": "High", "grade_level": "12-Sep", "address": "5000 Crown Blvd.", "neighborhood": "Montbello", "latitude": 39.78635, "longitude": -104.82821, "student_teacher_ratio": 15, "attendance_rate": 0.881, "chronically_absent": 0.435, "truancy_rate": 0.081, "perf_rating": 0.5, "SRI_score": 0.57 }, "geometry": { "type": "Point", "coordinates": [ -104.82821, 39.78635 ] } },
{ "type": "Feature", "properties": { "school_id": 4513, "school_name": "Kepner Beacon Middle School", "school_type": "Traditional", "classification": "District", "school_level": "Middle", "grade_level": "7-Jun", "address": "911 S. Hazel Ct.", "neighborhood": "Westwood", "latitude": 39.70002, "longitude": -105.02743, "student_teacher_ratio": 13, "attendance_rate": 0.872, "chronically_absent": 0.475, "truancy_rate": 0.084, "perf_rating": 0.533, "SRI_score": 0.56 }, "geometry": { "type": "Point", "coordinates": [ -105.02743, 39.70002 ] } },
{ "type": "Feature", "properties": { "school_id": 2213, "school_name": "Montbello Middle School", "school_type": "Traditional", "classification": "District", "school_level": "Middle", "grade_level": "8-Jun", "address": "5100 Crown Blvd.", "neighborhood": "Montbello", "latitude": 39.79, "longitude": -104.82, "student_teacher_ratio": 14, "attendance_rate": 0.884, "chronically_absent": 0.491, "truancy_rate": 0.055, "perf_rating": 0.422, "SRI_score": 0.55 }, "geometry": { "type": "Point", "coordinates": [ -104.82, 39.79 ] } },
{ "type": "Feature", "properties": { "school_id": 9548, "school_name": "Whittier ECE-8 School", "school_type": "Traditional", "classification": "District", "school_level": "K-8", "grade_level": "ECE-8", "address": "2480 Downing St.", "neighborhood": "Whittier", "latitude": 39.75197, "longitude": -104.97274, "student_teacher_ratio": 13, "attendance_rate": 0.875, "chronically_absent": 0.506, "truancy_rate": 0.081, "perf_rating": 0.533, "SRI_score": 0.54 }, "geometry": { "type": "Point", "coordinates": [ -104.97274, 39.75197 ] } },
{ "type": "Feature", "properties": { "school_id": 7973, "school_name": "Rocky Mountain Prep RISE", "school_type": "Traditional", "classification": "Charter", "school_level": "High", "grade_level": "10-Sep", "address": "18250 E. 51st Ave.", "neighborhood": "Gateway - Green Valley Ranch", "latitude": 39.78954, "longitude": -104.77162, "student_teacher_ratio": 12, "attendance_rate": 0.868, "chronically_absent": 0.532, "truancy_rate": 0.094, "perf_rating": 0.602, "SRI_score": 0.53 }, "geometry": { "type": "Point", "coordinates": [ -104.77162, 39.78954 ] } },
{ "type": "Feature", "properties": { "school_id": 9730, "school_name": "Rocky Mountain Prep Green Valley Ranch", "school_type": "Traditional", "classification": "Charter", "school_level": "Middle", "grade_level": "8-Jun", "address": "4800 N. Telluride St.  Bldg. 5", "neighborhood": "Gateway - Green Valley Ranch", "latitude": 39.78564, "longitude": -104.78144, "student_teacher_ratio": 15, "attendance_rate": 0.892, "chronically_absent": 0.418, "truancy_rate": 0.089, "perf_rating": 0.498, "SRI_score": 0.52 }, "geometry": { "type": "Point", "coordinates": [ -104.78144, 39.78564 ] } },
{ "type": "Feature", "properties": { "school_id": 4140, "school_name": "Farrell B. Howell ECE-8 School", "school_type": "Traditional", "classification": "District", "school_level": "K-8", "grade_level": "ECE-8", "address": "14250 E. Albrook Dr.", "neighborhood": "Montbello", "latitude": 39.77689, "longitude": -104.83249, "student_teacher_ratio": 13, "attendance_rate": 0.879, "chronically_absent": 0.46, "truancy_rate": 0.075, "perf_rating": 0.473, "SRI_score": 0.51 }, "geometry": { "type": "Point", "coordinates": [ -104.83249, 39.77689 ] } },
{ "type": "Feature", "properties": { "school_id": 2188, "school_name": "Denver Center for 21st-Century Learning at Wyman", "school_type": "Alternative/Pathway", "classification": "District", "school_level": "High", "grade_level": "12-Sep", "address": "1690 Williams St.", "neighborhood": "City Park West", "latitude": 39.74234, "longitude": -104.9653, "student_teacher_ratio": 10, "attendance_rate": 0.854, "chronically_absent": 0.572, "truancy_rate": 0.097, "perf_rating": 0.6094, "SRI_score": 0.5 }, "geometry": { "type": "Point", "coordinates": [ -104.9653, 39.74234 ] } },
{ "type": "Feature", "properties": { "school_id": 5044, "school_name": "Legacy Options High School", "school_type": "Alternative/Pathway", "classification": "District", "school_level": "High", "grade_level": "12-Sep", "address": "6850 N. Argonne St.", "neighborhood": "DIA", "latitude": 39.82075, "longitude": -104.76929, "student_teacher_ratio": 12, "attendance_rate": 0.846, "chronically_absent": 0.636, "truancy_rate": 0.091, "perf_rating": 0.695, "SRI_score": 0.49 }, "geometry": { "type": "Point", "coordinates": [ -104.76929, 39.82075 ] } },
{ "type": "Feature", "properties": { "school_id": 4732, "school_name": "KIPP Sunshine Peak Academy", "school_type": "Traditional", "classification": "Charter", "school_level": "Middle", "grade_level": "8-May", "address": "375 S. Tejon St.", "neighborhood": "Athmar Park", "latitude": 39.70973, "longitude": -105.01216, "student_teacher_ratio": 14, "attendance_rate": 0.878, "chronically_absent": 0.435, "truancy_rate": 0.072, "perf_rating": 0.495, "SRI_score": 0.48 }, "geometry": { "type": "Point", "coordinates": [ -105.01216, 39.70973 ] } },
{ "type": "Feature", "properties": { "school_id": 7045, "school_name": "Place Bridge Academy", "school_type": "Traditional", "classification": "District", "school_level": "K-8", "grade_level": "ECE-8", "address": "7125 Cherry Creek North Drive", "neighborhood": "Washington Virginia Vale", "latitude": 39.6878, "longitude": -104.90617, "student_teacher_ratio": 12, "attendance_rate": 0.887, "chronically_absent": 0.459, "truancy_rate": 0.074, "perf_rating": 0.419, "SRI_score": 0.47 }, "geometry": { "type": "Point", "coordinates": [ -104.90617, 39.6878 ] } },
{ "type": "Feature", "properties": { "school_id": 6508, "school_name": "Omar D Blair Charter School", "school_type": "Traditional", "classification": "Charter", "school_level": "K-8", "grade_level": "K-8", "address": "4905 Cathay St.", "neighborhood": "Gateway - Green Valley Ranch", "latitude": 39.78672, "longitude": -104.76558, "student_teacher_ratio": 15, "attendance_rate": 0.892, "chronically_absent": 0.428, "truancy_rate": 0.072, "perf_rating": 0.496, "SRI_score": 0.46 }, "geometry": { "type": "Point", "coordinates": [ -104.76558, 39.78672 ] } },
{ "type": "Feature", "properties": { "school_id": 3605, "school_name": "Grant Ranch ECE-8 School", "school_type": "Traditional", "classification": "District", "school_level": "K-8", "grade_level": "ECE-8", "address": "5400 S. Jay Circle", "neighborhood": "Marston", "latitude": 39.61719, "longitude": -105.0646, "student_teacher_ratio": 13, "attendance_rate": 0.893, "chronically_absent": 0.447, "truancy_rate": 0.066, "perf_rating": 0.394, "SRI_score": 0.45 }, "geometry": { "type": "Point", "coordinates": [ -105.0646, 39.61719 ] } },
{ "type": "Feature", "properties": { "school_id": 2125, "school_name": "Denver Green School Southeast", "school_type": "Traditional", "classification": "District", "school_level": "K-8", "grade_level": "K-8", "address": "6700 E. Virginia Ave.", "neighborhood": "Washington Virginia Vale", "latitude": 39.70719, "longitude": -104.90861, "student_teacher_ratio": 12, "attendance_rate": 0.884, "chronically_absent": 0.479, "truancy_rate": 0.081, "perf_rating": 0.487, "SRI_score": 0.44 }, "geometry": { "type": "Point", "coordinates": [ -104.90861, 39.70719 ] } },
{ "type": "Feature", "properties": { "school_id": 2025, "school_name": "Robert F. Smith STEAM Academy", "school_type": "Traditional", "classification": "District", "school_level": "High", "grade_level": "12-Sep", "address": "2900 Richard Allen Ct.", "neighborhood": "Skyland", "latitude": 39.75861, "longitude": -104.94304, "student_teacher_ratio": 9, "attendance_rate": 0.874, "chronically_absent": 0.506, "truancy_rate": 0.058, "perf_rating": 0.43, "SRI_score": 0.425 }, "geometry": { "type": "Point", "coordinates": [ -104.94304, 39.75861 ] } },
{ "type": "Feature", "properties": { "school_id": 4509, "school_name": "KIPP Northeast Denver Leadership Academy", "school_type": "Traditional", "classification": "Charter", "school_level": "High", "grade_level": "12-Sep", "address": "18250 E 51st Ave", "neighborhood": "Gateway - Green Valley Ranch", "latitude": 39.78954, "longitude": -104.77162, "student_teacher_ratio": 14, "attendance_rate": 0.883, "chronically_absent": 0.445, "truancy_rate": 0.064, "perf_rating": 0.522, "SRI_score": 0.425 }, "geometry": { "type": "Point", "coordinates": [ -104.77162, 39.78954 ] } },
{ "type": "Feature", "properties": { "school_id": 3600, "school_name": "Grant Beacon Middle School", "school_type": "Traditional", "classification": "District", "school_level": "Middle", "grade_level": "8-Jun", "address": "1751 S. Washington St.", "neighborhood": "Platt Park", "latitude": 39.68544, "longitude": -104.97931, "student_teacher_ratio": 18, "attendance_rate": 0.889, "chronically_absent": 0.41, "truancy_rate": 0.058, "perf_rating": 0.616, "SRI_score": 0.41 }, "geometry": { "type": "Point", "coordinates": [ -104.97931, 39.68544 ] } },
{ "type": "Feature", "properties": { "school_id": 2398, "school_name": "East High School", "school_type": "Traditional", "classification": "District", "school_level": "High", "grade_level": "12-Sep", "address": "1600 City Park Esplanade", "neighborhood": "City Park", "latitude": 39.7416, "longitude": -104.95669, "student_teacher_ratio": 18, "attendance_rate": 0.884, "chronically_absent": 0.361, "truancy_rate": 0.081, "perf_rating": 0.707, "SRI_score": 0.4 }, "geometry": { "type": "Point", "coordinates": [ -104.95669, 39.7416 ] } },
{ "type": "Feature", "properties": { "school_id": 8822, "school_name": "Thomas Jefferson High School", "school_type": "Traditional", "classification": "District", "school_level": "High", "grade_level": "12-Sep", "address": "3950 S. Holly St.", "neighborhood": "Southmoor Park", "latitude": 39.64737, "longitude": -104.9218, "student_teacher_ratio": 17, "attendance_rate": 0.891, "chronically_absent": 0.414, "truancy_rate": 0.057, "perf_rating": 0.612, "SRI_score": 0.39 }, "geometry": { "type": "Point", "coordinates": [ -104.9218, 39.64737 ] } },
{ "type": "Feature", "properties": { "school_id": 9389, "school_name": "Rocky Mountain Prep Westwood", "school_type": "Traditional", "classification": "Charter", "school_level": "Middle", "grade_level": "8-Jun", "address": "3201 W. Arizona Ave.", "neighborhood": "Mar Lee", "latitude": 39.69529, "longitude": -105.02758, "student_teacher_ratio": 14, "attendance_rate": 0.899, "chronically_absent": 0.377, "truancy_rate": 0.087, "perf_rating": 0.589, "SRI_score": 0.38 }, "geometry": { "type": "Point", "coordinates": [ -105.02758, 39.69529 ] } },
{ "type": "Feature", "properties": { "school_id": 2183, "school_name": "Denver Center for International Studies", "school_type": "Traditional", "classification": "District", "school_level": "High", "grade_level": "12-Sep", "address": "574 W. 6th Ave.", "neighborhood": "Lincoln Park", "latitude": 39.72569, "longitude": -104.99445, "student_teacher_ratio": 10, "attendance_rate": 0.872, "chronically_absent": 0.449, "truancy_rate": 0.083, "perf_rating": 0.591, "SRI_score": 0.37 }, "geometry": { "type": "Point", "coordinates": [ -104.99445, 39.72569 ] } },
{ "type": "Feature", "properties": { "school_id": 2190, "school_name": "DSST: Elevate Northeast Middle School", "school_type": "Traditional", "classification": "Charter", "school_level": "Middle", "grade_level": "8-Jun", "address": "10825 E. 47th Ave.", "neighborhood": "Montbello", "latitude": 39.78324, "longitude": -104.8626, "student_teacher_ratio": 12, "attendance_rate": 0.88, "chronically_absent": 0.45, "truancy_rate": 0.087, "perf_rating": 0.631, "SRI_score": 0.36 }, "geometry": { "type": "Point", "coordinates": [ -104.8626, 39.78324 ] } },
{ "type": "Feature", "properties": { "school_id": 2244, "school_name": "DSST: College View High School", "school_type": "Traditional", "classification": "Charter", "school_level": "High", "grade_level": "12-Sep", "address": "3111 W. Dartmouth Ave.", "neighborhood": "Harvey Park South", "latitude": 39.6596, "longitude": -105.02729, "student_teacher_ratio": 12, "attendance_rate": 0.869, "chronically_absent": 0.447, "truancy_rate": 0.091, "perf_rating": 0.707, "SRI_score": 0.35 }, "geometry": { "type": "Point", "coordinates": [ -105.02729, 39.6596 ] } },
{ "type": "Feature", "properties": { "school_id": 2026, "school_name": "DSST: Elevate Northeast High School", "school_type": "Traditional", "classification": "Charter", "school_level": "High", "grade_level": "12-Sep", "address": "10825 E. 47th Ave.", "neighborhood": "Montbello", "latitude": 39.78324, "longitude": -104.8626, "student_teacher_ratio": 12, "attendance_rate": 0.882, "chronically_absent": 0.452, "truancy_rate": 0.08, "perf_rating": 0.605, "SRI_score": 0.34 }, "geometry": { "type": "Point", "coordinates": [ -104.8626, 39.78324 ] } },
{ "type": "Feature", "properties": { "school_id": 1077, "school_name": "Bear Valley Middle School", "school_type": "Traditional", "classification": "District", "school_level": "Middle", "grade_level": "7-Jun", "address": "3005 S. Golden Way", "neighborhood": "Bear Valley", "latitude": 39.66067, "longitude": -105.05759, "student_teacher_ratio": 11, "attendance_rate": 0.878, "chronically_absent": 0.481, "truancy_rate": 0.058, "perf_rating": 0.574, "SRI_score": 0.33 }, "geometry": { "type": "Point", "coordinates": [ -105.05759, 39.66067 ] } },
{ "type": "Feature", "properties": { "school_id": 7694, "school_name": "Charles M. Schenck (CMS) Community School", "school_type": "Traditional", "classification": "District", "school_level": "K-8", "grade_level": "ECE-8", "address": "3240 Humboldt St", "neighborhood": "Cole", "latitude": 39.7643, "longitude": -104.9648, "student_teacher_ratio": 13, "attendance_rate": 0.907, "chronically_absent": 0.361, "truancy_rate": 0.059, "perf_rating": 0.451, "SRI_score": 0.32 }, "geometry": { "type": "Point", "coordinates": [ -104.9648, 39.7643 ] } },
{ "type": "Feature", "properties": { "school_id": 2218, "school_name": "DSST: Conservatory Green Middle School", "school_type": "Traditional", "classification": "Charter", "school_level": "Middle", "grade_level": "8-Jun", "address": "8499 E. Stoll Place", "neighborhood": "Central Park", "latitude": 39.78906, "longitude": -104.88889, "student_teacher_ratio": 17, "attendance_rate": 0.905, "chronically_absent": 0.371, "truancy_rate": 0.039, "perf_rating": 0.631, "SRI_score": 0.31 }, "geometry": { "type": "Point", "coordinates": [ -104.88889, 39.78906 ] } },
{ "type": "Feature", "properties": { "school_id": 1106, "school_name": "Bryant Webster Dual Language ECE-8 School", "school_type": "Traditional", "classification": "District", "school_level": "K-8", "grade_level": "ECE-8", "address": "3635 Quivas St.", "neighborhood": "Highland", "latitude": 39.76719, "longitude": -105.00801, "student_teacher_ratio": 15, "attendance_rate": 0.899, "chronically_absent": 0.404, "truancy_rate": 0.06, "perf_rating": 0.68, "SRI_score": 0.3 }, "geometry": { "type": "Point", "coordinates": [ -105.00801, 39.76719 ] } },
{ "type": "Feature", "properties": { "school_id": 8086, "school_name": "South High School", "school_type": "Traditional", "classification": "District", "school_level": "High", "grade_level": "12-Sep", "address": "1700 E. Louisiana Ave.", "neighborhood": "Washington Park", "latitude": 39.69246, "longitude": -104.96612, "student_teacher_ratio": 18, "attendance_rate": 0.917, "chronically_absent": 0.303, "truancy_rate": 0.038, "perf_rating": 0.643, "SRI_score": 0.29 }, "geometry": { "type": "Point", "coordinates": [ -104.96612, 39.69246 ] } },
{ "type": "Feature", "properties": { "school_id": 6368, "school_name": "Northfield High School", "school_type": "Traditional", "classification": "District", "school_level": "High", "grade_level": "12-Sep", "address": "5500 Central Park Blvd.", "neighborhood": "Central Park", "latitude": 39.79715, "longitude": -104.88425, "student_teacher_ratio": 19, "attendance_rate": 0.912, "chronically_absent": 0.284, "truancy_rate": 0.044, "perf_rating": 0.695, "SRI_score": 0.28 }, "geometry": { "type": "Point", "coordinates": [ -104.88425, 39.79715 ] } },
{ "type": "Feature", "properties": { "school_id": 3647, "school_name": "Marie L. Greenwood Academy", "school_type": "Traditional", "classification": "District", "school_level": "K-8", "grade_level": "ECE-8", "address": "5130 Durham Court", "neighborhood": "Montbello", "latitude": 39.787, "longitude": -104.81756, "student_teacher_ratio": 15, "attendance_rate": 0.915, "chronically_absent": 0.317, "truancy_rate": 0.064, "perf_rating": 0.647, "SRI_score": 0.27 }, "geometry": { "type": "Point", "coordinates": [ -104.81756, 39.787 ] } },
{ "type": "Feature", "properties": { "school_id": 4381, "school_name": "DSST: College View Middle School", "school_type": "Traditional", "classification": "Charter", "school_level": "Middle", "grade_level": "8-Jun", "address": "3111 W. Dartmouth Ave.", "neighborhood": "Harvey Park South", "latitude": 39.6596, "longitude": -105.02729, "student_teacher_ratio": 12, "attendance_rate": 0.892, "chronically_absent": 0.416, "truancy_rate": 0.049, "perf_rating": 0.566, "SRI_score": 0.26 }, "geometry": { "type": "Point", "coordinates": [ -105.02729, 39.6596 ] } },
{ "type": "Feature", "properties": { "school_id": 2145, "school_name": "DSST: Green Valley Ranch High School", "school_type": "Traditional", "classification": "Charter", "school_level": "High", "grade_level": "12-Sep", "address": "4800 N. Telluride St.", "neighborhood": "Gateway - Green Valley Ranch", "latitude": 39.78564, "longitude": -104.78144, "student_teacher_ratio": 13, "attendance_rate": 0.883, "chronically_absent": 0.422, "truancy_rate": 0.052, "perf_rating": 0.689, "SRI_score": 0.25 }, "geometry": { "type": "Point", "coordinates": [ -104.78144, 39.78564 ] } },
{ "type": "Feature", "properties": { "school_id": 1319, "school_name": "Career Education Center Early College", "school_type": "Traditional", "classification": "District", "school_level": "High", "grade_level": "12-Sep", "address": "2650 Eliot St.", "neighborhood": "Jefferson Park", "latitude": 39.7554, "longitude": -105.02336, "student_teacher_ratio": 17, "attendance_rate": 0.945, "chronically_absent": 0.204, "truancy_rate": 0.032, "perf_rating": 0.567, "SRI_score": 0.24 }, "geometry": { "type": "Point", "coordinates": [ -105.02336, 39.7554 ] } },
{ "type": "Feature", "properties": { "school_id": 7942, "school_name": "Skinner Middle School", "school_type": "Traditional", "classification": "District", "school_level": "Middle", "grade_level": "8-Jun", "address": "3435 W. 40th Ave.", "neighborhood": "Berkeley", "latitude": 39.77237, "longitude": -105.03208, "student_teacher_ratio": 17, "attendance_rate": 0.909, "chronically_absent": 0.271, "truancy_rate": 0.058, "perf_rating": 0.761, "SRI_score": 0.23 }, "geometry": { "type": "Point", "coordinates": [ -105.03208, 39.77237 ] } },
{ "type": "Feature", "properties": { "school_id": 2228, "school_name": "DSST: Cedar High School", "school_type": "Traditional", "classification": "Charter", "school_level": "High", "grade_level": "12-Sep", "address": "150 S Pearl St", "neighborhood": "Washington Park", "latitude": 39.7179, "longitude": -104.9804, "student_teacher_ratio": 15, "attendance_rate": 0.901, "chronically_absent": 0.363, "truancy_rate": 0.051, "perf_rating": 0.784, "SRI_score": 0.22 }, "geometry": { "type": "Point", "coordinates": [ -104.9804, 39.7179 ] } },
{ "type": "Feature", "properties": { "school_id": 2174, "school_name": "Denison Montessori School", "school_type": "Traditional", "classification": "District", "school_level": "Elementary", "grade_level": "ECE-6", "address": "1821 S. Yates St.", "neighborhood": "Mar Lee", "latitude": 39.68345, "longitude": -105.05188, "student_teacher_ratio": 16, "attendance_rate": 0.914, "chronically_absent": 0.291, "truancy_rate": 0.035, "perf_rating": 0.684, "SRI_score": 0.21 }, "geometry": { "type": "Point", "coordinates": [ -105.05188, 39.68345 ] } },
{ "type": "Feature", "properties": { "school_id": 2115, "school_name": "DSST: Montview Middle School", "school_type": "Traditional", "classification": "Charter", "school_level": "Middle", "grade_level": "8-Jun", "address": "2000 Valentia St.", "neighborhood": "Central Park", "latitude": 39.74825, "longitude": -104.89133, "student_teacher_ratio": 12, "attendance_rate": 0.904, "chronically_absent": 0.335, "truancy_rate": 0.053, "perf_rating": 0.599, "SRI_score": 0.195 }, "geometry": { "type": "Point", "coordinates": [ -104.89133, 39.74825 ] } },
{ "type": "Feature", "properties": { "school_id": 9639, "school_name": "Rocky Mountain Prep SMART", "school_type": "Traditional", "classification": "Charter", "school_level": "High", "grade_level": "12-Sep", "address": "3201 W. Arizona Ave.", "neighborhood": "Mar Lee", "latitude": 39.69529, "longitude": -105.02758, "student_teacher_ratio": 12, "attendance_rate": 0.904, "chronically_absent": 0.351, "truancy_rate": 0.062, "perf_rating": 0.633, "SRI_score": 0.195 }, "geometry": { "type": "Point", "coordinates": [ -105.02758, 39.69529 ] } },
{ "type": "Feature", "properties": { "school_id": 2181, "school_name": "DSST: Green Valley Ranch Middle School", "school_type": "Traditional", "classification": "Charter", "school_level": "Middle", "grade_level": "8-Jun", "address": "4800 N. Telluride St.", "neighborhood": "Gateway - Green Valley Ranch", "latitude": 39.78564, "longitude": -104.78144, "student_teacher_ratio": 16, "attendance_rate": 0.924, "chronically_absent": 0.258, "truancy_rate": 0.032, "perf_rating": 0.645, "SRI_score": 0.175 }, "geometry": { "type": "Point", "coordinates": [ -104.78144, 39.78564 ] } },
{ "type": "Feature", "properties": { "school_id": 2185, "school_name": "DSST: Montview High School", "school_type": "Traditional", "classification": "Charter", "school_level": "High", "grade_level": "12-Sep", "address": "2000 Valentia St.", "neighborhood": "Central Park", "latitude": 39.74825, "longitude": -104.89133, "student_teacher_ratio": 14, "attendance_rate": 0.903, "chronically_absent": 0.323, "truancy_rate": 0.046, "perf_rating": 0.695, "SRI_score": 0.175 }, "geometry": { "type": "Point", "coordinates": [ -104.89133, 39.74825 ] } },
{ "type": "Feature", "properties": { "school_id": 5255, "school_name": "Lake Middle School", "school_type": "Traditional", "classification": "District", "school_level": "Middle", "grade_level": "8-Jun", "address": "1820 Lowell Blvd.", "neighborhood": "West Colfax", "latitude": 39.74563, "longitude": -105.03422, "student_teacher_ratio": 14, "attendance_rate": 0.905, "chronically_absent": 0.321, "truancy_rate": 0.057, "perf_rating": 0.706, "SRI_score": 0.16 }, "geometry": { "type": "Point", "coordinates": [ -105.03422, 39.74563 ] } },
{ "type": "Feature", "properties": { "school_id": 1529, "school_name": "DSST: Conservatory Green High School", "school_type": "Traditional", "classification": "Charter", "school_level": "High", "grade_level": "12-Sep", "address": "5590 Central Park Blvd.", "neighborhood": "Central Park", "latitude": 39.79786, "longitude": -104.88425, "student_teacher_ratio": 14, "attendance_rate": 0.903, "chronically_absent": 0.329, "truancy_rate": 0.04, "perf_rating": 0.752, "SRI_score": 0.15 }, "geometry": { "type": "Point", "coordinates": [ -104.88425, 39.79786 ] } },
{ "type": "Feature", "properties": { "school_id": 6397, "school_name": "Academia Ana Marie Sandoval", "school_type": "Traditional", "classification": "District", "school_level": "Elementary", "grade_level": "ECE-6", "address": "3655 Wyandot St.", "neighborhood": "Highland", "latitude": 39.76744, "longitude": -105.01503, "student_teacher_ratio": 17, "attendance_rate": 0.925, "chronically_absent": 0.179, "truancy_rate": 0.034, "perf_rating": 0.73, "SRI_score": 0.14 }, "geometry": { "type": "Point", "coordinates": [ -105.01503, 39.76744 ] } },
{ "type": "Feature", "properties": { "school_id": 4507, "school_name": "KIPP Northeast Denver Middle School", "school_type": "Traditional", "classification": "Charter", "school_level": "Middle", "grade_level": "8-May", "address": "4635 Walden St.", "neighborhood": "Gateway - Green Valley Ranch", "latitude": 39.78087, "longitude": -104.77819, "student_teacher_ratio": 12, "attendance_rate": 0.908, "chronically_absent": 0.381, "truancy_rate": 0.043, "perf_rating": 0.67, "SRI_score": 0.13 }, "geometry": { "type": "Point", "coordinates": [ -104.77819, 39.78087 ] } },
{ "type": "Feature", "properties": { "school_id": 5897, "school_name": "McAuliffe International School", "school_type": "Traditional", "classification": "District", "school_level": "Middle", "grade_level": "8-Jun", "address": "2540 Holly St.", "neighborhood": "North Park Hill", "latitude": 39.75377, "longitude": -104.92227, "student_teacher_ratio": 20, "attendance_rate": 0.931, "chronically_absent": 0.19, "truancy_rate": 0.02, "perf_rating": 0.878, "SRI_score": 0.12 }, "geometry": { "type": "Point", "coordinates": [ -104.92227, 39.75377 ] } },
{ "type": "Feature", "properties": { "school_id": 5826, "school_name": "Merrill Middle School", "school_type": "Traditional", "classification": "District", "school_level": "Middle", "grade_level": "8-Jun", "address": "1551 S. Monroe St.", "neighborhood": "Cory - Merrill", "latitude": 39.68874, "longitude": -104.94535, "student_teacher_ratio": 16, "attendance_rate": 0.916, "chronically_absent": 0.278, "truancy_rate": 0.03, "perf_rating": 0.778, "SRI_score": 0.11 }, "geometry": { "type": "Point", "coordinates": [ -104.94535, 39.68874 ] } },
{ "type": "Feature", "properties": { "school_id": 2176, "school_name": "Denver Green School Northfield", "school_type": "Traditional", "classification": "District", "school_level": "Middle", "grade_level": "8-Jun", "address": "5677 N. Galena St.", "neighborhood": "Central Park", "latitude": 39.79976, "longitude": -104.86855, "student_teacher_ratio": 17, "attendance_rate": 0.935, "chronically_absent": 0.182, "truancy_rate": 0.042, "perf_rating": 0.935, "SRI_score": 0.1 }, "geometry": { "type": "Point", "coordinates": [ -104.86855, 39.79976 ] } },
{ "type": "Feature", "properties": { "school_id": 5158, "school_name": "Lincoln Elementary School", "school_type": "Traditional", "classification": "District", "school_level": "Elementary", "grade_level": "ECE-6", "address": "710 S. Pennsylvania St.", "neighborhood": "Washington Park West", "latitude": 39.70363, "longitude": -104.98158, "student_teacher_ratio": 16, "attendance_rate": 0.94, "chronically_absent": 0.139, "truancy_rate": 0.032, "perf_rating": 0.695, "SRI_score": 0.09 }, "geometry": { "type": "Point", "coordinates": [ -104.98158, 39.70363 ] } },
{ "type": "Feature", "properties": { "school_id": 6098, "school_name": "Morey Middle School", "school_type": "Traditional", "classification": "District", "school_level": "Middle", "grade_level": "8-Jun", "address": "840 E. 14th Ave.", "neighborhood": "Capitol Hill", "latitude": 39.73758, "longitude": -104.97737, "student_teacher_ratio": 19, "attendance_rate": 0.935, "chronically_absent": 0.203, "truancy_rate": 0.014, "perf_rating": 0.916, "SRI_score": 0.08 }, "geometry": { "type": "Point", "coordinates": [ -104.97737, 39.73758 ] } },
{ "type": "Feature", "properties": { "school_id": 2184, "school_name": "Denver School of the Arts", "school_type": "Traditional", "classification": "District", "school_level": "High", "grade_level": "12-Sep", "address": "7111 Montview Blvd.", "neighborhood": "South Park Hill", "latitude": 39.74744, "longitude": -104.90564, "student_teacher_ratio": 20, "attendance_rate": 0.947, "chronically_absent": 0.121, "truancy_rate": 0.014, "perf_rating": 0.859, "SRI_score": 0.07 }, "geometry": { "type": "Point", "coordinates": [ -104.90564, 39.74744 ] } },
{ "type": "Feature", "properties": { "school_id": 3987, "school_name": "Highline Academy Southeast", "school_type": "Traditional", "classification": "Charter", "school_level": "K-8", "grade_level": "K-8", "address": "2170 S. Dahlia St.", "neighborhood": "Goldsmith", "latitude": 39.67723, "longitude": -104.93074, "student_teacher_ratio": 13, "attendance_rate": 0.921, "chronically_absent": 0.247, "truancy_rate": 0.035, "perf_rating": 0.681, "SRI_score": 0.06 }, "geometry": { "type": "Point", "coordinates": [ -104.93074, 39.67723 ] } },
{ "type": "Feature", "properties": { "school_id": 9623, "school_name": "William (Bill) Roberts K-8 School", "school_type": "Traditional", "classification": "District", "school_level": "K-8", "grade_level": "ECE-8", "address": "2100 N. Akron Way", "neighborhood": "Central Park", "latitude": 39.74854, "longitude": -104.88317, "student_teacher_ratio": 17, "attendance_rate": 0.948, "chronically_absent": 0.095, "truancy_rate": 0.018, "perf_rating": 0.882, "SRI_score": 0.05 }, "geometry": { "type": "Point", "coordinates": [ -104.88317, 39.74854 ] } },
{ "type": "Feature", "properties": { "school_id": 7972, "school_name": "Slavens K-8 School", "school_type": "Traditional", "classification": "District", "school_level": "K-8", "grade_level": "K-8", "address": "3000 S. Clayton St.", "neighborhood": "Wellshire", "latitude": 39.66249, "longitude": -104.95604, "student_teacher_ratio": 18, "attendance_rate": 0.958, "chronically_absent": 0.044, "truancy_rate": 0.016, "perf_rating": 0.988, "SRI_score": 0.04 }, "geometry": { "type": "Point", "coordinates": [ -104.95604, 39.66249 ] } },
{ "type": "Feature", "properties": { "school_id": 3639, "school_name": "Girls Athletic Leadership School Middle School", "school_type": "Traditional", "classification": "Charter", "school_level": "Middle", "grade_level": "8-Jun", "address": "750 Galapago St.", "neighborhood": "Lincoln Park", "latitude": 39.72805, "longitude": -104.99644, "student_teacher_ratio": 13, "attendance_rate": 0.917, "chronically_absent": 0.279, "truancy_rate": 0.03, "perf_rating": 0.739, "SRI_score": 0.03 }, "geometry": { "type": "Point", "coordinates": [ -104.99644, 39.72805 ] } },
{ "type": "Feature", "properties": { "school_id": 2186, "school_name": "DSST: Cedar Middle School", "school_type": "Traditional", "classification": "Charter", "school_level": "Middle", "grade_level": "8-Jun", "address": "150 S Pearl St", "neighborhood": "Washington Park", "latitude": 39.7179, "longitude": -104.9804, "student_teacher_ratio": 14, "attendance_rate": 0.928, "chronically_absent": 0.222, "truancy_rate": 0.028, "perf_rating": 0.889, "SRI_score": 0.02 }, "geometry": { "type": "Point", "coordinates": [ -104.9804, 39.7179 ] } },
{ "type": "Feature", "properties": { "school_id": 6479, "school_name": "Odyssey School of Denver", "school_type": "Traditional", "classification": "Charter", "school_level": "K-8", "grade_level": "K-8", "address": "6550 E. 21st Ave.", "neighborhood": "South Park Hill", "latitude": 39.74845, "longitude": -104.9116, "student_teacher_ratio": 13, "attendance_rate": 0.928, "chronically_absent": 0.207, "truancy_rate": 0.035, "perf_rating": 0.762, "SRI_score": 0.01 }, "geometry": { "type": "Point", "coordinates": [ -104.9116, 39.74845 ] } },
{ "type": "Feature", "properties": { "school_id": 2127, "school_name": "Denver Language School", "school_type": "Traditional", "classification": "Charter", "school_level": "K-8", "grade_level": "8-May", "address": "2949 California St.", "neighborhood": "Five Points", "latitude": 39.75816, "longitude": -104.97595, "student_teacher_ratio": 15, "attendance_rate": 0.947, "chronically_absent": 0.125, "truancy_rate": 0.005, "perf_rating": 0.923, "SRI_score": 0.0 }, "geometry": { "type": "Point", "coordinates": [ -104.97595, 39.75816 ] } }
]
}
