{
"type": "FeatureCollection",
"name": "Skateparks",
"crs": { "type": "name", "properties": { "name": "urn:ogc:def:crs:OGC:1.3:CRS84" } },
"features": [
{ "type": "Feature", "properties": { "LOCATION": "La Alma / Lincoln", "LOC_CODE": "315", "GLOBALID": "0bffcf6f-5aa5-40c7-8a35-96ade17f2e99", "ASSET_CLAS": "SKATEP", "CLASS_CATE": "SK8-SM", "GIS_ASSET_": 50007, "INFOR_ASSE": null, "YEAR_BUILT": 2018 }, "geometry": { "type": "Point", "coordinates": [ -105.004202228090577, 39.734434540439409 ] } },
{ "type": "Feature", "properties": { "LOCATION": "Town Center", "LOC_CODE": "558", "GLOBALID": "accd4951-fe04-4674-a1ca-cfec73ec5675", "ASSET_CLAS": "SKATEP", "CLASS_CATE": "SK8-SM", "GIS_ASSET_": 50001, "INFOR_ASSE": "109864", "YEAR_BUILT": 2007 }, "geometry": { "type": "Point", "coordinates": [ -104.766705940829411, 39.788586534946319 ] } },
{ "type": "Feature", "properties": { "LOCATION": "Parkfield", "LOC_CODE": "516", "GLOBALID": "49a404b4-d726-431a-9e42-b8828f0326c4", "ASSET_CLAS": "SKATEP", "CLASS_CATE": "SK8-SM", "GIS_ASSET_": 50002, "INFOR_ASSE": "109862", "YEAR_BUILT": 2011 }, "geometry": { "type": "Point", "coordinates": [ -104.806343869929691, 39.793443660320534 ] } },
{ "type": "Feature", "properties": { "LOCATION": "Greenway Park", "LOC_CODE": "556", "GLOBALID": "941a4faa-ee4e-4389-ad24-f3c783ca6801", "ASSET_CLAS": "SKATEP", "CLASS_CATE": "SK8-SM", "GIS_ASSET_": 50003, "INFOR_ASSE": "109861", "YEAR_BUILT": 0 }, "geometry": { "type": "Point", "coordinates": [ -104.88664700341559, 39.754343746766345 ] } },
{ "type": "Feature", "properties": { "LOCATION": "Denver Skate Park", "LOC_CODE": "924", "GLOBALID": "5a5e76c8-abba-407b-bb59-202c9ab07cde", "ASSET_CLAS": "SKATEP", "CLASS_CATE": "SK8-LG", "GIS_ASSET_": 50000, "INFOR_ASSE": "109865", "YEAR_BUILT": 0 }, "geometry": { "type": "Point", "coordinates": [ -105.002643057460631, 39.759503330945478 ] } },
{ "type": "Feature", "properties": { "LOCATION": "Elyria", "LOC_CODE": "204", "GLOBALID": "bedfe358-1faf-4da5-b8de-0833400893f9", "ASSET_CLAS": "SKATEP", "CLASS_CATE": "SK8-SM", "GIS_ASSET_": 50004, "INFOR_ASSE": "109863", "YEAR_BUILT": 0 }, "geometry": { "type": "Point", "coordinates": [ -104.963683538343076, 39.785021989141143 ] } },
{ "type": "Feature", "properties": { "LOCATION": "Sanchez", "LOC_CODE": "028", "GLOBALID": "11026c6b-2d21-4015-b09d-89658172302d", "ASSET_CLAS": "SKATEP", "CLASS_CATE": "SK8-SM", "GIS_ASSET_": 50006, "INFOR_ASSE": null, "YEAR_BUILT": 2020 }, "geometry": { "type": "Point", "coordinates": [ -105.031295271593052, 39.73613403907499 ] } },
{ "type": "Feature", "properties": { "LOCATION": "Cuatro Vientos", "LOC_CODE": "825", "GLOBALID": "fbb17630-ba47-47b1-98a5-c8dfec5c9250", "ASSET_CLAS": "SKATEP", "CLASS_CATE": "SK8-SM", "GIS_ASSET_": 50008, "INFOR_ASSE": null, "YEAR_BUILT": 2014 }, "geometry": { "type": "Point", "coordinates": [ -105.038292506747354, 39.710839018093587 ] } },
{ "type": "Feature", "properties": { "LOCATION": "Kentucky & Irving", "LOC_CODE": "820", "GLOBALID": "639dc9b7-509e-4303-8644-390e3ec9d4a7", "ASSET_CLAS": "SKATEP", "CLASS_CATE": "SK8-SM", "GIS_ASSET_": 50009, "INFOR_ASSE": null, "YEAR_BUILT": 2023 }, "geometry": { "type": "Point", "coordinates": [ -105.029509101098142, 39.700493559620902 ] } },
{ "type": "Feature", "properties": { "LOCATION": "Barnum Park", "LOC_CODE": "804", "GLOBALID": "8b3e7abe-dbb8-4afe-9f5e-24b3ee04e944", "ASSET_CLAS": "SKATEP", "CLASS_CATE": "SK8-SM", "GIS_ASSET_": 50010, "INFOR_ASSE": null, "YEAR_BUILT": 2025 }, "geometry": { "type": "Point", "coordinates": [ -105.030834116501239, 39.723530906235169 ] } }
]
}
