{
"type": "FeatureCollection",
"name": "Swimming_Pools",
"crs": { "type": "name", "properties": { "name": "urn:ogc:def:crs:OGC:1.3:CRS84" } },
"features": [
{ "type": "Feature", "properties": { "POOL_NAME": "Barnum Pool", "LOC_CODE": "PB1", "POOL_TYPE": "Outdoor", "ADDRESS_ID": 0.0, "ADDRESS_LI": "370 Hooker St", "ADDRESS__1": null, "CITY": "Denver", "STATE": "CO", "ZIP": null, "PHONE": "720-865-0359", "PARK_LOCAT": "Barnum Recreation Center", "GLOBALID": "1841d903-7958-40e4-acac-ad2daf590241", "HOURS": "documents/rec_centers/barnumr.pdf", "PHOTO": "images/Pools/No_Image.gif" }, "geometry": { "type": "Point", "coordinates": [ -105.027730343368162, 39.722619899777804 ] } },
{ "type": "Feature", "properties": { "POOL_NAME": "Congress Pool", "LOC_CODE": "PC1", "POOL_TYPE": "Outdoor", "ADDRESS_ID": 0.0, "ADDRESS_LI": "914 Elizabeth St", "ADDRESS__1": "Stand-Alone Outdoor Pool Facility", "CITY": "Denver", "STATE": "CO", "ZIP": null, "PHONE": "720-865-3370", "PARK_LOCAT": "Congress Park", "GLOBALID": "5f0ffb92-df80-42e0-93ed-25dcd4124a49", "HOURS": "documents/rec_centers/congress.pdf", "PHOTO": "images/Pools/No_Image.gif" }, "geometry": { "type": "Point", "coordinates": [ -104.956264628544105, 39.730182176178864 ] } },
{ "type": "Feature", "properties": { "POOL_NAME": "Cook Pool", "LOC_CODE": "PC3", "POOL_TYPE": "Outdoor", "ADDRESS_ID": 0.0, "ADDRESS_LI": "1655 S Oneida", "ADDRESS__1": null, "CITY": "Denver", "STATE": "CO", "ZIP": null, "PHONE": "720-865-0629", "PARK_LOCAT": "Cook Park", "GLOBALID": "e9242b24-0c26-44e3-b2fd-6608abfa92df", "HOURS": "documents/rec_centers/cook.pdf", "PHOTO": "images/Pools/cookpark_pool.jpg" }, "geometry": { "type": "Point", "coordinates": [ -104.908753168089774, 39.686645694385803 ] } },
{ "type": "Feature", "properties": { "POOL_NAME": "Garfield Pool", "LOC_CODE": "PG3", "POOL_TYPE": "Outdoor", "ADDRESS_ID": 0.0, "ADDRESS_LI": "1295 S Lowell Blvd", "ADDRESS__1": "Stand-Alone Outdoor Pool Facility", "CITY": "Denver", "STATE": "CO", "ZIP": null, "PHONE": "303-937-4612", "PARK_LOCAT": "Garfield Lake Park", "GLOBALID": "0d785c74-6934-42b0-a85c-08838af9667c", "HOURS": "documents/rec_centers/garfield.pdf", "PHOTO": "images/Pools/No_Image.gif" }, "geometry": { "type": "Point", "coordinates": [ -105.035495364260882, 39.695311817703484 ] } },
{ "type": "Feature", "properties": { "POOL_NAME": "Harvard Gulch Pool", "LOC_CODE": "PH1", "POOL_TYPE": "Outdoor", "ADDRESS_ID": 0.0, "ADDRESS_LI": "550 E Iliff Ave", "ADDRESS__1": null, "CITY": "Denver", "STATE": "CO", "ZIP": null, "PHONE": "720-865-0914", "PARK_LOCAT": "Harvard Gulch Park", "GLOBALID": "c8d0f1ba-16ff-462f-9124-4138a6fa3b34", "HOURS": "documents/rec_centers/harvard.pdf", "PHOTO": "images/Pools/No_Image.gif" }, "geometry": { "type": "Point", "coordinates": [ -104.981706563590379, 39.674360630223013 ] } },
{ "type": "Feature", "properties": { "POOL_NAME": "Harvey Park Pool", "LOC_CODE": "PH2", "POOL_TYPE": "Outdoor", "ADDRESS_ID": 0.0, "ADDRESS_LI": "2150 S Tennyson Wy", "ADDRESS__1": null, "CITY": "Denver", "STATE": "CO", "ZIP": null, "PHONE": "720-865-0557", "PARK_LOCAT": "Harvey Park", "GLOBALID": "c7abb297-6bf2-4397-919b-5781526e0842", "HOURS": "documents/rec_centers/harvey.pdf", "PHOTO": "images/Pools/No_Image.gif" }, "geometry": { "type": "Point", "coordinates": [ -105.04144032631288, 39.678138706896085 ] } },
{ "type": "Feature", "properties": { "POOL_NAME": "La Alma Pool", "LOC_CODE": "PL1", "POOL_TYPE": "Outdoor", "ADDRESS_ID": 0.0, "ADDRESS_LI": "1120 Osage St", "ADDRESS__1": null, "CITY": "Denver", "STATE": "CO", "ZIP": null, "PHONE": "720-865-2208", "PARK_LOCAT": "La Alma / Lincoln Park", "GLOBALID": "6e19b53c-cd44-4980-94d1-fdeb00d8dac2", "HOURS": "documents/rec_centers/laalma.pdf", "PHOTO": "images/Pools/No_Image.gif" }, "geometry": { "type": "Point", "coordinates": [ -105.004747163745677, 39.734165914426377 ] } },
{ "type": "Feature", "properties": { "POOL_NAME": "Mestizo-Curtis Pool", "LOC_CODE": "PC5", "POOL_TYPE": "Outdoor", "ADDRESS_ID": 0.0, "ADDRESS_LI": "3181 Champa St", "ADDRESS__1": "Stand-Alone Outdoor Pool Facility", "CITY": "Denver", "STATE": "CO", "ZIP": null, "PHONE": "303-292-2363", "PARK_LOCAT": "Mestizo-Curtis Park", "GLOBALID": "e974e0f9-c952-43ac-83ff-321c8d2f3627", "HOURS": "documents/rec_centers/mestizo.pdf", "PHOTO": "images/Pools/No_Image.gif" }, "geometry": { "type": "Point", "coordinates": [ -104.975142224846749, 39.761601973066035 ] } },
{ "type": "Feature", "properties": { "POOL_NAME": "Southwest Pool", "LOC_CODE": "PS5", "POOL_TYPE": "Outdoor", "ADDRESS_ID": 0.0, "ADDRESS_LI": "9200 W Saratoga Pl", "ADDRESS__1": null, "CITY": "Denver", "STATE": "CO", "ZIP": null, "PHONE": "720-865-0673", "PARK_LOCAT": "Southwest Recreation Center", "GLOBALID": "4100d225-00f4-44e4-9131-c2c5b46d768d", "HOURS": "documents/rec_centers/southwest.pdf", "PHOTO": "images/Pools/No_Image.gif" }, "geometry": { "type": "Point", "coordinates": [ -105.09964886520325, 39.62897505184587 ] } },
{ "type": "Feature", "properties": { "POOL_NAME": "Berkeley Pool", "LOC_CODE": "PB2", "POOL_TYPE": "Outdoor", "ADDRESS_ID": 0.0, "ADDRESS_LI": "5105 W 46th Ave", "ADDRESS__1": null, "CITY": "Denver", "STATE": "CO", "ZIP": null, "PHONE": "720-865-0653", "PARK_LOCAT": "Berkeley Lake Park", "GLOBALID": "ade2a48b-cce0-495d-86df-dce2a451147e", "HOURS": "documents/rec_centers/berkeley.pdf", "PHOTO": "images/Pools/No_Image.gif" }, "geometry": { "type": "Point", "coordinates": [ -105.051806823818978, 39.781482989409774 ] } },
{ "type": "Feature", "properties": { "POOL_NAME": "Aztlan Pool", "LOC_CODE": "PA3", "POOL_TYPE": "Outdoor", "ADDRESS_ID": 0.0, "ADDRESS_LI": "4435 Navajo St", "ADDRESS__1": null, "CITY": "Denver", "STATE": "CO", "ZIP": null, "PHONE": "720-865-4389", "PARK_LOCAT": "Aztlan Recreation Center", "GLOBALID": "a1a61e25-c32b-4f67-90f0-63360f561064", "HOURS": "documents/rec_centers/aztlan.pdf", "PHOTO": "images/Pools/aztlan_pool.jpg" }, "geometry": { "type": "Point", "coordinates": [ -105.004555244203118, 39.777252863213604 ] } },
{ "type": "Feature", "properties": { "POOL_NAME": "Eisenhower Pool", "LOC_CODE": "PE1", "POOL_TYPE": "Outdoor", "ADDRESS_ID": 0.0, "ADDRESS_LI": "4300 E Dartmouth Ave", "ADDRESS__1": null, "CITY": "Denver", "STATE": "CO", "ZIP": null, "PHONE": "720-865-0739", "PARK_LOCAT": "Eisenhower Park", "GLOBALID": "d5586ae9-76d7-4af8-bad9-a2745d8e03b1", "HOURS": "documents/rec_centers/eisenhower.pdf", "PHOTO": "images/Pools/No_Image.gif" }, "geometry": { "type": "Point", "coordinates": [ -104.937582408400075, 39.65934858903853 ] } },
{ "type": "Feature", "properties": { "POOL_NAME": "Globeville Pool", "LOC_CODE": "PG2", "POOL_TYPE": "Outdoor", "ADDRESS_ID": 0.0, "ADDRESS_LI": "4700 Logan St", "ADDRESS__1": "Stand-Alone Outdoor Pool Facility", "CITY": "Denver", "STATE": "CO", "ZIP": null, "PHONE": "303-292-2358", "PARK_LOCAT": "Argo Park", "GLOBALID": "44fcbe5b-fda6-42f0-81dd-934ca2d1c54e", "HOURS": "documents/rec_centers/globeviller.pdf", "PHOTO": "images/Pools/No_Image.gif" }, "geometry": { "type": "Point", "coordinates": [ -104.981837214946722, 39.782363532294852 ] } },
{ "type": "Feature", "properties": { "POOL_NAME": "Green Valley Ranch Pool", "LOC_CODE": "PG4", "POOL_TYPE": "Outdoor", "ADDRESS_ID": 0.0, "ADDRESS_LI": "4455 Jebel St", "ADDRESS__1": "Stand-Alone Outdoor Pool Facility", "CITY": "Denver", "STATE": "CO", "ZIP": null, "PHONE": "303-373-8713", "PARK_LOCAT": "Green Valley Ranch East Park", "GLOBALID": "16e7cf56-3631-4c23-a271-593bf48edb95", "HOURS": "documents/rec_centers/gvr.pdf", "PHOTO": "images/Pools/No_Image.gif" }, "geometry": { "type": "Point", "coordinates": [ -104.75025335575252, 39.778727718871536 ] } },
{ "type": "Feature", "properties": { "POOL_NAME": "Swansea Pool", "LOC_CODE": "PS4", "POOL_TYPE": "Indoor", "ADDRESS_ID": 0.0, "ADDRESS_LI": "2650 E 49th Ave", "ADDRESS__1": null, "CITY": "Denver", "STATE": "CO", "ZIP": null, "PHONE": "303-295-9462", "PARK_LOCAT": "Swansea Park", "GLOBALID": "88bf2e1b-bd65-4860-bd84-c2848fa26eed", "HOURS": "documents/rec_centers/swansea.pdf", "PHOTO": "images/Pools/No_Image.gif" }, "geometry": { "type": "Point", "coordinates": [ -104.955673072788414, 39.78487215216839 ] } },
{ "type": "Feature", "properties": { "POOL_NAME": "Ashland Indoor Pool", "LOC_CODE": "PA1", "POOL_TYPE": "Indoor", "ADDRESS_ID": 0.0, "ADDRESS_LI": "2501 W Dunkfield Pl", "ADDRESS__1": null, "CITY": "Denver", "STATE": "CO", "ZIP": null, "PHONE": "720-865-0510", "PARK_LOCAT": "Ashland Recreation Center", "GLOBALID": "0a7d2409-f2be-46c1-a24c-3093f6d89dd9", "HOURS": "documents/rec_centers/Ashland_Calendar.pdf", "PHOTO": "images/Pools/ashland_indoorpool.jpg" }, "geometry": { "type": "Point", "coordinates": [ -105.0177019894452, 39.759772691765164 ] } },
{ "type": "Feature", "properties": { "POOL_NAME": "Athmar Recreation Center", "LOC_CODE": "PA2", "POOL_TYPE": "Indoor", "ADDRESS_ID": 0.0, "ADDRESS_LI": "2680 W Mexico Av", "ADDRESS__1": null, "CITY": "Denver", "STATE": "CO", "ZIP": null, "PHONE": "720-865-2180", "PARK_LOCAT": "Athmar Recreation Center", "GLOBALID": "f6499799-f415-4e30-8fe3-02fa55feae8f", "HOURS": "documents/rec_centers/Athmar_Calendar.pdf", "PHOTO": "images/Pools/No_Image.gif" }, "geometry": { "type": "Point", "coordinates": [ -105.019695997985579, 39.685515628456997 ] } },
{ "type": "Feature", "properties": { "POOL_NAME": "Glenarm Recreation Center", "LOC_CODE": "PG1", "POOL_TYPE": "Indoor", "ADDRESS_ID": 0.0, "ADDRESS_LI": "2800 Glenarm Pl", "ADDRESS__1": null, "CITY": "Denver", "STATE": "CO", "ZIP": null, "PHONE": "720-865-3380", "PARK_LOCAT": "Glenarm Recreation Center", "GLOBALID": "9624f82d-444d-4045-bbe2-76e25bf2f98a", "HOURS": "documents/rec_centers/Glenarm_Calendar.pdf", "PHOTO": "images/Pools/glenarm_indoorpool.jpg" }, "geometry": { "type": "Point", "coordinates": [ -104.975228230341912, 39.755063819533753 ] } },
{ "type": "Feature", "properties": { "POOL_NAME": "La Familia Recreation Center", "LOC_CODE": "PL2", "POOL_TYPE": "Indoor", "ADDRESS_ID": 0.0, "ADDRESS_LI": "65 S Elati St", "ADDRESS__1": null, "CITY": "Denver", "STATE": "CO", "ZIP": null, "PHONE": "720-865-2170", "PARK_LOCAT": "La Familia Recreation Center", "GLOBALID": "68ccd8fb-9fef-4a15-b7d9-e0eb10513bb0", "HOURS": "documents/rec_centers/LaFamilia_Calendar.pdf", "PHOTO": "images/Pools/No_Image.gif" }, "geometry": { "type": "Point", "coordinates": [ -104.994374191303564, 39.715715922889586 ] } },
{ "type": "Feature", "properties": { "POOL_NAME": "Martin Luther King Jr Recreation Center (Lap Pool)", "LOC_CODE": "PK1", "POOL_TYPE": "Indoor", "ADDRESS_ID": 0.0, "ADDRESS_LI": "3880 Newport St", "ADDRESS__1": null, "CITY": "Denver", "STATE": "CO", "ZIP": null, "PHONE": "720-865-0530", "PARK_LOCAT": "Martin Luther King Jr Park", "GLOBALID": "b83c523e-5423-4072-8e13-029c8efc7e58", "HOURS": "documents/rec_centers/MLK_Calendar.pdf", "PHOTO": "images/Pools/mlk_indoorpool.jpg" }, "geometry": { "type": "Point", "coordinates": [ -104.909290390629636, 39.770724987802915 ] } },
{ "type": "Feature", "properties": { "POOL_NAME": "Montbello Recreation Center", "LOC_CODE": "PM2", "POOL_TYPE": "Indoor", "ADDRESS_ID": 0.0, "ADDRESS_LI": "15555 E 53rd Ave", "ADDRESS__1": null, "CITY": "Denver", "STATE": "CO", "ZIP": null, "PHONE": "720-865-0580", "PARK_LOCAT": "Parkfield", "GLOBALID": "3ed00792-fb2e-454b-9792-bcafef498423", "HOURS": "documents/rec_centers/Montbello_Calendar.pdf", "PHOTO": "images/Pools/montbello_indoorpool.jpg" }, "geometry": { "type": "Point", "coordinates": [ -104.805607878860144, 39.792744345870233 ] } },
{ "type": "Feature", "properties": { "POOL_NAME": "Rude Recreation Center", "LOC_CODE": "PR1", "POOL_TYPE": "Indoor", "ADDRESS_ID": 0.0, "ADDRESS_LI": "2855 W Holden Pl", "ADDRESS__1": null, "CITY": "Denver", "STATE": "CO", "ZIP": null, "PHONE": "720-865-0570", "PARK_LOCAT": "Rude Park", "GLOBALID": "2b4282ff-569b-4d3f-8498-2445695c7ef8", "HOURS": "documents/rec_centers/Rude_Calendar.pdf", "PHOTO": "images/Pools/rude_indoorpool.jpg" }, "geometry": { "type": "Point", "coordinates": [ -105.02274720817023, 39.736476210328128 ] } },
{ "type": "Feature", "properties": { "POOL_NAME": "Scheitler Recreation Center", "LOC_CODE": "PB3", "POOL_TYPE": "Indoor", "ADDRESS_ID": 0.0, "ADDRESS_LI": "5031 W 46th Av", "ADDRESS__1": null, "CITY": "Denver", "STATE": "CO", "ZIP": null, "PHONE": "720-865-0640", "PARK_LOCAT": "Berkeley Lake Park", "GLOBALID": "25b4db58-52dc-476d-b4fb-fae29ef9707f", "HOURS": "documents/rec_centers/Scheitler_Calendar.pdf", "PHOTO": "images/Pools/No_Image.gif" }, "geometry": { "type": "Point", "coordinates": [ -105.051247412834087, 39.781392339587697 ] } },
{ "type": "Feature", "properties": { "POOL_NAME": "Twentieth Street Recreation Center", "LOC_CODE": "PT1", "POOL_TYPE": "Indoor", "ADDRESS_ID": 0.0, "ADDRESS_LI": "1011 20th St", "ADDRESS__1": null, "CITY": "Denver", "STATE": "CO", "ZIP": null, "PHONE": "720-865-0520", "PARK_LOCAT": "Twentieth Street Recreation Center", "GLOBALID": "f3613180-e449-4e16-abd4-fe647840dc17", "HOURS": "documents/rec_centers/TwentiethSt_Calendar.pdf", "PHOTO": "images/Pools/20th_indoorpool.jpg" }, "geometry": { "type": "Point", "coordinates": [ -104.989995010691928, 39.751378715127998 ] } },
{ "type": "Feature", "properties": { "POOL_NAME": "Washington Park Recreation Center", "LOC_CODE": "PW1", "POOL_TYPE": "Indoor", "ADDRESS_ID": 0.0, "ADDRESS_LI": "701 S Franklin St", "ADDRESS__1": null, "CITY": "Denver", "STATE": "CO", "ZIP": null, "PHONE": "720-865-3400", "PARK_LOCAT": "Washington Park", "GLOBALID": "cf94cbd7-041e-4bc7-800b-ba9da363cf0e", "HOURS": "documents/rec_centers/Washington_Calendar.pdf", "PHOTO": "images/Pools/washpark_indoorpool.jpg" }, "geometry": { "type": "Point", "coordinates": [ -104.97053794633463, 39.702640529837922 ] } },
{ "type": "Feature", "properties": { "POOL_NAME": "Hiawatha Davis Jr Recreation Center", "LOC_CODE": "PS1", "POOL_TYPE": "Indoor", "ADDRESS_ID": 0.0, "ADDRESS_LI": "3334 Holly St", "ADDRESS__1": null, "CITY": "Denver", "STATE": "CO", "ZIP": null, "PHONE": "720-865-0590", "PARK_LOCAT": "Skyland Park", "GLOBALID": "9671b0f8-0708-43e3-a498-8e02a13ba40d", "HOURS": "documents/rec_centers/HiawathaDavis_Calendar.pdf", "PHOTO": "images/Pools/No_Image.gif" }, "geometry": { "type": "Point", "coordinates": [ -104.921824129775857, 39.764299153899451 ] } },
{ "type": "Feature", "properties": { "POOL_NAME": "Montclair Recreation Center", "LOC_CODE": "PM4", "POOL_TYPE": "Indoor", "ADDRESS_ID": 0.0, "ADDRESS_LI": "729 Ulster Way", "ADDRESS__1": null, "CITY": "Denver", "STATE": "CO", "ZIP": null, "PHONE": "720-865-0560", "PARK_LOCAT": "Monclair Recreation Center", "GLOBALID": "3426ad21-8219-4f03-b5f2-e98b5f6db68f", "HOURS": "documents/rec_centers/Montclair_Calendar.pdf", "PHOTO": "images/Pools/montclair_indoorpool.jpg" }, "geometry": { "type": "Point", "coordinates": [ -104.894703346426894, 39.727386030298881 ] } },
{ "type": "Feature", "properties": { "POOL_NAME": "Central Park Recreation Center", "LOC_CODE": "PC4", "POOL_TYPE": "Indoor", "ADDRESS_ID": 0.0, "ADDRESS_LI": "9651 E Martin Luther King Blvd", "ADDRESS__1": null, "CITY": "Denver", "STATE": "CO", "ZIP": null, "PHONE": "720-865-0750", "PARK_LOCAT": "Central Park Recreation Center", "GLOBALID": "457ec73a-93e3-4e55-9362-ce39903789ab", "HOURS": "documents/rec_centers/CentralPark_Calendar.pdf", "PHOTO": "images/Pools/No_Image.gif" }, "geometry": { "type": "Point", "coordinates": [ -104.874933780081093, 39.760993114140994 ] } },
{ "type": "Feature", "properties": { "POOL_NAME": "Carla Madison Recreation Center (Leisure Pool)", "LOC_CODE": "RM4", "POOL_TYPE": "Indoor", "ADDRESS_ID": 0.0, "ADDRESS_LI": "2401 E Colfax Ave", "ADDRESS__1": null, "CITY": "Denver", "STATE": "CO", "ZIP": null, "PHONE": "720-865-5580", "PARK_LOCAT": "Carla Madison Recreation Center", "GLOBALID": "63f451f0-e204-47dc-8f4f-ccb381664404", "HOURS": null, "PHOTO": "images/Pools/No_Image.gif" }, "geometry": { "type": "Point", "coordinates": [ -104.958511237856897, 39.740761196549563 ] } },
{ "type": "Feature", "properties": { "POOL_NAME": "Carla Madison Recreation Center (Lap Pool)", "LOC_CODE": "RM4", "POOL_TYPE": "Indoor", "ADDRESS_ID": 0.0, "ADDRESS_LI": "2401 E Colfax Ave", "ADDRESS__1": null, "CITY": "Denver", "STATE": "CO", "ZIP": null, "PHONE": "720-865-5580", "PARK_LOCAT": "Carla Madison Recreation Center", "GLOBALID": "00593038-cb9b-46c3-92b2-1a0a7d15285a", "HOURS": null, "PHOTO": "images/Pools/No_Image.gif" }, "geometry": { "type": "Point", "coordinates": [ -104.958387805356296, 39.740482165990777 ] } },
{ "type": "Feature", "properties": { "POOL_NAME": "Martin Luther King Jr Recreation Center (Therapy Pool)", "LOC_CODE": "PK1", "POOL_TYPE": "Indoor", "ADDRESS_ID": 0.0, "ADDRESS_LI": "3880 Newport St", "ADDRESS__1": null, "CITY": "Denver", "STATE": "CO", "ZIP": null, "PHONE": "720-865-0530", "PARK_LOCAT": "Martin Luther King Jr Park", "GLOBALID": "8b37c8e4-9ce0-4a66-962f-7adf7836e610", "HOURS": "documents/rec_centers/MLK_Calendar.pdf", "PHOTO": "images/Pools/mlk_indoorpool.jpg" }, "geometry": { "type": "Point", "coordinates": [ -104.909290390629636, 39.770724987802915 ] } },
{ "type": "Feature", "properties": { "POOL_NAME": "Green Valley Ranch Recreation Center", "LOC_CODE": "PG5", "POOL_TYPE": "Indoor", "ADDRESS_ID": 0.0, "ADDRESS_LI": "4890 Argonne Way", "ADDRESS__1": null, "CITY": "Denver", "STATE": "CO", "ZIP": null, "PHONE": null, "PARK_LOCAT": "Town Center Park", "GLOBALID": "076858ad-af6d-4975-8f31-d3f8fd3bcf47", "HOURS": null, "PHOTO": null }, "geometry": { "type": "Point", "coordinates": [ -104.766701602013271, 39.785642703894915 ] } }
]
}
