{
"type": "FeatureCollection",
"name": "Traditional_Schools",
"crs": { "type": "name", "properties": { "name": "urn:ogc:def:crs:OGC:1.3:CRS84" } },
"features": [
{ "type": "Feature", "properties": { "OBJECTID_1": 0, "fid_": 178, "schnum": 453, "school_nam": "John F. Kennedy", "school_n_1": "John F. Kennedy High School", "school_dis": "Denver County 1 (DPS)", "classifica": "District", "school_lev": "High", "grade_leve": "12-Sep", "address_li": "2855 S. Lamar St.", "city": "Denver", "state": "CO", "zip": 80227, "NBHD_NAME": "Bear Valley", "Nearest_su": 1.623642393, "nearest__1": 1.624, "X": -105.06762, "Y": 39.66227, "NEAR_FID": 47, "NEAR_DIST": 0.015299606, "EP_STRATIO": 14, "EP_ATTEND": 0.195, "EP_CHRABSE": 0.61, "EP_TRUANCY": 0.143, "EP_PERF": 0.6, "SRI_SCORE": 0.95 }, "geometry": { "type": "Point", "coordinates": [ -105.06762, 39.66227 ] } },
{ "type": "Feature", "properties": { "OBJECTID_1": 0, "fid_": 227, "schnum": 450, "school_nam": "Abraham Lincoln", "school_n_1": "Abraham Lincoln High School", "school_dis": "Denver County 1 (DPS)", "classifica": "District", "school_lev": "High", "grade_leve": "12-Sep", "address_li": "2285 S. Federal Blvd.", "city": "Denver", "state": "CO", "zip": 80219, "NBHD_NAME": "Harvey Park", "Nearest_su": 1.915897683, "nearest__1": 1.916, "X": -105.02651, "Y": 39.67577, "NEAR_FID": 62, "NEAR_DIST": 0.032592131, "EP_STRATIO": 13, "EP_ATTEND": 0.162, "EP_CHRABSE": 0.614, "EP_TRUANCY": 0.107, "EP_PERF": 0.582, "SRI_SCORE": 0.925 }, "geometry": { "type": "Point", "coordinates": [ -105.02651, 39.67577 ] } },
{ "type": "Feature", "properties": { "OBJECTID_1": 0, "fid_": 24, "schnum": 490, "school_nam": "CO Charter GES", "school_n_1": "Colorado High School Charter - GES", "school_dis": "Denver County 1 (DPS)", "classifica": "Charter", "school_lev": "High", "grade_leve": "12-Sep", "address_li": "3093 E. 42nd Ave.", "city": "Denver", "state": "CO", "zip": 80216, "NBHD_NAME": "Elyria Swansea", "Nearest_su": 1.207544816, "nearest__1": 1.208, "X": -104.95089, "Y": 39.77545, "NEAR_FID": 27, "NEAR_DIST": 0.020504844, "EP_STRATIO": 16, "EP_ATTEND": 0.197, "EP_CHRABSE": 0.667, "EP_TRUANCY": 0.179, "EP_PERF": 0.355, "SRI_SCORE": 0.925 }, "geometry": { "type": "Point", "coordinates": [ -104.95089, 39.77545 ] } },
{ "type": "Feature", "properties": { "OBJECTID_1": 0, "fid_": 83, "schnum": 471, "school_nam": "Northeast EC", "school_n_1": "Northeast Early College", "school_dis": "Denver County 1 (DPS)", "classifica": "District", "school_lev": "High", "grade_leve": "12-Sep", "address_li": "11200 E. 45th Ave.", "city": "Denver", "state": "CO", "zip": 80239, "NBHD_NAME": "Montbello", "Nearest_su": 0.61386862, "nearest__1": 0.614, "X": -104.85362, "Y": 39.77645, "NEAR_FID": 63, "NEAR_DIST": 0.010876772, "EP_STRATIO": 15, "EP_ATTEND": 0.152, "EP_CHRABSE": 0.535, "EP_TRUANCY": 0.094, "EP_PERF": 0.564, "SRI_SCORE": 0.91 }, "geometry": { "type": "Point", "coordinates": [ -104.85362, 39.77645 ] } },
{ "type": "Feature", "properties": { "OBJECTID_1": 0, "fid_": 146, "schnum": 464, "school_nam": "Manual", "school_n_1": "Manual High School", "school_dis": "Denver County 1 (DPS)", "classifica": "District", "school_lev": "High", "grade_leve": "12-Sep", "address_li": "1700 E. 28th Ave.", "city": "Denver", "state": "CO", "zip": 80205, "NBHD_NAME": "Whittier", "Nearest_su": 0.461777905, "nearest__1": 0.462, "X": -104.96842, "Y": 39.75699, "NEAR_FID": 27, "NEAR_DIST": 0.006713088, "EP_STRATIO": 15, "EP_ATTEND": 0.148, "EP_CHRABSE": 0.433, "EP_TRUANCY": 0.101, "EP_PERF": 0.617, "SRI_SCORE": 0.87 }, "geometry": { "type": "Point", "coordinates": [ -104.96842, 39.75699 ] } }
]
}
