{
"type": "FeatureCollection",
"name": "Youth_Development",
"crs": { "type": "name", "properties": { "name": "urn:ogc:def:crs:OGC:1.3:CRS84" } },
"features": [
{ "type": "Feature", "properties": { "Global_Site_ID": 124195, "Activity_Category": "Youth Development", "Site_Name": "Arthur E. Johnson Branch", "Address": "3325 West 16th Ave.", "City": "Denver", "State": "CO", "Zip": 80204, "Latitude": 39.74307284, "Longitude": -105.0306864, "Site_IDs": "122702", "Org_IDs": 36479, "Organization": "Boys & Girls Clubs of Metro Denver", "Location_Type": "Community", "DPS_School_Num": null, "Programs": "After School Programming; Afterschool Programming", "Program_Count": 2, "Program_Description": "We provide afterschool and summer enrichment programs for kids in a safe fun and enriching environment. Members have access to nutritious meals and opportunities for academic success healthy lifestyles and leadership skills. Programs vary by Club.", "Cost": "Free", "Scholarship_Available": false, "Open_Enrollment": true, "Registration_Process": "Parents or guardians can apply online at www.bgcmd.org/clubs", "Registration_URL": "https://www.bgcmd.org/clubs", "Food_Provided": "Dinner; Yes - Snacks", "Transport_Available": false, "Time_Availability": "After School; Before School; Summer", "Focus_Areas": "Academic; Arts; College & Career; Family Support; Leadership; Outdoor; Service Learning; Sports & Health", "Phone": "303-892-9200", "Email": "info@bgcmd.org", "Website": "https://www.bgcmd.org/clubs/" }, "geometry": { "type": "Point", "coordinates": [ -105.0306864, 39.74307284 ] } },
{ "type": "Feature", "properties": { "Global_Site_ID": 124199, "Activity_Category": "Youth Development", "Site_Name": "Athmar Park Branch Library", "Address": "1055 South Tejon St.", "City": "Denver", "State": "CO", "Zip": 80223, "Latitude": 39.69712848, "Longitude": -105.0132852, "Site_IDs": "122757", "Org_IDs": 36548, "Organization": "Denver Public Library - City & County of Denver Independent Agency", "Location_Type": "Library", "DPS_School_Num": null, "Programs": "Art and Crafts for Kids at Eugene Field Library; Game Club; Kid's Maker Club at Ford Warren Library; Lego Club at Eugene Field Library; Little University - Hadley; Little University - Rodolfo \"\"\"\"Corky\"\"\"\" Gonzalez; Little University at Bear Valley", "Program_Count": 7, "Program_Description": "Create building projects with Legos! We provide the building bricks and you provide the creativity. Ideal for ages 5-12 with an adult. Wednesdays 3:30-4:30.; Join the Little University team for virtual events or watch the videos (English & Spanish) on YouTube. Projects are geared to children 2 & up using supplies many of you already have at home.; Learn new skills and get creative. We’ll provide open-ended art and science exploration materials. Ideal for ages 5-12. 2nd Wednesday of the month.; L", "Cost": "Free", "Scholarship_Available": false, "Open_Enrollment": true, "Registration_Process": null, "Registration_URL": null, "Food_Provided": "No", "Transport_Available": false, "Time_Availability": "After School; Before School; By Request; Holiday; School Day; Summer", "Focus_Areas": "Academic; Arts; Family Support; Leadership; Outdoor; Service Learning; Sports & Health", "Phone": "720-865-2022", "Email": "lchampion@denverlibrary.org", "Website": "https://www.denverlibrary.org" }, "geometry": { "type": "Point", "coordinates": [ -105.0132852, 39.69712848 ] } },
{ "type": "Feature", "properties": { "Global_Site_ID": 124200, "Activity_Category": "Youth Development", "Site_Name": "Athmar Recreation Center", "Address": "2680 West Mexico Ave.", "City": "Denver", "State": "CO", "Zip": 80219, "Latitude": 39.68561389, "Longitude": -105.0197912, "Site_IDs": "128094", "Org_IDs": 36479, "Organization": "Boys & Girls Clubs of Metro Denver", "Location_Type": "Recreation Center", "DPS_School_Num": null, "Programs": "After School Programming; Afterschool Programming", "Program_Count": 2, "Program_Description": "We provide afterschool and summer enrichment programs for kids in a safe fun and enriching environment. Members have access to nutritious meals and opportunities for academic success healthy lifestyles and leadership skills. Programs vary by Club.", "Cost": "Free", "Scholarship_Available": false, "Open_Enrollment": true, "Registration_Process": null, "Registration_URL": null, "Food_Provided": "No", "Transport_Available": false, "Time_Availability": "After School; Before School; Summer", "Focus_Areas": "Academic; Arts; College & Career; Family Support; Leadership; Outdoor; Service Learning; Sports & Health", "Phone": "303-892-9200", "Email": "info@bgcmd.org", "Website": "https://www.bgcmd.org/clubs/" }, "geometry": { "type": "Point", "coordinates": [ -105.0197912, 39.68561389 ] } },
{ "type": "Feature", "properties": { "Global_Site_ID": 124210, "Activity_Category": "Youth Development", "Site_Name": "Bear Valley Branch Library", "Address": "5171 West Dartmouth Ave.", "City": "Denver", "State": "CO", "Zip": 80236, "Latitude": 39.65655075, "Longitude": -105.0514669, "Site_IDs": "122758", "Org_IDs": 36548, "Organization": "Denver Public Library - City & County of Denver Independent Agency", "Location_Type": "Library", "DPS_School_Num": null, "Programs": "Art and Crafts for Kids at Eugene Field Library; Game Club; Kid's Maker Club at Ford Warren Library; Lego Club at Eugene Field Library; Little University - Hadley; Little University - Rodolfo \"\"\"\"Corky\"\"\"\" Gonzalez; Little University at Bear Valley", "Program_Count": 7, "Program_Description": "Create building projects with Legos! We provide the building bricks and you provide the creativity. Ideal for ages 5-12 with an adult. Wednesdays 3:30-4:30.; Join the Little University team for virtual events or watch the videos (English & Spanish) on YouTube. Projects are geared to children 2 & up using supplies many of you already have at home.; Learn new skills and get creative. We’ll provide open-ended art and science exploration materials. Ideal for ages 5-12. 2nd Wednesday of the month.; L", "Cost": "Free", "Scholarship_Available": false, "Open_Enrollment": true, "Registration_Process": null, "Registration_URL": null, "Food_Provided": "No", "Transport_Available": false, "Time_Availability": "After School; Before School; By Request; Holiday; School Day; Summer", "Focus_Areas": "Academic; Arts; Family Support; Leadership; Outdoor; Service Learning; Sports & Health", "Phone": "720-865-2022", "Email": "lchampion@denverlibrary.org", "Website": "https://www.denverlibrary.org" }, "geometry": { "type": "Point", "coordinates": [ -105.0514669, 39.65655075 ] } },
{ "type": "Feature", "properties": { "Global_Site_ID": 124218, "Activity_Category": "Youth Development", "Site_Name": "Blair-Caldwell African American Research Library", "Address": "2401 Welton St.", "City": "Denver", "State": "CO", "Zip": 80205, "Latitude": 39.75249941, "Longitude": -104.9814748, "Site_IDs": "132989", "Org_IDs": 36548, "Organization": "Denver Public Library - City & County of Denver Independent Agency", "Location_Type": "Library", "DPS_School_Num": null, "Programs": "Art and Crafts for Kids at Eugene Field Library; Game Club; Kid's Maker Club at Ford Warren Library; Lego Club at Eugene Field Library; Little University - Hadley; Little University - Rodolfo \"\"\"\"Corky\"\"\"\" Gonzalez; Little University at Bear Valley", "Program_Count": 7, "Program_Description": "Create building projects with Legos! We provide the building bricks and you provide the creativity. Ideal for ages 5-12 with an adult. Wednesdays 3:30-4:30.; Join the Little University team for virtual events or watch the videos (English & Spanish) on YouTube. Projects are geared to children 2 & up using supplies many of you already have at home.; Learn new skills and get creative. We’ll provide open-ended art and science exploration materials. Ideal for ages 5-12. 2nd Wednesday of the month.; L", "Cost": "Free", "Scholarship_Available": false, "Open_Enrollment": true, "Registration_Process": null, "Registration_URL": null, "Food_Provided": "No", "Transport_Available": false, "Time_Availability": "After School; Before School; By Request; Holiday; School Day; Summer", "Focus_Areas": "Academic; Arts; Family Support; Leadership; Outdoor; Service Learning; Sports & Health", "Phone": "720-865-2022", "Email": "lchampion@denverlibrary.org", "Website": "https://www.denverlibrary.org" }, "geometry": { "type": "Point", "coordinates": [ -104.9814748, 39.75249941 ] } },
{ "type": "Feature", "properties": { "Global_Site_ID": 124237, "Activity_Category": "Youth Development", "Site_Name": "Byers Branch Library", "Address": "675 Santa Fe Dr.", "City": "Denver", "State": "CO", "Zip": 80204, "Latitude": 39.72707399, "Longitude": -104.9988704, "Site_IDs": "122759", "Org_IDs": 36548, "Organization": "Denver Public Library - City & County of Denver Independent Agency", "Location_Type": "Library", "DPS_School_Num": null, "Programs": "Art and Crafts for Kids at Eugene Field Library; Game Club; Kid's Maker Club at Ford Warren Library; Lego Club at Eugene Field Library; Little University - Hadley; Little University - Rodolfo \"\"\"\"Corky\"\"\"\" Gonzalez; Little University at Bear Valley", "Program_Count": 7, "Program_Description": "Create building projects with Legos! We provide the building bricks and you provide the creativity. Ideal for ages 5-12 with an adult. Wednesdays 3:30-4:30.; Join the Little University team for virtual events or watch the videos (English & Spanish) on YouTube. Projects are geared to children 2 & up using supplies many of you already have at home.; Learn new skills and get creative. We’ll provide open-ended art and science exploration materials. Ideal for ages 5-12. 2nd Wednesday of the month.; L", "Cost": "Free", "Scholarship_Available": false, "Open_Enrollment": true, "Registration_Process": null, "Registration_URL": null, "Food_Provided": "No", "Transport_Available": false, "Time_Availability": "After School; Before School; By Request; Holiday; School Day; Summer", "Focus_Areas": "Academic; Arts; Family Support; Leadership; Outdoor; Service Learning; Sports & Health", "Phone": "720-865-2022", "Email": "lchampion@denverlibrary.org", "Website": "https://www.denverlibrary.org" }, "geometry": { "type": "Point", "coordinates": [ -104.9988704, 39.72707399 ] } },
{ "type": "Feature", "properties": { "Global_Site_ID": 124246, "Activity_Category": "Youth Development", "Site_Name": "Central Library", "Address": "10 West 14th Ave. Pkwy.", "City": "Denver", "State": "CO", "Zip": 80204, "Latitude": 39.73751786, "Longitude": -104.9882243, "Site_IDs": "122760", "Org_IDs": 36548, "Organization": "Denver Public Library - City & County of Denver Independent Agency", "Location_Type": "Library", "DPS_School_Num": null, "Programs": "Art and Crafts for Kids at Eugene Field Library; Game Club; Kid's Maker Club at Ford Warren Library; Lego Club at Eugene Field Library; Little University - Hadley; Little University - Rodolfo \"\"\"\"Corky\"\"\"\" Gonzalez; Little University at Bear Valley", "Program_Count": 7, "Program_Description": "Create building projects with Legos! We provide the building bricks and you provide the creativity. Ideal for ages 5-12 with an adult. Wednesdays 3:30-4:30.; Join the Little University team for virtual events or watch the videos (English & Spanish) on YouTube. Projects are geared to children 2 & up using supplies many of you already have at home.; Learn new skills and get creative. We’ll provide open-ended art and science exploration materials. Ideal for ages 5-12. 2nd Wednesday of the month.; L", "Cost": "Free", "Scholarship_Available": false, "Open_Enrollment": true, "Registration_Process": null, "Registration_URL": null, "Food_Provided": "No", "Transport_Available": false, "Time_Availability": "After School; Before School; By Request; Holiday; School Day; Summer", "Focus_Areas": "Academic; Arts; Family Support; Leadership; Outdoor; Service Learning; Sports & Health", "Phone": "720-865-2022", "Email": "lchampion@denverlibrary.org", "Website": "https://www.denverlibrary.org" }, "geometry": { "type": "Point", "coordinates": [ -104.9882243, 39.73751786 ] } },
{ "type": "Feature", "properties": { "Global_Site_ID": 124266, "Activity_Category": "Youth Development", "Site_Name": "College View Recreation Center", "Address": "2525 South Decatur St.", "City": "Denver", "State": "CO", "Zip": 80219, "Latitude": 39.67146132, "Longitude": -105.0230148, "Site_IDs": "128076", "Org_IDs": 36479, "Organization": "Boys & Girls Clubs of Metro Denver", "Location_Type": "Recreation Center", "DPS_School_Num": null, "Programs": "After School Programming; Afterschool Programming", "Program_Count": 2, "Program_Description": "We provide afterschool and summer enrichment programs for kids in a safe fun and enriching environment. Members have access to nutritious meals and opportunities for academic success healthy lifestyles and leadership skills. Programs vary by Club.", "Cost": "Free", "Scholarship_Available": false, "Open_Enrollment": true, "Registration_Process": null, "Registration_URL": "https://www.bgcmd.org/clubs/", "Food_Provided": "Breakfast; Lunch; Yes - Snacks", "Transport_Available": false, "Time_Availability": "After School; Before School; Summer", "Focus_Areas": "Academic; Arts; College & Career; Family Support; Leadership; Outdoor; Service Learning; Sports & Health", "Phone": "303-892-9200", "Email": "info@bgcmd.org", "Website": "https://www.bgcmd.org/clubs/" }, "geometry": { "type": "Point", "coordinates": [ -105.0230148, 39.67146132 ] } },
{ "type": "Feature", "properties": { "Global_Site_ID": 124277, "Activity_Category": "Youth Development", "Site_Name": "Suncor Branch", "Address": "6201 Holly St", "City": "Commerce City", "State": "CO", "Zip": 80022, "Latitude": 39.80959356, "Longitude": -104.9229782, "Site_IDs": "122699", "Org_IDs": 36479, "Organization": "Boys & Girls Clubs of Metro Denver", "Location_Type": "Community", "DPS_School_Num": null, "Programs": "After School Programming; Afterschool Programming", "Program_Count": 2, "Program_Description": "We provide afterschool and summer enrichment programs for kids in a safe fun and enriching environment. Members have access to nutritious meals and opportunities for academic success healthy lifestyles and leadership skills. Programs vary by Club.", "Cost": "Free", "Scholarship_Available": false, "Open_Enrollment": true, "Registration_Process": "Parents or guardians have two options for registration:1)\tFill out and submit a paper registration form at the Club.2)\tRegister online on Boys & Girls Clubs of Metro Denver’s website. Log in or create an account.", "Registration_URL": "https://www.ezchildtrack.com/ParentBGC/ParentLogin.aspx?c=bgcmd", "Food_Provided": "Dinner; Yes - Snacks", "Transport_Available": false, "Time_Availability": "After School; Before School; Summer", "Focus_Areas": "Academic; Arts; College & Career; Family Support; Leadership; Outdoor; Service Learning; Sports & Health", "Phone": "303-892-9200", "Email": "info@bgcmd.org", "Website": "https://www.bgcmd.org/clubs/" }, "geometry": { "type": "Point", "coordinates": [ -104.9229782, 39.80959356 ] } },
{ "type": "Feature", "properties": { "Global_Site_ID": 124301, "Activity_Category": "Youth Development", "Site_Name": "Decker Branch Library", "Address": "1501 South Logan St.", "City": "Denver", "State": "CO", "Zip": 80210, "Latitude": 39.68927636, "Longitude": -104.9829814, "Site_IDs": "122761", "Org_IDs": 36548, "Organization": "Denver Public Library - City & County of Denver Independent Agency", "Location_Type": "Library", "DPS_School_Num": null, "Programs": "Art and Crafts for Kids at Eugene Field Library; Game Club; Kid's Maker Club at Ford Warren Library; Lego Club at Eugene Field Library; Little University - Hadley; Little University - Rodolfo \"\"\"\"Corky\"\"\"\" Gonzalez; Little University at Bear Valley", "Program_Count": 7, "Program_Description": "Create building projects with Legos! We provide the building bricks and you provide the creativity. Ideal for ages 5-12 with an adult. Wednesdays 3:30-4:30.; Join the Little University team for virtual events or watch the videos (English & Spanish) on YouTube. Projects are geared to children 2 & up using supplies many of you already have at home.; Learn new skills and get creative. We’ll provide open-ended art and science exploration materials. Ideal for ages 5-12. 2nd Wednesday of the month.; L", "Cost": "Free", "Scholarship_Available": false, "Open_Enrollment": true, "Registration_Process": null, "Registration_URL": null, "Food_Provided": "No", "Transport_Available": false, "Time_Availability": "After School; Before School; By Request; Holiday; School Day; Summer", "Focus_Areas": "Academic; Arts; Family Support; Leadership; Outdoor; Service Learning; Sports & Health", "Phone": "720-865-2022", "Email": "lchampion@denverlibrary.org", "Website": "https://www.denverlibrary.org" }, "geometry": { "type": "Point", "coordinates": [ -104.9829814, 39.68927636 ] } },
{ "type": "Feature", "properties": { "Global_Site_ID": 124308, "Activity_Category": "Youth Development", "Site_Name": "Denver Broncos Branch", "Address": "4397 Crown Blvd.", "City": "Denver", "State": "CO", "Zip": 80239, "Latitude": 39.78005398, "Longitude": -104.839573, "Site_IDs": "122697", "Org_IDs": 36479, "Organization": "Boys & Girls Clubs of Metro Denver", "Location_Type": "Community", "DPS_School_Num": null, "Programs": "After School Programming; Afterschool Programming", "Program_Count": 2, "Program_Description": "We provide afterschool and summer enrichment programs for kids in a safe fun and enriching environment. Members have access to nutritious meals and opportunities for academic success healthy lifestyles and leadership skills. Programs vary by Club.", "Cost": "Free", "Scholarship_Available": false, "Open_Enrollment": true, "Registration_Process": "Parents or guardians can apply online at www.bgcmd.org/clubs", "Registration_URL": "https://www.bgcmd.org/clubs", "Food_Provided": "Dinner; Yes - Snacks", "Transport_Available": false, "Time_Availability": "After School; Before School; Summer", "Focus_Areas": "Academic; Arts; College & Career; Family Support; Leadership; Outdoor; Service Learning; Sports & Health", "Phone": "303-892-9200", "Email": "info@bgcmd.org", "Website": "https://www.bgcmd.org/clubs/" }, "geometry": { "type": "Point", "coordinates": [ -104.839573, 39.78005398 ] } },
{ "type": "Feature", "properties": { "Global_Site_ID": 124379, "Activity_Category": "Youth Development", "Site_Name": "Eugene Field Branch Library", "Address": "810 South University Blvd.", "City": "Denver", "State": "CO", "Zip": 80209, "Latitude": 39.70175004, "Longitude": -104.9589049, "Site_IDs": "122762", "Org_IDs": 36548, "Organization": "Denver Public Library - City & County of Denver Independent Agency", "Location_Type": "Library", "DPS_School_Num": null, "Programs": "Art and Crafts for Kids at Eugene Field Library; Game Club; Kid's Maker Club at Ford Warren Library; Lego Club at Eugene Field Library; Little University - Hadley; Little University - Rodolfo \"\"\"\"Corky\"\"\"\" Gonzalez; Little University at Bear Valley", "Program_Count": 7, "Program_Description": "Create building projects with Legos! We provide the building bricks and you provide the creativity. Ideal for ages 5-12 with an adult. Wednesdays 3:30-4:30.; Join the Little University team for virtual events or watch the videos (English & Spanish) on YouTube. Projects are geared to children 2 & up using supplies many of you already have at home.; Learn new skills and get creative. We’ll provide open-ended art and science exploration materials. Ideal for ages 5-12. 2nd Wednesday of the month.; L", "Cost": "Free", "Scholarship_Available": false, "Open_Enrollment": true, "Registration_Process": null, "Registration_URL": null, "Food_Provided": "No", "Transport_Available": false, "Time_Availability": "After School; Before School; By Request; Holiday; School Day; Summer", "Focus_Areas": "Academic; Arts; Family Support; Leadership; Outdoor; Service Learning; Sports & Health", "Phone": "720-865-2022", "Email": "lchampion@denverlibrary.org", "Website": "https://www.denverlibrary.org" }, "geometry": { "type": "Point", "coordinates": [ -104.9589049, 39.70175004 ] } },
{ "type": "Feature", "properties": { "Global_Site_ID": 124393, "Activity_Category": "Youth Development", "Site_Name": "Force Elementary School", "Address": "1550 South Wolff St.", "City": "Denver", "State": "CO", "Zip": 80219, "Latitude": 39.68914968, "Longitude": -105.0476907, "Site_IDs": "122704", "Org_IDs": 36479, "Organization": "Boys & Girls Clubs of Metro Denver", "Location_Type": "School (Denver Public Schools)", "DPS_School_Num": 240.0, "Programs": "After School Programming; Afterschool Programming", "Program_Count": 2, "Program_Description": "We provide afterschool and summer enrichment programs for kids in a safe fun and enriching environment. Members have access to nutritious meals and opportunities for academic success healthy lifestyles and leadership skills. Programs vary by Club.", "Cost": "Free", "Scholarship_Available": false, "Open_Enrollment": true, "Registration_Process": "Parents or guardians have two options for registration:1)\tFill out and submit a paper registration form at the Club.2)\tRegister online on Boys & Girls Clubs of Metro Denver’s website. Log in or create an account.", "Registration_URL": "https://www.ezchildtrack.com/ParentBGC/ParentLogin.aspx?c=bgcmd", "Food_Provided": "Dinner; Yes - Snacks", "Transport_Available": false, "Time_Availability": "After School; Before School; Summer", "Focus_Areas": "Academic; Arts; College & Career; Family Support; Leadership; Outdoor; Service Learning; Sports & Health", "Phone": "303-892-9200", "Email": "info@bgcmd.org", "Website": "https://www.bgcmd.org/clubs/" }, "geometry": { "type": "Point", "coordinates": [ -105.0476907, 39.68914968 ] } },
{ "type": "Feature", "properties": { "Global_Site_ID": 124394, "Activity_Category": "Youth Development", "Site_Name": "Ford-Warren Branch Library", "Address": "2825 High St.", "City": "Denver", "State": "CO", "Zip": 80205, "Latitude": 39.75745251, "Longitude": -104.9650588, "Site_IDs": "122775", "Org_IDs": 36548, "Organization": "Denver Public Library - City & County of Denver Independent Agency", "Location_Type": "Library", "DPS_School_Num": null, "Programs": "Art and Crafts for Kids at Eugene Field Library; Game Club; Kid's Maker Club at Ford Warren Library; Lego Club at Eugene Field Library; Little University - Hadley; Little University - Rodolfo \"\"\"\"Corky\"\"\"\" Gonzalez; Little University at Bear Valley", "Program_Count": 7, "Program_Description": "Create building projects with Legos! We provide the building bricks and you provide the creativity. Ideal for ages 5-12 with an adult. Wednesdays 3:30-4:30.; Join the Little University team for virtual events or watch the videos (English & Spanish) on YouTube. Projects are geared to children 2 & up using supplies many of you already have at home.; Learn new skills and get creative. We’ll provide open-ended art and science exploration materials. Ideal for ages 5-12. 2nd Wednesday of the month.; L", "Cost": "Free", "Scholarship_Available": false, "Open_Enrollment": true, "Registration_Process": null, "Registration_URL": null, "Food_Provided": "No", "Transport_Available": false, "Time_Availability": "After School; Before School; By Request; Holiday; School Day; Summer", "Focus_Areas": "Academic; Arts; Family Support; Leadership; Outdoor; Service Learning; Sports & Health", "Phone": "720-865-2022", "Email": "lchampion@denverlibrary.org", "Website": "https://www.denverlibrary.org" }, "geometry": { "type": "Point", "coordinates": [ -104.9650588, 39.75745251 ] } },
{ "type": "Feature", "properties": { "Global_Site_ID": 124411, "Activity_Category": "Youth Development", "Site_Name": "Godsman Elementary School", "Address": "2120 West Arkansas Ave.", "City": "Denver", "State": "CO", "Zip": 80223, "Latitude": 39.69060642, "Longitude": -105.0131159, "Site_IDs": "122705", "Org_IDs": 36479, "Organization": "Boys & Girls Clubs of Metro Denver", "Location_Type": "School (Denver Public Schools)", "DPS_School_Num": 243.0, "Programs": "After School Programming; Afterschool Programming", "Program_Count": 2, "Program_Description": "We provide afterschool and summer enrichment programs for kids in a safe fun and enriching environment. Members have access to nutritious meals and opportunities for academic success healthy lifestyles and leadership skills. Programs vary by Club.", "Cost": "Free", "Scholarship_Available": false, "Open_Enrollment": true, "Registration_Process": "Parents or guardians have two options for registration:1)\tFill out and submit a paper registration form at the Club.2)\tRegister online on Boys & Girls Clubs of Metro Denver’s website. Log in or create an account.", "Registration_URL": "https://www.ezchildtrack.com/ParentBGC/ParentLogin.aspx?c=bgcmd", "Food_Provided": "Dinner; Yes - Snacks", "Transport_Available": false, "Time_Availability": "After School; Before School; Summer", "Focus_Areas": "Academic; Arts; College & Career; Family Support; Leadership; Outdoor; Service Learning; Sports & Health", "Phone": "303-892-9200", "Email": "info@bgcmd.org", "Website": "https://www.bgcmd.org/clubs/" }, "geometry": { "type": "Point", "coordinates": [ -105.0131159, 39.69060642 ] } },
{ "type": "Feature", "properties": { "Global_Site_ID": 124420, "Activity_Category": "Youth Development", "Site_Name": "Green Valley Ranch Branch Library", "Address": "4856 North Andes Ct.", "City": "Denver", "State": "CO", "Zip": 80249, "Latitude": 39.7848556, "Longitude": -104.7672126, "Site_IDs": "122776", "Org_IDs": 36548, "Organization": "Denver Public Library - City & County of Denver Independent Agency", "Location_Type": "Library", "DPS_School_Num": null, "Programs": "Art and Crafts for Kids at Eugene Field Library; Game Club; Kid's Maker Club at Ford Warren Library; Lego Club at Eugene Field Library; Little University - Hadley; Little University - Rodolfo \"\"\"\"Corky\"\"\"\" Gonzalez; Little University at Bear Valley", "Program_Count": 7, "Program_Description": "Create building projects with Legos! We provide the building bricks and you provide the creativity. Ideal for ages 5-12 with an adult. Wednesdays 3:30-4:30.; Join the Little University team for virtual events or watch the videos (English & Spanish) on YouTube. Projects are geared to children 2 & up using supplies many of you already have at home.; Learn new skills and get creative. We’ll provide open-ended art and science exploration materials. Ideal for ages 5-12. 2nd Wednesday of the month.; L", "Cost": "Free", "Scholarship_Available": false, "Open_Enrollment": true, "Registration_Process": null, "Registration_URL": null, "Food_Provided": "No", "Transport_Available": false, "Time_Availability": "After School; Before School; By Request; Holiday; School Day; Summer", "Focus_Areas": "Academic; Arts; Family Support; Leadership; Outdoor; Service Learning; Sports & Health", "Phone": "720-865-2022", "Email": "lchampion@denverlibrary.org", "Website": "https://www.denverlibrary.org" }, "geometry": { "type": "Point", "coordinates": [ -104.7672126, 39.7848556 ] } },
{ "type": "Feature", "properties": { "Global_Site_ID": 124426, "Activity_Category": "Youth Development", "Site_Name": "Hadley Branch Library", "Address": "1890 South Grove St.", "City": "Denver", "State": "CO", "Zip": 80219, "Latitude": 39.68254199, "Longitude": -105.025893, "Site_IDs": "122777", "Org_IDs": 36548, "Organization": "Denver Public Library - City & County of Denver Independent Agency", "Location_Type": "Library", "DPS_School_Num": null, "Programs": "Art and Crafts for Kids at Eugene Field Library; Game Club; Kid's Maker Club at Ford Warren Library; Lego Club at Eugene Field Library; Little University - Hadley; Little University - Rodolfo \"\"\"\"Corky\"\"\"\" Gonzalez; Little University at Bear Valley", "Program_Count": 7, "Program_Description": "Create building projects with Legos! We provide the building bricks and you provide the creativity. Ideal for ages 5-12 with an adult. Wednesdays 3:30-4:30.; Join the Little University team for virtual events or watch the videos (English & Spanish) on YouTube. Projects are geared to children 2 & up using supplies many of you already have at home.; Learn new skills and get creative. We’ll provide open-ended art and science exploration materials. Ideal for ages 5-12. 2nd Wednesday of the month.; L", "Cost": "Free", "Scholarship_Available": false, "Open_Enrollment": true, "Registration_Process": null, "Registration_URL": null, "Food_Provided": "No", "Transport_Available": false, "Time_Availability": "After School; Before School; By Request; Holiday; School Day; Summer", "Focus_Areas": "Academic; Arts; Family Support; Leadership; Outdoor; Service Learning; Sports & Health", "Phone": "720-865-2022", "Email": "lchampion@denverlibrary.org", "Website": "https://www.denverlibrary.org" }, "geometry": { "type": "Point", "coordinates": [ -105.025893, 39.68254199 ] } },
{ "type": "Feature", "properties": { "Global_Site_ID": 124429, "Activity_Category": "Youth Development", "Site_Name": "Hampden Branch Library", "Address": "9755 East Girard Ave.", "City": "Denver", "State": "CO", "Zip": 80231, "Latitude": 39.65458765, "Longitude": -104.874746, "Site_IDs": "122778", "Org_IDs": 36548, "Organization": "Denver Public Library - City & County of Denver Independent Agency", "Location_Type": "Library", "DPS_School_Num": null, "Programs": "Art and Crafts for Kids at Eugene Field Library; Game Club; Kid's Maker Club at Ford Warren Library; Lego Club at Eugene Field Library; Little University - Hadley; Little University - Rodolfo \"\"\"\"Corky\"\"\"\" Gonzalez; Little University at Bear Valley", "Program_Count": 7, "Program_Description": "Create building projects with Legos! We provide the building bricks and you provide the creativity. Ideal for ages 5-12 with an adult. Wednesdays 3:30-4:30.; Join the Little University team for virtual events or watch the videos (English & Spanish) on YouTube. Projects are geared to children 2 & up using supplies many of you already have at home.; Learn new skills and get creative. We’ll provide open-ended art and science exploration materials. Ideal for ages 5-12. 2nd Wednesday of the month.; L", "Cost": "Free", "Scholarship_Available": false, "Open_Enrollment": true, "Registration_Process": null, "Registration_URL": null, "Food_Provided": "No", "Transport_Available": false, "Time_Availability": "After School; Before School; By Request; Holiday; School Day; Summer", "Focus_Areas": "Academic; Arts; Family Support; Leadership; Outdoor; Service Learning; Sports & Health", "Phone": "720-865-2022", "Email": "lchampion@denverlibrary.org", "Website": "https://www.denverlibrary.org" }, "geometry": { "type": "Point", "coordinates": [ -104.874746, 39.65458765 ] } },
{ "type": "Feature", "properties": { "Global_Site_ID": 124459, "Activity_Category": "Youth Development", "Site_Name": "J. Churchill Owen", "Address": "3480 West Kentucky Ave.", "City": "Denver", "State": "CO", "Zip": 80219, "Latitude": 39.69958357, "Longitude": -105.0331167, "Site_IDs": "122693", "Org_IDs": 36479, "Organization": "Boys & Girls Clubs of Metro Denver", "Location_Type": "Community", "DPS_School_Num": null, "Programs": "After School Programming; Afterschool Programming", "Program_Count": 2, "Program_Description": "We provide afterschool and summer enrichment programs for kids in a safe fun and enriching environment. Members have access to nutritious meals and opportunities for academic success healthy lifestyles and leadership skills. Programs vary by Club.", "Cost": "Free", "Scholarship_Available": false, "Open_Enrollment": true, "Registration_Process": "Parents or guardians can apply online at www.bgcmd.org/clubs", "Registration_URL": "https://www.bgcmd.org/clubs", "Food_Provided": "Dinner; Yes - Snacks", "Transport_Available": false, "Time_Availability": "After School; Before School; Summer", "Focus_Areas": "Academic; Arts; College & Career; Family Support; Leadership; Outdoor; Service Learning; Sports & Health", "Phone": "303-892-9200", "Email": "info@bgcmd.org", "Website": "https://www.bgcmd.org/clubs/" }, "geometry": { "type": "Point", "coordinates": [ -105.0331167, 39.69958357 ] } },
{ "type": "Feature", "properties": { "Global_Site_ID": 124460, "Activity_Category": "Youth Development", "Site_Name": "Jack A. Vickers Boys & Girls Club", "Address": "3333 Holly St.", "City": "Denver", "State": "CO", "Zip": 80207, "Latitude": 39.76447767, "Longitude": -104.9228914, "Site_IDs": "122701", "Org_IDs": 36479, "Organization": "Boys & Girls Clubs of Metro Denver", "Location_Type": "Community", "DPS_School_Num": null, "Programs": "After School Programming; Afterschool Programming", "Program_Count": 2, "Program_Description": "We provide afterschool and summer enrichment programs for kids in a safe fun and enriching environment. Members have access to nutritious meals and opportunities for academic success healthy lifestyles and leadership skills. Programs vary by Club.", "Cost": "Free", "Scholarship_Available": false, "Open_Enrollment": true, "Registration_Process": "Parents or guardians can apply online at www.bgcmd.org/clubs", "Registration_URL": "https://www.bgcmd.org/clubs", "Food_Provided": "Dinner; Yes - Snacks", "Transport_Available": true, "Time_Availability": "After School; Before School; Summer", "Focus_Areas": "Academic; Arts; College & Career; Family Support; Leadership; Outdoor; Service Learning; Sports & Health", "Phone": "303-892-9200", "Email": "info@bgcmd.org", "Website": "https://www.bgcmd.org/clubs/" }, "geometry": { "type": "Point", "coordinates": [ -104.9228914, 39.76447767 ] } },
{ "type": "Feature", "properties": { "Global_Site_ID": 124463, "Activity_Category": "Youth Development", "Site_Name": "Joan Farley Academy", "Address": "50 West 5th Ave.", "City": "Denver", "State": "CO", "Zip": 80204, "Latitude": 39.72391091, "Longitude": -104.9888819, "Site_IDs": "122700", "Org_IDs": 36479, "Organization": "Boys & Girls Clubs of Metro Denver", "Location_Type": "School (Private or Non-DPS)", "DPS_School_Num": null, "Programs": "After School Programming; Afterschool Programming", "Program_Count": 2, "Program_Description": "We provide afterschool and summer enrichment programs for kids in a safe fun and enriching environment. Members have access to nutritious meals and opportunities for academic success healthy lifestyles and leadership skills. Programs vary by Club.", "Cost": "Free", "Scholarship_Available": false, "Open_Enrollment": true, "Registration_Process": "Parents or guardians have two options for registration:1)\tFill out and submit a paper registration form at the Club.2)\tRegister online on Boys & Girls Clubs of Metro Denver’s website. Log in or create an account.", "Registration_URL": "https://www.ezchildtrack.com/ParentBGC/ParentLogin.aspx?c=bgcmd", "Food_Provided": "Dinner; Yes - Snacks", "Transport_Available": true, "Time_Availability": "After School; Before School; Summer", "Focus_Areas": "Academic; Arts; College & Career; Family Support; Leadership; Outdoor; Service Learning; Sports & Health", "Phone": "303-892-9200", "Email": "info@bgcmd.org", "Website": "https://www.bgcmd.org/clubs/" }, "geometry": { "type": "Point", "coordinates": [ -104.9888819, 39.72391091 ] } },
{ "type": "Feature", "properties": { "Global_Site_ID": 124475, "Activity_Category": "Youth Development", "Site_Name": "KIPP Northeast Denver Middle School", "Address": "4635 Walden St.", "City": "Denver", "State": "CO", "Zip": 80249, "Latitude": 39.78052395, "Longitude": -104.7787566, "Site_IDs": "122707", "Org_IDs": 36479, "Organization": "Boys & Girls Clubs of Metro Denver", "Location_Type": "School (Denver Public Schools)", "DPS_School_Num": 435.0, "Programs": "After School Programming; Afterschool Programming", "Program_Count": 2, "Program_Description": "We provide afterschool and summer enrichment programs for kids in a safe fun and enriching environment. Members have access to nutritious meals and opportunities for academic success healthy lifestyles and leadership skills. Programs vary by Club.", "Cost": "Free", "Scholarship_Available": false, "Open_Enrollment": true, "Registration_Process": "Parents or guardians can apply online at www.bgcmd.org/clubs", "Registration_URL": "https://www.bgcmd.org/clubs", "Food_Provided": "Dinner; Yes - Snacks", "Transport_Available": false, "Time_Availability": "After School; Before School; Summer", "Focus_Areas": "Academic; Arts; College & Career; Family Support; Leadership; Outdoor; Service Learning; Sports & Health", "Phone": "303-892-9200", "Email": "info@bgcmd.org", "Website": "https://www.bgcmd.org/clubs/" }, "geometry": { "type": "Point", "coordinates": [ -104.7787566, 39.78052395 ] } },
{ "type": "Feature", "properties": { "Global_Site_ID": 124477, "Activity_Category": "Youth Development", "Site_Name": "KIPP Sunshine Peak Academy", "Address": "375 South Tejon St.", "City": "Denver", "State": "CO", "Zip": 80223, "Latitude": 39.70992617, "Longitude": -105.0122601, "Site_IDs": "134607", "Org_IDs": 36479, "Organization": "Boys & Girls Clubs of Metro Denver", "Location_Type": "School (Denver Public Schools)", "DPS_School_Num": 426.0, "Programs": "After School Programming; Afterschool Programming", "Program_Count": 2, "Program_Description": "We provide afterschool and summer enrichment programs for kids in a safe fun and enriching environment. Members have access to nutritious meals and opportunities for academic success healthy lifestyles and leadership skills. Programs vary by Club.", "Cost": "Free", "Scholarship_Available": false, "Open_Enrollment": true, "Registration_Process": "Apply at www.bgcmd.org/clubs", "Registration_URL": "http://www.bgcmd.org/clubs", "Food_Provided": "Dinner; Yes - Snacks", "Transport_Available": false, "Time_Availability": "After School; Before School; Summer", "Focus_Areas": "Academic; Arts; College & Career; Family Support; Leadership; Outdoor; Service Learning; Sports & Health", "Phone": "303-892-9200", "Email": "info@bgcmd.org", "Website": "https://www.bgcmd.org/clubs/" }, "geometry": { "type": "Point", "coordinates": [ -105.0122601, 39.70992617 ] } },
{ "type": "Feature", "properties": { "Global_Site_ID": 124515, "Activity_Category": "Youth Development", "Site_Name": "Montbello Branch Library", "Address": "12955 Albrook Dr.", "City": "Denver", "State": "CO", "Zip": 80239, "Latitude": 39.78023754, "Longitude": -104.8404857, "Site_IDs": "122779", "Org_IDs": 36548, "Organization": "Denver Public Library - City & County of Denver Independent Agency", "Location_Type": "Library", "DPS_School_Num": null, "Programs": "Art and Crafts for Kids at Eugene Field Library; Game Club; Kid's Maker Club at Ford Warren Library; Lego Club at Eugene Field Library; Little University - Hadley; Little University - Rodolfo \"\"\"\"Corky\"\"\"\" Gonzalez; Little University at Bear Valley", "Program_Count": 7, "Program_Description": "Create building projects with Legos! We provide the building bricks and you provide the creativity. Ideal for ages 5-12 with an adult. Wednesdays 3:30-4:30.; Join the Little University team for virtual events or watch the videos (English & Spanish) on YouTube. Projects are geared to children 2 & up using supplies many of you already have at home.; Learn new skills and get creative. We’ll provide open-ended art and science exploration materials. Ideal for ages 5-12. 2nd Wednesday of the month.; L", "Cost": "Free", "Scholarship_Available": false, "Open_Enrollment": true, "Registration_Process": null, "Registration_URL": null, "Food_Provided": "No", "Transport_Available": false, "Time_Availability": "After School; Before School; By Request; Holiday; School Day; Summer", "Focus_Areas": "Academic; Arts; Family Support; Leadership; Outdoor; Service Learning; Sports & Health", "Phone": "720-865-2022", "Email": "lchampion@denverlibrary.org", "Website": "https://www.denverlibrary.org" }, "geometry": { "type": "Point", "coordinates": [ -104.8404857, 39.78023754 ] } },
{ "type": "Feature", "properties": { "Global_Site_ID": 124546, "Activity_Category": "Youth Development", "Site_Name": "Oakland Elementary School", "Address": "4580 Dearborn St.", "City": "Denver", "State": "CO", "Zip": 80239, "Latitude": 39.77840268, "Longitude": -104.8195608, "Site_IDs": "133209", "Org_IDs": 36479, "Organization": "Boys & Girls Clubs of Metro Denver", "Location_Type": "School (Denver Public Schools)", "DPS_School_Num": 150.0, "Programs": "After School Programming; Afterschool Programming", "Program_Count": 2, "Program_Description": "We provide afterschool and summer enrichment programs for kids in a safe fun and enriching environment. Members have access to nutritious meals and opportunities for academic success healthy lifestyles and leadership skills. Programs vary by Club.", "Cost": "Free", "Scholarship_Available": false, "Open_Enrollment": true, "Registration_Process": "Parents or guardians have two options for registration:1) Fill out and submit a paper registration form at the Club2) Register online at Boys & Girls Clubs of Metro Denver's website. Log in or create an account.", "Registration_URL": "https://www.ezchildtrack.com/Parentbgc/ParentLogin.aspx?c=bgcmd", "Food_Provided": "Lunch; Yes - Breakfast", "Transport_Available": true, "Time_Availability": "After School; Before School; Summer", "Focus_Areas": "Academic; Arts; College & Career; Family Support; Leadership; Outdoor; Service Learning; Sports & Health", "Phone": "303-892-9200", "Email": "info@bgcmd.org", "Website": "https://www.bgcmd.org/clubs/" }, "geometry": { "type": "Point", "coordinates": [ -104.8195608, 39.77840268 ] } },
{ "type": "Feature", "properties": { "Global_Site_ID": 124554, "Activity_Category": "Youth Development", "Site_Name": "Park Hill Branch Library", "Address": "4705 Montview Blvd.", "City": "Denver", "State": "CO", "Zip": 80207, "Latitude": 39.7477328, "Longitude": -104.9325033, "Site_IDs": "122780", "Org_IDs": 36548, "Organization": "Denver Public Library - City & County of Denver Independent Agency", "Location_Type": "Library", "DPS_School_Num": null, "Programs": "Art and Crafts for Kids at Eugene Field Library; Game Club; Kid's Maker Club at Ford Warren Library; Lego Club at Eugene Field Library; Little University - Hadley; Little University - Rodolfo \"\"\"\"Corky\"\"\"\" Gonzalez; Little University at Bear Valley", "Program_Count": 7, "Program_Description": "Create building projects with Legos! We provide the building bricks and you provide the creativity. Ideal for ages 5-12 with an adult. Wednesdays 3:30-4:30.; Join the Little University team for virtual events or watch the videos (English & Spanish) on YouTube. Projects are geared to children 2 & up using supplies many of you already have at home.; Learn new skills and get creative. We’ll provide open-ended art and science exploration materials. Ideal for ages 5-12. 2nd Wednesday of the month.; L", "Cost": "Free", "Scholarship_Available": false, "Open_Enrollment": true, "Registration_Process": null, "Registration_URL": null, "Food_Provided": "No", "Transport_Available": false, "Time_Availability": "After School; Before School; By Request; Holiday; School Day; Summer", "Focus_Areas": "Academic; Arts; Family Support; Leadership; Outdoor; Service Learning; Sports & Health", "Phone": "720-865-2022", "Email": "lchampion@denverlibrary.org", "Website": "https://www.denverlibrary.org" }, "geometry": { "type": "Point", "coordinates": [ -104.9325033, 39.7477328 ] } },
{ "type": "Feature", "properties": { "Global_Site_ID": 124558, "Activity_Category": "Youth Development", "Site_Name": "Pauline Robinson Branch Library", "Address": "5575 East 33rd Ave.", "City": "Denver", "State": "CO", "Zip": 80207, "Latitude": 39.76402949, "Longitude": -104.9226995, "Site_IDs": "122769", "Org_IDs": 36548, "Organization": "Denver Public Library - City & County of Denver Independent Agency", "Location_Type": "Library", "DPS_School_Num": null, "Programs": "Art and Crafts for Kids at Eugene Field Library; Game Club; Kid's Maker Club at Ford Warren Library; Lego Club at Eugene Field Library; Little University - Hadley; Little University - Rodolfo \"\"\"\"Corky\"\"\"\" Gonzalez; Little University at Bear Valley", "Program_Count": 7, "Program_Description": "Create building projects with Legos! We provide the building bricks and you provide the creativity. Ideal for ages 5-12 with an adult. Wednesdays 3:30-4:30.; Join the Little University team for virtual events or watch the videos (English & Spanish) on YouTube. Projects are geared to children 2 & up using supplies many of you already have at home.; Learn new skills and get creative. We’ll provide open-ended art and science exploration materials. Ideal for ages 5-12. 2nd Wednesday of the month.; L", "Cost": "Free", "Scholarship_Available": false, "Open_Enrollment": true, "Registration_Process": null, "Registration_URL": null, "Food_Provided": "No", "Transport_Available": false, "Time_Availability": "After School; Before School; By Request; Holiday; School Day; Summer", "Focus_Areas": "Academic; Arts; Family Support; Leadership; Outdoor; Service Learning; Sports & Health", "Phone": "720-865-2022", "Email": "lchampion@denverlibrary.org", "Website": "https://www.denverlibrary.org" }, "geometry": { "type": "Point", "coordinates": [ -104.9226995, 39.76402949 ] } },
{ "type": "Feature", "properties": { "Global_Site_ID": 124575, "Activity_Category": "Youth Development", "Site_Name": "Robert M. Shopneck Branch", "Address": "1800 Longs Peak St.", "City": "Brighton", "State": "CO", "Zip": 80601, "Latitude": 39.991408, "Longitude": -104.800076, "Site_IDs": "122698", "Org_IDs": 36479, "Organization": "Boys & Girls Clubs of Metro Denver", "Location_Type": "Community", "DPS_School_Num": null, "Programs": "After School Programming; Afterschool Programming", "Program_Count": 2, "Program_Description": "We provide afterschool and summer enrichment programs for kids in a safe fun and enriching environment. Members have access to nutritious meals and opportunities for academic success healthy lifestyles and leadership skills. Programs vary by Club.", "Cost": "Free", "Scholarship_Available": false, "Open_Enrollment": true, "Registration_Process": "Parents or guardians have two options for registration:1)\tFill out and submit a paper registration form at the Club.2)\tRegister online on Boys & Girls Clubs of Metro Denver’s website. Log in or create an account.", "Registration_URL": "https://www.ezchildtrack.com/ParentBGC/ParentLogin.aspx?c=bgcmd", "Food_Provided": "Dinner; Yes - Snacks", "Transport_Available": true, "Time_Availability": "After School; Before School; Summer", "Focus_Areas": "Academic; Arts; College & Career; Family Support; Leadership; Outdoor; Service Learning; Sports & Health", "Phone": "303-892-9200", "Email": "info@bgcmd.org", "Website": "https://www.bgcmd.org/clubs/" }, "geometry": { "type": "Point", "coordinates": [ -104.800076, 39.991408 ] } },
{ "type": "Feature", "properties": { "Global_Site_ID": 124581, "Activity_Category": "Youth Development", "Site_Name": "Rodolfo \"\"Corky\"\" Gonzales Library", "Address": "1498 North Irving St.", "City": "Denver", "State": "CO", "Zip": 80204, "Latitude": 39.74012747, "Longitude": -105.0297201, "Site_IDs": "122770", "Org_IDs": 36548, "Organization": "Denver Public Library - City & County of Denver Independent Agency", "Location_Type": "Library", "DPS_School_Num": null, "Programs": "Art and Crafts for Kids at Eugene Field Library; Game Club; Kid's Maker Club at Ford Warren Library; Lego Club at Eugene Field Library; Little University - Hadley; Little University - Rodolfo \"\"\"\"Corky\"\"\"\" Gonzalez; Little University at Bear Valley", "Program_Count": 7, "Program_Description": "Create building projects with Legos! We provide the building bricks and you provide the creativity. Ideal for ages 5-12 with an adult. Wednesdays 3:30-4:30.; Join the Little University team for virtual events or watch the videos (English & Spanish) on YouTube. Projects are geared to children 2 & up using supplies many of you already have at home.; Learn new skills and get creative. We’ll provide open-ended art and science exploration materials. Ideal for ages 5-12. 2nd Wednesday of the month.; L", "Cost": "Free", "Scholarship_Available": false, "Open_Enrollment": true, "Registration_Process": "Registration is required for each event and opens 7 days in advance. Please create a separate registration for each attendee. ADULTS MUST HAVE THEIR OWN REGISTRATION. Masks are recommended for people ages 2 and up.", "Registration_URL": null, "Food_Provided": "No", "Transport_Available": false, "Time_Availability": "After School; Before School; By Request; Holiday; School Day; Summer", "Focus_Areas": "Academic; Arts; Family Support; Leadership; Outdoor; Service Learning; Sports & Health", "Phone": "720-865-2022", "Email": "lchampion@denverlibrary.org", "Website": "https://www.denverlibrary.org" }, "geometry": { "type": "Point", "coordinates": [ -105.0297201, 39.74012747 ] } },
{ "type": "Feature", "properties": { "Global_Site_ID": 124583, "Activity_Category": "Youth Development", "Site_Name": "Ross-Barnum Branch Library", "Address": "3570 West First Ave.", "City": "Denver", "State": "CO", "Zip": 80219, "Latitude": 39.71790586, "Longitude": -105.0345554, "Site_IDs": "122771; 122772", "Org_IDs": 36548, "Organization": "Denver Public Library - City & County of Denver Independent Agency", "Location_Type": "Library", "DPS_School_Num": null, "Programs": "Art and Crafts for Kids at Eugene Field Library; Game Club; Kid's Maker Club at Ford Warren Library; Lego Club at Eugene Field Library; Little University - Hadley; Little University - Rodolfo \"\"\"\"Corky\"\"\"\" Gonzalez; Little University at Bear Valley", "Program_Count": 7, "Program_Description": "Create building projects with Legos! We provide the building bricks and you provide the creativity. Ideal for ages 5-12 with an adult. Wednesdays 3:30-4:30.; Join the Little University team for virtual events or watch the videos (English & Spanish) on YouTube. Projects are geared to children 2 & up using supplies many of you already have at home.; Learn new skills and get creative. We’ll provide open-ended art and science exploration materials. Ideal for ages 5-12. 2nd Wednesday of the month.; L", "Cost": "Free", "Scholarship_Available": false, "Open_Enrollment": true, "Registration_Process": null, "Registration_URL": null, "Food_Provided": "No", "Transport_Available": false, "Time_Availability": "After School; Before School; By Request; Holiday; School Day; Summer", "Focus_Areas": "Academic; Arts; Family Support; Leadership; Outdoor; Service Learning; Sports & Health", "Phone": "720-865-2022", "Email": "lchampion@denverlibrary.org", "Website": "https://www.denverlibrary.org" }, "geometry": { "type": "Point", "coordinates": [ -105.0345554, 39.71790586 ] } },
{ "type": "Feature", "properties": { "Global_Site_ID": 124585, "Activity_Category": "Youth Development", "Site_Name": "Ross-Cherry Creek Branch Library", "Address": "305 Milwaukee St.", "City": "Denver", "State": "CO", "Zip": 80206, "Latitude": 39.72125897, "Longitude": -104.9525545, "Site_IDs": "122773", "Org_IDs": 36548, "Organization": "Denver Public Library - City & County of Denver Independent Agency", "Location_Type": "Library", "DPS_School_Num": null, "Programs": "Art and Crafts for Kids at Eugene Field Library; Game Club; Kid's Maker Club at Ford Warren Library; Lego Club at Eugene Field Library; Little University - Hadley; Little University - Rodolfo \"\"\"\"Corky\"\"\"\" Gonzalez; Little University at Bear Valley", "Program_Count": 7, "Program_Description": "Create building projects with Legos! We provide the building bricks and you provide the creativity. Ideal for ages 5-12 with an adult. Wednesdays 3:30-4:30.; Join the Little University team for virtual events or watch the videos (English & Spanish) on YouTube. Projects are geared to children 2 & up using supplies many of you already have at home.; Learn new skills and get creative. We’ll provide open-ended art and science exploration materials. Ideal for ages 5-12. 2nd Wednesday of the month.; L", "Cost": "Free", "Scholarship_Available": false, "Open_Enrollment": true, "Registration_Process": null, "Registration_URL": null, "Food_Provided": "No", "Transport_Available": false, "Time_Availability": "After School; Before School; By Request; Holiday; School Day; Summer", "Focus_Areas": "Academic; Arts; Family Support; Leadership; Outdoor; Service Learning; Sports & Health", "Phone": "720-865-2022", "Email": "lchampion@denverlibrary.org", "Website": "https://www.denverlibrary.org" }, "geometry": { "type": "Point", "coordinates": [ -104.9525545, 39.72125897 ] } },
{ "type": "Feature", "properties": { "Global_Site_ID": 124590, "Activity_Category": "Youth Development", "Site_Name": "Sam Gary Branch Library", "Address": "2961 Roslyn St.", "City": "Denver", "State": "CO", "Zip": 80238, "Latitude": 39.7588516, "Longitude": -104.9006949, "Site_IDs": "122763", "Org_IDs": 36548, "Organization": "Denver Public Library - City & County of Denver Independent Agency", "Location_Type": "Library", "DPS_School_Num": null, "Programs": "Art and Crafts for Kids at Eugene Field Library; Game Club; Kid's Maker Club at Ford Warren Library; Lego Club at Eugene Field Library; Little University - Hadley; Little University - Rodolfo \"\"\"\"Corky\"\"\"\" Gonzalez; Little University at Bear Valley", "Program_Count": 7, "Program_Description": "Create building projects with Legos! We provide the building bricks and you provide the creativity. Ideal for ages 5-12 with an adult. Wednesdays 3:30-4:30.; Join the Little University team for virtual events or watch the videos (English & Spanish) on YouTube. Projects are geared to children 2 & up using supplies many of you already have at home.; Learn new skills and get creative. We’ll provide open-ended art and science exploration materials. Ideal for ages 5-12. 2nd Wednesday of the month.; L", "Cost": "Free", "Scholarship_Available": false, "Open_Enrollment": true, "Registration_Process": null, "Registration_URL": null, "Food_Provided": "No", "Transport_Available": false, "Time_Availability": "After School; Before School; By Request; Holiday; School Day; Summer", "Focus_Areas": "Academic; Arts; Family Support; Leadership; Outdoor; Service Learning; Sports & Health", "Phone": "720-865-2022", "Email": "lchampion@denverlibrary.org", "Website": "https://www.denverlibrary.org" }, "geometry": { "type": "Point", "coordinates": [ -104.9006949, 39.7588516 ] } },
{ "type": "Feature", "properties": { "Global_Site_ID": 124596, "Activity_Category": "Youth Development", "Site_Name": "Schlessman Family Branch Library", "Address": "100 Poplar St.", "City": "Denver", "State": "CO", "Zip": 80220, "Latitude": 39.71867471, "Longitude": -104.9043347, "Site_IDs": "122764", "Org_IDs": 36548, "Organization": "Denver Public Library - City & County of Denver Independent Agency", "Location_Type": "Library", "DPS_School_Num": null, "Programs": "Art and Crafts for Kids at Eugene Field Library; Game Club; Kid's Maker Club at Ford Warren Library; Lego Club at Eugene Field Library; Little University - Hadley; Little University - Rodolfo \"\"\"\"Corky\"\"\"\" Gonzalez; Little University at Bear Valley", "Program_Count": 7, "Program_Description": "Create building projects with Legos! We provide the building bricks and you provide the creativity. Ideal for ages 5-12 with an adult. Wednesdays 3:30-4:30.; Join the Little University team for virtual events or watch the videos (English & Spanish) on YouTube. Projects are geared to children 2 & up using supplies many of you already have at home.; Learn new skills and get creative. We’ll provide open-ended art and science exploration materials. Ideal for ages 5-12. 2nd Wednesday of the month.; L", "Cost": "Free", "Scholarship_Available": false, "Open_Enrollment": true, "Registration_Process": null, "Registration_URL": null, "Food_Provided": "No", "Transport_Available": false, "Time_Availability": "After School; Before School; By Request; Holiday; School Day; Summer", "Focus_Areas": "Academic; Arts; Family Support; Leadership; Outdoor; Service Learning; Sports & Health", "Phone": "720-865-2022", "Email": "lchampion@denverlibrary.org", "Website": "https://www.denverlibrary.org" }, "geometry": { "type": "Point", "coordinates": [ -104.9043347, 39.71867471 ] } },
{ "type": "Feature", "properties": { "Global_Site_ID": 124617, "Activity_Category": "Youth Development", "Site_Name": "William E. Cope Branch", "Address": "808 Inca St.", "City": "Denver", "State": "CO", "Zip": 80204, "Latitude": 39.72928795, "Longitude": -104.9972369, "Site_IDs": "122696", "Org_IDs": 36479, "Organization": "Boys & Girls Clubs of Metro Denver", "Location_Type": "Community", "DPS_School_Num": null, "Programs": "After School Programming; Afterschool Programming", "Program_Count": 2, "Program_Description": "We provide afterschool and summer enrichment programs for kids in a safe fun and enriching environment. Members have access to nutritious meals and opportunities for academic success healthy lifestyles and leadership skills. Programs vary by Club.", "Cost": "Free", "Scholarship_Available": false, "Open_Enrollment": true, "Registration_Process": "Parents or guardians can apply online at www.bgcmd.org/clubs", "Registration_URL": "https://www.bgcmd.org/clubs", "Food_Provided": "Dinner; Yes - Snacks", "Transport_Available": true, "Time_Availability": "After School; Before School; Summer", "Focus_Areas": "Academic; Arts; College & Career; Family Support; Leadership; Outdoor; Service Learning; Sports & Health", "Phone": "303-892-9200", "Email": "info@bgcmd.org", "Website": "https://www.bgcmd.org/clubs/" }, "geometry": { "type": "Point", "coordinates": [ -104.9972369, 39.72928795 ] } },
{ "type": "Feature", "properties": { "Global_Site_ID": 124620, "Activity_Category": "Youth Development", "Site_Name": "The GLBT Community Center of Colorado", "Address": "1301 East Colfax Ave.", "City": "Denver", "State": "CO", "Zip": 80218, "Latitude": 39.74027563, "Longitude": -104.9705736, "Site_IDs": "134067", "Org_IDs": 40474, "Organization": "The Center on Colfax", "Location_Type": "Community", "DPS_School_Num": null, "Programs": "The Center on Colfax", "Program_Count": 1, "Program_Description": "Rainbow Alley is a safe brave space where LGBTQ youth 10-17 yo and their allies find support and acceptance. We provide events and activities counseling and support groups health services and life skills—all in a warm and welcoming environment.", "Cost": "Free", "Scholarship_Available": false, "Open_Enrollment": true, "Registration_Process": null, "Registration_URL": null, "Food_Provided": "Yes - Snacks", "Transport_Available": false, "Time_Availability": "After School; By Request; Summer", "Focus_Areas": "Arts; College & Career; Family Support; Leadership; Outdoor; Service Learning; Sports & Health", "Phone": "3039515212", "Email": "szapata@lgbtqcolorado.org", "Website": "https://lgbtqcolorado.org/" }, "geometry": { "type": "Point", "coordinates": [ -104.9705736, 39.74027563 ] } },
{ "type": "Feature", "properties": { "Global_Site_ID": 124630, "Activity_Category": "Youth Development", "Site_Name": "Westwood Branch Library", "Address": "1000 South Lowell Blvd.", "City": "Denver", "State": "CO", "Zip": 80219, "Latitude": 39.69851789, "Longitude": -105.0336818, "Site_IDs": "132988", "Org_IDs": 36548, "Organization": "Denver Public Library - City & County of Denver Independent Agency", "Location_Type": "Library", "DPS_School_Num": null, "Programs": "Art and Crafts for Kids at Eugene Field Library; Game Club; Kid's Maker Club at Ford Warren Library; Lego Club at Eugene Field Library; Little University - Hadley; Little University - Rodolfo \"\"\"\"Corky\"\"\"\" Gonzalez; Little University at Bear Valley", "Program_Count": 7, "Program_Description": "Create building projects with Legos! We provide the building bricks and you provide the creativity. Ideal for ages 5-12 with an adult. Wednesdays 3:30-4:30.; Join the Little University team for virtual events or watch the videos (English & Spanish) on YouTube. Projects are geared to children 2 & up using supplies many of you already have at home.; Learn new skills and get creative. We’ll provide open-ended art and science exploration materials. Ideal for ages 5-12. 2nd Wednesday of the month.; L", "Cost": "Free", "Scholarship_Available": false, "Open_Enrollment": true, "Registration_Process": null, "Registration_URL": null, "Food_Provided": "No", "Transport_Available": false, "Time_Availability": "After School; Before School; By Request; Holiday; School Day; Summer", "Focus_Areas": "Academic; Arts; Family Support; Leadership; Outdoor; Service Learning; Sports & Health", "Phone": "720-865-2022", "Email": "lchampion@denverlibrary.org", "Website": "https://www.denverlibrary.org" }, "geometry": { "type": "Point", "coordinates": [ -105.0336818, 39.69851789 ] } },
{ "type": "Feature", "properties": { "Global_Site_ID": 124631, "Activity_Category": "Youth Development", "Site_Name": "Virginia Village Branch Library", "Address": "1500 South Dahlia St.", "City": "Denver", "State": "CO", "Zip": 80222, "Latitude": 39.68886132, "Longitude": -104.9310996, "Site_IDs": "122767", "Org_IDs": 36548, "Organization": "Denver Public Library - City & County of Denver Independent Agency", "Location_Type": "Library", "DPS_School_Num": null, "Programs": "Art and Crafts for Kids at Eugene Field Library; Game Club; Kid's Maker Club at Ford Warren Library; Lego Club at Eugene Field Library; Little University - Hadley; Little University - Rodolfo \"\"\"\"Corky\"\"\"\" Gonzalez; Little University at Bear Valley", "Program_Count": 7, "Program_Description": "Create building projects with Legos! We provide the building bricks and you provide the creativity. Ideal for ages 5-12 with an adult. Wednesdays 3:30-4:30.; Join the Little University team for virtual events or watch the videos (English & Spanish) on YouTube. Projects are geared to children 2 & up using supplies many of you already have at home.; Learn new skills and get creative. We’ll provide open-ended art and science exploration materials. Ideal for ages 5-12. 2nd Wednesday of the month.; L", "Cost": "Free", "Scholarship_Available": false, "Open_Enrollment": true, "Registration_Process": null, "Registration_URL": null, "Food_Provided": "No", "Transport_Available": false, "Time_Availability": "After School; Before School; By Request; Holiday; School Day; Summer", "Focus_Areas": "Academic; Arts; Family Support; Leadership; Outdoor; Service Learning; Sports & Health", "Phone": "720-865-2022", "Email": "lchampion@denverlibrary.org", "Website": "https://www.denverlibrary.org" }, "geometry": { "type": "Point", "coordinates": [ -104.9310996, 39.68886132 ] } },
{ "type": "Feature", "properties": { "Global_Site_ID": 124632, "Activity_Category": "Youth Development", "Site_Name": "Valdez-Perry Branch Library", "Address": "4690 Vine St.", "City": "Denver", "State": "CO", "Zip": 80216, "Latitude": 39.78160809, "Longitude": -104.962092, "Site_IDs": "122766", "Org_IDs": 36548, "Organization": "Denver Public Library - City & County of Denver Independent Agency", "Location_Type": "Library", "DPS_School_Num": null, "Programs": "Art and Crafts for Kids at Eugene Field Library; Game Club; Kid's Maker Club at Ford Warren Library; Lego Club at Eugene Field Library; Little University - Hadley; Little University - Rodolfo \"\"\"\"Corky\"\"\"\" Gonzalez; Little University at Bear Valley", "Program_Count": 7, "Program_Description": "Create building projects with Legos! We provide the building bricks and you provide the creativity. Ideal for ages 5-12 with an adult. Wednesdays 3:30-4:30.; Join the Little University team for virtual events or watch the videos (English & Spanish) on YouTube. Projects are geared to children 2 & up using supplies many of you already have at home.; Learn new skills and get creative. We’ll provide open-ended art and science exploration materials. Ideal for ages 5-12. 2nd Wednesday of the month.; L", "Cost": "Free", "Scholarship_Available": false, "Open_Enrollment": true, "Registration_Process": null, "Registration_URL": null, "Food_Provided": "No", "Transport_Available": false, "Time_Availability": "After School; Before School; By Request; Holiday; School Day; Summer", "Focus_Areas": "Academic; Arts; Family Support; Leadership; Outdoor; Service Learning; Sports & Health", "Phone": "720-865-2022", "Email": "lchampion@denverlibrary.org", "Website": "https://www.denverlibrary.org" }, "geometry": { "type": "Point", "coordinates": [ -104.962092, 39.78160809 ] } },
{ "type": "Feature", "properties": { "Global_Site_ID": 124633, "Activity_Category": "Youth Development", "Site_Name": "Woodbury Branch Library", "Address": "3265 Federal Blvd.", "City": "Denver", "State": "CO", "Zip": 80211, "Latitude": 39.76296474, "Longitude": -105.0265337, "Site_IDs": "122768", "Org_IDs": 36548, "Organization": "Denver Public Library - City & County of Denver Independent Agency", "Location_Type": "Library", "DPS_School_Num": null, "Programs": "Art and Crafts for Kids at Eugene Field Library; Game Club; Kid's Maker Club at Ford Warren Library; Lego Club at Eugene Field Library; Little University - Hadley; Little University - Rodolfo \"\"\"\"Corky\"\"\"\" Gonzalez; Little University at Bear Valley", "Program_Count": 7, "Program_Description": "Create building projects with Legos! We provide the building bricks and you provide the creativity. Ideal for ages 5-12 with an adult. Wednesdays 3:30-4:30.; Join the Little University team for virtual events or watch the videos (English & Spanish) on YouTube. Projects are geared to children 2 & up using supplies many of you already have at home.; Learn new skills and get creative. We’ll provide open-ended art and science exploration materials. Ideal for ages 5-12. 2nd Wednesday of the month.; L", "Cost": "Free", "Scholarship_Available": false, "Open_Enrollment": true, "Registration_Process": null, "Registration_URL": null, "Food_Provided": "No", "Transport_Available": false, "Time_Availability": "After School; Before School; By Request; Holiday; School Day; Summer", "Focus_Areas": "Academic; Arts; Family Support; Leadership; Outdoor; Service Learning; Sports & Health", "Phone": "720-865-2022", "Email": "lchampion@denverlibrary.org", "Website": "https://www.denverlibrary.org" }, "geometry": { "type": "Point", "coordinates": [ -105.0265337, 39.76296474 ] } },
{ "type": "Feature", "properties": { "Global_Site_ID": 125619, "Activity_Category": "Youth Development", "Site_Name": "Hidden Lake High School", "Address": "7300 Lowell Blvd", "City": "Westminster", "State": "CO", "Zip": 80030, "Latitude": 39.82955149, "Longitude": -105.0331647, "Site_IDs": "127138", "Org_IDs": 36479, "Organization": "Boys & Girls Clubs of Metro Denver", "Location_Type": "School (Private or Non-DPS)", "DPS_School_Num": null, "Programs": "After School Programming; Afterschool Programming", "Program_Count": 2, "Program_Description": "We provide afterschool and summer enrichment programs for kids in a safe fun and enriching environment. Members have access to nutritious meals and opportunities for academic success healthy lifestyles and leadership skills. Programs vary by Club.", "Cost": "Free", "Scholarship_Available": false, "Open_Enrollment": true, "Registration_Process": "Parents or guardians have two options for registration:1)\tFill out and submit a paper registration form at the Club.2)\tRegister online on Boys & Girls Clubs of Metro Denver’s website. Log in or create an account.", "Registration_URL": "https://www.ezchildtrack.com/ParentBGC/ParentLogin.aspx?c=bgcmd", "Food_Provided": "Dinner; Yes - Snacks", "Transport_Available": true, "Time_Availability": "After School; Before School; Summer", "Focus_Areas": "Academic; Arts; College & Career; Family Support; Leadership; Outdoor; Service Learning; Sports & Health", "Phone": "303-892-9200", "Email": "info@bgcmd.org", "Website": "https://www.bgcmd.org/clubs/" }, "geometry": { "type": "Point", "coordinates": [ -105.0331647, 39.82955149 ] } },
{ "type": "Feature", "properties": { "Global_Site_ID": 125620, "Activity_Category": "Youth Development", "Site_Name": "Altura Elementary School", "Address": "1650 Altura Blvd,", "City": "Aurora", "State": "CO", "Zip": 80011, "Latitude": 39.74393586, "Longitude": -104.8142118, "Site_IDs": "126975", "Org_IDs": 36479, "Organization": "Boys & Girls Clubs of Metro Denver", "Location_Type": "School (Private or Non-DPS)", "DPS_School_Num": null, "Programs": "After School Programming; Afterschool Programming", "Program_Count": 2, "Program_Description": "We provide afterschool and summer enrichment programs for kids in a safe fun and enriching environment. Members have access to nutritious meals and opportunities for academic success healthy lifestyles and leadership skills. Programs vary by Club.", "Cost": "Free", "Scholarship_Available": false, "Open_Enrollment": true, "Registration_Process": "Parents or guardians have two options for registration:1)\tFill out and submit a paper registration form at the Club.2)\tRegister online on Boys & Girls Clubs of Metro Denver’s website. Log in or create an account.", "Registration_URL": "https://www.ezchildtrack.com/ParentBGC/ParentLogin.aspx?c=bgcmd", "Food_Provided": "Dinner; Yes - Snacks", "Transport_Available": false, "Time_Availability": "After School; Before School; Summer", "Focus_Areas": "Academic; Arts; College & Career; Family Support; Leadership; Outdoor; Service Learning; Sports & Health", "Phone": "303-892-9200", "Email": "info@bgcmd.org", "Website": "https://www.bgcmd.org/clubs/" }, "geometry": { "type": "Point", "coordinates": [ -104.8142118, 39.74393586 ] } },
{ "type": "Feature", "properties": { "Global_Site_ID": 125621, "Activity_Category": "Youth Development", "Site_Name": "Boston K-8 School", "Address": "1365 Boston Street", "City": "Aurora", "State": "CO", "Zip": 80010, "Latitude": 39.73814719, "Longitude": -104.8804839, "Site_IDs": "127134", "Org_IDs": 36479, "Organization": "Boys & Girls Clubs of Metro Denver", "Location_Type": "School (Private or Non-DPS)", "DPS_School_Num": null, "Programs": "After School Programming; Afterschool Programming", "Program_Count": 2, "Program_Description": "We provide afterschool and summer enrichment programs for kids in a safe fun and enriching environment. Members have access to nutritious meals and opportunities for academic success healthy lifestyles and leadership skills. Programs vary by Club.", "Cost": "Free", "Scholarship_Available": false, "Open_Enrollment": true, "Registration_Process": "Parents or guardians have two options for registration:1)\tFill out and submit a paper registration form at the Club.2)\tRegister online on Boys & Girls Clubs of Metro Denver’s website. Log in or create an account.", "Registration_URL": "https://www.ezchildtrack.com/ParentBGC/ParentLogin.aspx?c=bgcmd", "Food_Provided": "Dinner; Yes - Snacks", "Transport_Available": false, "Time_Availability": "After School; Before School; Summer", "Focus_Areas": "Academic; Arts; College & Career; Family Support; Leadership; Outdoor; Service Learning; Sports & Health", "Phone": "303-892-9200", "Email": "info@bgcmd.org", "Website": "https://www.bgcmd.org/clubs/" }, "geometry": { "type": "Point", "coordinates": [ -104.8804839, 39.73814719 ] } },
{ "type": "Feature", "properties": { "Global_Site_ID": 125622, "Activity_Category": "Youth Development", "Site_Name": "Laredo Elementary School", "Address": "1350 Laredo St", "City": "Aurora", "State": "CO", "Zip": 80011, "Latitude": 39.73748954, "Longitude": -104.7993663, "Site_IDs": "127135", "Org_IDs": 36479, "Organization": "Boys & Girls Clubs of Metro Denver", "Location_Type": "School (Private or Non-DPS)", "DPS_School_Num": null, "Programs": "After School Programming; Afterschool Programming", "Program_Count": 2, "Program_Description": "We provide afterschool and summer enrichment programs for kids in a safe fun and enriching environment. Members have access to nutritious meals and opportunities for academic success healthy lifestyles and leadership skills. Programs vary by Club.", "Cost": "Free", "Scholarship_Available": false, "Open_Enrollment": true, "Registration_Process": "Parents or guardians have two options for registration:1)\tFill out and submit a paper registration form at the Club.2)\tRegister online on Boys & Girls Clubs of Metro Denver’s website. Log in or create an account.", "Registration_URL": "https://www.ezchildtrack.com/ParentBGC/ParentLogin.aspx?c=bgcmd", "Food_Provided": "Dinner; Yes - Snacks", "Transport_Available": false, "Time_Availability": "After School; Before School; Summer", "Focus_Areas": "Academic; Arts; College & Career; Family Support; Leadership; Outdoor; Service Learning; Sports & Health", "Phone": "303-892-9200", "Email": "info@bgcmd.org", "Website": "https://www.bgcmd.org/clubs/" }, "geometry": { "type": "Point", "coordinates": [ -104.7993663, 39.73748954 ] } },
{ "type": "Feature", "properties": { "Global_Site_ID": 125675, "Activity_Category": "Youth Development", "Site_Name": "Mark Hopkins Elementary", "Address": "7171 S Pennsylvania St", "City": "Centennial", "State": "CO", "Zip": 80122, "Latitude": 39.587871, "Longitude": -104.981647, "Site_IDs": "127136", "Org_IDs": 36479, "Organization": "Boys & Girls Clubs of Metro Denver", "Location_Type": "School (Private or Non-DPS)", "DPS_School_Num": null, "Programs": "After School Programming; Afterschool Programming", "Program_Count": 2, "Program_Description": "We provide afterschool and summer enrichment programs for kids in a safe fun and enriching environment. Members have access to nutritious meals and opportunities for academic success healthy lifestyles and leadership skills. Programs vary by Club.", "Cost": "Free", "Scholarship_Available": false, "Open_Enrollment": true, "Registration_Process": "Parents or guardians have two options for registration:1)\tFill out and submit a paper registration form at the Club.2)\tRegister online on Boys & Girls Clubs of Metro Denver’s website. Log in or create an account.", "Registration_URL": "https://www.ezchildtrack.com/ParentBGC/ParentLogin.aspx?c=bgcmd", "Food_Provided": "Dinner; Yes - Snacks", "Transport_Available": false, "Time_Availability": "After School; Before School; Summer", "Focus_Areas": "Academic; Arts; College & Career; Family Support; Leadership; Outdoor; Service Learning; Sports & Health", "Phone": "303-892-9200", "Email": "info@bgcmd.org", "Website": "https://www.bgcmd.org/clubs/" }, "geometry": { "type": "Point", "coordinates": [ -104.981647, 39.587871 ] } },
{ "type": "Feature", "properties": { "Global_Site_ID": 132490, "Activity_Category": "Youth Development", "Site_Name": "Denver Public Schools Acoma Campus", "Address": "1617 S Acoma Street", "City": "Denver", "State": "CO", "Zip": 80223, "Latitude": 39.68694416, "Longitude": -104.9895169, "Site_IDs": "134614", "Org_IDs": 42010, "Organization": "Sunny Boy Foundation", "Location_Type": "Other", "DPS_School_Num": null, "Programs": "I Like Me Workshop; Sunny Boy Songs of Learning and Love 1 hr.; Sunny Boy Songs of Learning and Love 2 hr.; Sunny Boy for Middle and High School 2 hr.", "Program_Count": 4, "Program_Description": "Music based program with specific results oriented interactive workshops & activities. All content is based in SEL and best practices. Students get a great membership & inclusion team work empathy empowerment self-value leadership education.; Self- value is the focus of this fun and educational workshop. In very child appropriate and entertaining ways concepts surrounding self-value are explored leaving children with  positive and empowering learning outcomes.", "Cost": "Free", "Scholarship_Available": false, "Open_Enrollment": true, "Registration_Process": "An online form, pdf, and paper form is available. The link to the online form and pdf is available in the menu of our web site or, email info@sunnyboyfoundation.org to have a form mailed to you.", "Registration_URL": "http://sunnyboyfoundation.org/?page_id=486", "Food_Provided": "No", "Transport_Available": false, "Time_Availability": "After School; By Request; Holiday; School Day", "Focus_Areas": "Arts; Leadership", "Phone": "720-277-7579", "Email": "info@sunnyboyfoundation.org", "Website": "http://sunnyboyfoundation.org" }, "geometry": { "type": "Point", "coordinates": [ -104.9895169, 39.68694416 ] } },
{ "type": "Feature", "properties": { "Global_Site_ID": 138992, "Activity_Category": "Youth Development", "Site_Name": "Colorado Sports Leadership Academy", "Address": "7001 Lipan St", "City": "Denver", "State": "CO", "Zip": 80221, "Latitude": 39.82525099, "Longitude": -105.0031032, "Site_IDs": "132434", "Org_IDs": 36479, "Organization": "Boys & Girls Clubs of Metro Denver", "Location_Type": "School (Private or Non-DPS)", "DPS_School_Num": null, "Programs": "After School Programming; Afterschool Programming", "Program_Count": 2, "Program_Description": "We provide afterschool and summer enrichment programs for kids in a safe fun and enriching environment. Members have access to nutritious meals and opportunities for academic success healthy lifestyles and leadership skills. Programs vary by Club.", "Cost": "Free", "Scholarship_Available": false, "Open_Enrollment": true, "Registration_Process": null, "Registration_URL": "https://www.bgcmd.org/", "Food_Provided": "No", "Transport_Available": false, "Time_Availability": "After School; Before School; Summer", "Focus_Areas": "Academic; Arts; College & Career; Family Support; Leadership; Outdoor; Service Learning; Sports & Health", "Phone": "303-892-9200", "Email": "info@bgcmd.org", "Website": "https://www.bgcmd.org/clubs/" }, "geometry": { "type": "Point", "coordinates": [ -105.0031032, 39.82525099 ] } },
{ "type": "Feature", "properties": { "Global_Site_ID": 139313, "Activity_Category": "Youth Development", "Site_Name": "Big Brothers, Big Sisters of Colorado ", "Address": "750 W Hampden Ave", "City": "Englewood", "State": "CO", "Zip": 80110, "Latitude": 39.65265368, "Longitude": -104.9964033, "Site_IDs": "133404", "Org_IDs": 36536, "Organization": "Big Brothers Big Sisters of Colorado", "Location_Type": "Community", "DPS_School_Num": null, "Programs": "Community Mentoring Program; Sports Buddies", "Program_Count": 2, "Program_Description": "Big Brothers Big Sisters of Colorado makes meaningful monitored matches between adult volunteers (“Bigs”) and children (“Littles”) ages nine through young adulthood in Colorado.; Bigs and Littles participate in agency-supervised and organized match activities including attending and playing team sports.", "Cost": "Free", "Scholarship_Available": false, "Open_Enrollment": true, "Registration_Process": "First step is to fill this out online: https://www.biglittlecolorado.org/enroll-a-child/apply/Our staff will then get in touch about setting up an interview to meet you and your child so that we can learn more about you and your family, so that we can make the best 'match' for your child.", "Registration_URL": "https://www.biglittlecolorado.org/enroll-a-child/apply/", "Food_Provided": "No", "Transport_Available": true, "Time_Availability": "By Request", "Focus_Areas": "Family Support; Leadership; Sports & Health", "Phone": "303-433-6002 x442", "Email": "Marissal@biglittlecolorado.org", "Website": "http://www.BigLittleColorado.org" }, "geometry": { "type": "Point", "coordinates": [ -104.9964033, 39.65265368 ] } },
{ "type": "Feature", "properties": { "Global_Site_ID": 139579, "Activity_Category": "Youth Development", "Site_Name": "Valverde Neighborhood Association", "Address": "1240 W Bayaud Ave", "City": "Denver", "State": "CO", "Zip": 80223, "Latitude": 39.71523683, "Longitude": -105.0027414, "Site_IDs": "133472", "Org_IDs": 38501, "Organization": "Life-Line", "Location_Type": "Community", "DPS_School_Num": null, "Programs": "Ballet De Sangria; House of Pain Boxing; Life-Line Denver (HOPE); Pathfinders", "Program_Count": 4, "Program_Description": "All age traditional Folkórico dance class.; HOPE Online drop in center for students in grades 8-12. Mentors are assigned to each student to ensure a wonderful school year!; Paid student led program that involves program design and implementation community mobilization social media and marketing including organizing community activities and/or programs for youth; Youth professional and amateur boxing club", "Cost": "Free and fee-based programs available", "Scholarship_Available": true, "Open_Enrollment": true, "Registration_Process": "There is no registration requirements to come to the building. Life-Line's Youth empowerment Center is designed as a safe zone for individuals to come in and use the WIFI if needed, can relax on the couch and watch TV.  Utilize time and space to complete homework, employment applications, resumes etc.  Life-Line does run 3 programs which do have registration processes and requirements.", "Registration_URL": "https://www.life-linecolorado.org", "Food_Provided": "Dinner; Yes - Snacks", "Transport_Available": false, "Time_Availability": "After School; Before School; By Request; Holiday; School Day; Summer", "Focus_Areas": "Academic; Arts; College & Career; Family Support; Leadership; Outdoor; Service Learning; Sports & Health", "Phone": "17206951608", "Email": "t.ruybol@life-linecolorado.org", "Website": "https://www.life-linecolorado.org" }, "geometry": { "type": "Point", "coordinates": [ -105.0027414, 39.71523683 ] } },
{ "type": "Feature", "properties": { "Global_Site_ID": 139702, "Activity_Category": "Youth Development", "Site_Name": "South Denver Street Outreach", "Address": "1000 Englewood Pkwy", "City": "Englewood", "State": "CO", "Zip": 80110, "Latitude": 39.654778, "Longitude": -104.998993, "Site_IDs": "133614", "Org_IDs": 40108, "Organization": "StandUp for Kids", "Location_Type": "Other", "DPS_School_Num": null, "Programs": "Street Outreach", "Program_Count": 1, "Program_Description": "StandUp for Kids Denver provides street outreach and advocacy for homeless and at risk youth. We go into the street the same time same day and same route in an attempt to find and help homeless youth.", "Cost": "Free", "Scholarship_Available": false, "Open_Enrollment": true, "Registration_Process": null, "Registration_URL": null, "Food_Provided": "Yes - Snacks", "Transport_Available": false, "Time_Availability": "After School", "Focus_Areas": "Family Support; Leadership; Service Learning", "Phone": "470-808-4668", "Email": "jeremya@standupforkids.org", "Website": "https://www.standupforkids.org/denver" }, "geometry": { "type": "Point", "coordinates": [ -104.998993, 39.654778 ] } },
{ "type": "Feature", "properties": { "Global_Site_ID": 144263, "Activity_Category": "Youth Development", "Site_Name": "Aurora DeMolay", "Address": "1625 Florence St", "City": "Aurora", "State": "CO", "Zip": 80010, "Latitude": 39.74265762, "Longitude": -104.872028, "Site_IDs": "133818", "Org_IDs": 40432, "Organization": "DeMolay Colorado", "Location_Type": "Community", "DPS_School_Num": null, "Programs": "Aurora chapter meeting", "Program_Count": 1, "Program_Description": "DeMolay is a fraternity for young men aged 12-20 that helps build character and leadership skills. With chapters worldwide it offers a variety of activities and events including community service projects and social events.", "Cost": "Free and fee-based programs available", "Scholarship_Available": true, "Open_Enrollment": true, "Registration_Process": "Potential members are welcome to attend most events.  Application is available from the website at https://beademolay.org/join/application/.  There is a one-time membership fee.", "Registration_URL": "https://beademolay.org/join/application/", "Food_Provided": "No", "Transport_Available": false, "Time_Availability": "After School", "Focus_Areas": "Leadership; Service Learning", "Phone": "303-522-7346", "Email": "auroracodemolay@gmail.com", "Website": "https://beademolay.org/" }, "geometry": { "type": "Point", "coordinates": [ -104.872028, 39.74265762 ] } },
{ "type": "Feature", "properties": { "Global_Site_ID": 150090, "Activity_Category": "Youth Development", "Site_Name": "Commun", "Address": "2288 S. Tennyson St.", "City": "Denver", "State": "CO", "Zip": 80219, "Latitude": 39.67534947, "Longitude": -105.0432858, "Site_IDs": "134234", "Org_IDs": 41089, "Organization": "Commun", "Location_Type": "Community", "DPS_School_Num": null, "Programs": "Youth Mental Health Group", "Program_Count": 1, "Program_Description": "Co-designed by teenagers in Southwest Denver our weekly mental health group explores topics around mental health and wellbeing. We engage in hands-on activities and discussions about what's going on in schools at home and in our communities.", "Cost": "Free", "Scholarship_Available": false, "Open_Enrollment": true, "Registration_Process": null, "Registration_URL": null, "Food_Provided": "Yes - Snacks", "Transport_Available": false, "Time_Availability": "After School; Summer", "Focus_Areas": "Family Support; Service Learning", "Phone": "7206880256", "Email": "laura@commundenver.org", "Website": "https://commundenver.org/" }, "geometry": { "type": "Point", "coordinates": [ -105.0432858, 39.67534947 ] } }
]
}
